,street,number,postal_code,neighbourhood,region,latitude,longitude,name
0,Oslo Gate,18,192,Gamle Oslo,Oslo,59.905077,10.767659,Oslo Gate 18
1,Osterhaus'' Gate,7,183,hammer,Oslo,59.915864,10.754429,Osterhaus'' Gate 7
2,Breigata,12,187,Enerhaugen,Oslo,59.914069,10.76123,Breigata 12
3,Grensen,20,180,hammer,Oslo,59.914377,10.741273,Grensen 20
4,Ullevålsveien,95,359,Bislett,Oslo,59.932711,10.733718,Ullevålsveien 95
5,Akershusstranda,25,150,St. Hanshaugen,Oslo,59.901814,10.741166,Akershusstranda 25
6,Sandakerveien,102D,484,Torshov,Oslo,59.944756,10.771561,Sandakerveien 102D
7,Torggata,35,183,hammer,Oslo,59.917298,10.754027,Torggata 35
8,Grundingen,2,250,Aker Brygge,Oslo,59.910351,10.727818,Grundingen 2
9,Oscars Gate,81,256,Ruselokka,Oslo,59.915955,10.71699,Oscars Gate 81
10,Arbeidergata,2,159,hammer,Oslo,59.914499,10.74084,Arbeidergata 2
11,Lilleakerveien,16,283,Skøyen,Oslo,59.917405,10.636047,Lilleakerveien 16
12,Heimdalsgata,37,578,Enerhaugen,Oslo,59.914111,10.767301,Heimdalsgata 37
13,Stranden,71,250,Aker Brygge,Oslo,59.908798,10.724357,Stranden 71
14,Skovveien,3,257,Ruselokka,Oslo,59.9159,10.716192,Skovveien 3
15,Erich Mogensøns Vei,38,594,Erich Mogensøns Vei,Oslo,59.943242,10.835478,Erich Mogensøns Vei 38
16,Vogts gate,45B,477,Torshov,Oslo,59.934189,10.764368,Vogts gate 45B
17,Bernt Ankers gate,37,183,hammer,Oslo,59.917023,10.75027,Bernt Ankers gate 37
18,Nedre Slottsgate,8,157,St. Hanshaugen,Oslo,59.91216,10.742763,Nedre Slottsgate 8
19,Bergensveien,2,963,Ammerud,Oslo,59.959893,10.881241,Bergensveien 2
20,Karl Johans Gate,39,162,Vika,Oslo,59.914315,10.737652,Karl Johans Gate 39
21,Ullveien,4B,791,Lysebu,Oslo,59.975541,10.66468,Ullveien 4B
22,,,0,Skøyen,Oslo,59.91367,10.64475,Drammensveien 288
23,Romsdalsgata,1C,556,Torshov,Oslo,59.927417,10.7644,Romsdalsgata 1C
24,Helgesens gate,16C,553,Fredensborg,Oslo,59.924627,10.759033,Helgesens gate 16C
25,Bernt Ankers gate,27,183,hammer,Oslo,59.916472,10.751166,Bernt Ankers gate 27
26,Fridtjof Nansens Plass,2,160,Vika,Oslo,59.912946,10.733441,Fridtjof Nansens Plass 2
27,Holmenveien,11,374,Ris,Oslo,59.943411,10.699794,Holmenveien 11
28,Sigurds Gate,16,650,Grønland,Oslo,59.912542,10.77387,Sigurds Gate 16
29,Youngs gate,19,181,hammer,Oslo,59.915119,10.750084,Youngs gate 19
30,Skøyenveien,43,375,Gimlé,Oslo,59.929176,10.687622,Skøyenveien 43
31,,,0,Kjelsås,Oslo,59.979252,10.817667,Solemskogen
32,Torggata,16B,181,hammer,Oslo,59.915926,10.751005,Torggata 16B
33,Lilleakerveien,16,283,Skøyen,Oslo,59.917405,10.636047,Lilleakerveien 16
34,Karenslyst Allé,2,278,Gimlé,Oslo,59.918396,10.686283,Karenslyst Allé 2
35,Thereses Gate,45,354,Bislett,Oslo,59.92654,10.731155,Thereses Gate 45
36,Bygdøy Allé,59,265,Gimlé,Oslo,59.918587,10.705045,Bygdøy Allé 59
37,Fredensborgveien,9B,177,hammer,Oslo,59.91787,10.747492,Fredensborgveien 9B
38,Ekebergveien,228,1162,Ekebergveien,Oslo,59.861331,10.800955,Ekebergveien 228
39,Stortingsgata,20,161,Vika,Oslo,59.91376,10.734885,Stortingsgata 20
40,Hausmanns Gate,8,182,hammer,Oslo,59.917118,10.755666,Hausmanns Gate 8
41,Hausmanns Gate,6,186,Enerhaugen,Oslo,59.915704,10.758676,Hausmanns Gate 6
42,Thorvald Meyers Gate,64,552,Enerhaugen,Oslo,59.921402,10.759434,Thorvald Meyers Gate 64
43,Bøkkerveien,4,579,Økern,Oslo,59.92698,10.793998,Bøkkerveien 4
44,Ruseløkkveien,26,251,Vika,Oslo,59.912665,10.726153,Ruseløkkveien 26
45,Brugata,11,186,Vaterland,Oslo,59.913825,10.756473,Brugata 11
46,Norbygata,56,190,Vaterland,Oslo,59.913141,10.765646,Norbygata 56
47,,,0,Tveita,Oslo,59.926288,10.847765,Alna senter
48,Frognerveien,1A,257,Ruselokka,Oslo,59.915147,10.717611,Frognerveien 1A
49,Arbeidergata,2,159,hammer,Oslo,59.914499,10.74084,Arbeidergata 2
50,Hoffsveien,92,377,Smedstad,Oslo,59.936898,10.683487,Hoffsveien 92
51,Hegdehaugsveien,34,352,Homansbyen,Oslo,59.922675,10.726310999999999,Hegdehaugsveien 34
52,Kirkegata,34,153,St. Hanshaugen,Oslo,59.911764,10.745347,Kirkegata 34
53,Vitaminveien,7,485,Nydalen,Oslo,59.947301,10.773794,Vitaminveien 7
54,Karenslyst Allé,55,277,Skøyen,Oslo,59.921501,10.67841,Karenslyst Allé 55
55,Bogstadveien,20,355,Bislett,Oslo,59.925211,10.722674,Bogstadveien 20
56,Thorvald Meyers gate,27A,555,Fredensborg,Oslo,59.926834,10.758914,Thorvald Meyers gate 27A
57,Sørengkaia,163,194,St. Hanshaugen,Oslo,59.902285,10.752083,Sørengkaia 163
58,Kjelsåsveien,18,488,Kjelsås,Oslo,59.944225,10.786392,Kjelsåsveien 18
59,Motzfeldts Gate,3,187,Vaterland,Oslo,59.91352,10.762321,Motzfeldts Gate 3
60,Holmenkollveien,119,787,Holmenkollen,Oslo,59.961112,10.667218,Holmenkollveien 119
61,Brugata,8,186,hammer,Oslo,59.914075,10.754443,Brugata 8
62,Thorvald Meyers gate,61,552,Fredensborg,Oslo,59.922088,10.759126,Thorvald Meyers gate 61
63,Thorvald Meyers gate,78B,550,Enerhaugen,Oslo,59.918888,10.759708,Thorvald Meyers gate 78B
64,Sørkedalsveien,5B,369,Majorstuen,Oslo,59.930691,10.712197,Sørkedalsveien 5B
65,Hammersborggata,9,181,hammer,Oslo,59.915036,10.752189,Hammersborggata 9
66,Storgata,39,182,hammer,Oslo,59.915126,10.754685,Storgata 39
67,Jernbanetorget,6,154,St. Hanshaugen,Oslo,59.911864,10.751097,Jernbanetorget 6
68,Bogstadveien,36,366,Bislett,Oslo,59.926796,10.720213,Bogstadveien 36
69,Bøkkerveien,11,579,Økern,Oslo,59.92739,10.79616,Bøkkerveien 11
70,Ekebergveien,44,196,Gamle Oslo,Oslo,59.900943,10.778123,Ekebergveien 44
71,Carl Berners plass,2,568,Sindsen,Oslo,59.926437,10.776118,Carl Berners plass 2
72,Akershusstranda,25,150,St. Hanshaugen,Oslo,59.901814,10.741166,Akershusstranda 25
73,Jernbanetorget,4,154,St. Hanshaugen,Oslo,59.911685,10.749770999999999,Jernbanetorget 4
74,Bogstadveien,60,366,Majorstuen,Oslo,59.928194,10.717023,Bogstadveien 60
75,Sandtakveien,5,491,Kjelsås,Oslo,59.955208,10.794138,Sandtakveien 5
76,Møllefaret,72G,750,Rud,Oslo,59.938543,10.633435,Møllefaret 72G
77,Sandakerveien,102D,484,Torshov,Oslo,59.944756,10.771561,Sandakerveien 102D
78,Nils Bays vei,78,855,Sogn,Oslo,59.951139,10.734874,Nils Bays vei 78
79,Josefines Gate,36,351,Homansbyen,Oslo,59.921636,10.723583,Josefines Gate 36
80,Sommerrogata,1,255,Ruselokka,Oslo,59.915245,10.719612,Sommerrogata 1
81,Karl Johans gate,26,162,Vika,Oslo,59.914823,10.734686,Karl Johans gate 26
82,Kirkegata,15,153,St. Hanshaugen,Oslo,59.910246,10.743444,Kirkegata 15
83,Nordstrandveien,40,1163,Ekebergveien,Oslo,59.861009,10.801586,Nordstrandveien 40
84,Nordre Gate,18,551,Fredensborg,Oslo,59.921146,10.757604,Nordre Gate 18
85,Trondheimsveien,5,560,Enerhaugen,Oslo,59.918179,10.760705,Trondheimsveien 5
86,,,0,Enerhaugen,Oslo,59.914814,10.766308,Nr. 13
87,Sandakerveien,59,477,Torshov,Oslo,59.938435,10.768473,Sandakerveien 59
88,Grundingen,1,250,Aker Brygge,Oslo,59.910464,10.728074,Grundingen 1
89,Ole Deviks Vei,26,666,Bryn,Oslo,59.917132,10.827849,Ole Deviks Vei 26
90,Sørkedalsveien,1014,758,,Oslo,60.016797,10.612043,Sørkedalsveien 1014
91,Problemveien,11,313,Blindernveien,Oslo,59.940508,10.721292,Problemveien 11
92,Torggata,18,181,hammer,Oslo,59.916126,10.751136,Torggata 18
93,,,0,Briskeby,Oslo,59.927584,10.698691,Nr. 12: Gutteslagsmål
94,Torggata,16B,181,hammer,Oslo,59.915926,10.751005,Torggata 16B
95,Arbins gate,13B,253,Ruselokka,Oslo,59.913935,10.725732,Arbins gate 13B
96,Sofies gate,15B,170,Homansbyen,Oslo,59.922793,10.735818,Sofies gate 15B
97,Frognerveien,1A,257,Ruselokka,Oslo,59.915147,10.717611,Frognerveien 1A
98,Sørkedalsveien,106,378,Smedstad,Oslo,59.941488,10.671457,Sørkedalsveien 106
99,Grefsenveien,94B,492,Kjelsås,Oslo,59.956074,10.785267,Grefsenveien 94B
100,Sandakerveien,106,484,Torshov,Oslo,59.945217,10.771976,Sandakerveien 106
101,Thorvald Meyers Gate,48,552,Fredensborg,Oslo,59.922952,10.759809,Thorvald Meyers Gate 48
102,Universitetsgata,11,164,hammer,Oslo,59.916706,10.738472999999999,Universitetsgata 11
103,Voksenkollveien,60,790,Holmenkollen,Oslo,59.975071,10.655643,Voksenkollveien 60
104,Youngstorget,3,181,hammer,Oslo,59.914322,10.749272,Youngstorget 3
105,Storgata,5,155,St. Hanshaugen,Oslo,59.913199,10.748485,Storgata 5
106,Robert Levins gate,5,150,Vaterland,Oslo,59.908575,10.753516,Robert Levins gate 5
107,Kirkeveien,48,368,Majorstuen,Oslo,59.927545,10.712825,Kirkeveien 48
108,Nydalsveien,33,484,Nydalen,Oslo,59.949113,10.766375,Nydalsveien 33
109,Deichmans Gate,6,178,hammer,Oslo,59.919191,10.749992,Deichmans Gate 6
110,Sørengkaia,101,194,St. Hanshaugen,Oslo,59.902632,10.752881,Sørengkaia 101
111,Vogts gate,64,477,Torshov,Oslo,59.936102,10.765475,Vogts gate 64
112,Rådhusgata,27,158,Vika,Oslo,59.911155,10.735915,Rådhusgata 27
113,Stovner Senter,3,985,Høybråten,Oslo,59.961789,10.923727,Stovner Senter 3
114,Trondheimsveien,111C,565,Sindsen,Oslo,59.925692,10.77612,Trondheimsveien 111C
115,Stovner Senter,3,985,Høybråten,Oslo,59.961789,10.923727,Stovner Senter 3
116,Torshovgata,33,476,Torshov,Oslo,59.932835,10.768162,Torshovgata 33
117,Kongens Gate,8,153,St. Hanshaugen,Oslo,59.910205,10.7421,Kongens Gate 8
118,Tjuvholmen Allé,2,252,Aker Brygge,Oslo,59.908836,10.723155,Tjuvholmen Allé 2
119,Operagata,39,194,Vaterland,Oslo,59.906813,10.756127,Operagata 39
120,Sjølyst Plass,5,278,Skøyen,Oslo,59.920215999999996,10.682822999999999,Sjølyst Plass 5
121,Lørenfaret,3,585,Økern,Oslo,59.930579,10.799143,Lørenfaret 3
122,Fredensborgveien,44,177,hammer,Oslo,59.920487,10.749257,Fredensborgveien 44
123,Rådhusgata,28,151,St. Hanshaugen,Oslo,59.909831,10.740738,Rådhusgata 28
124,Torggata,24,183,hammer,Oslo,59.916567,10.752253,Torggata 24
125,Grenseveien,32,571,Sindsen,Oslo,59.924925,10.781195,Grenseveien 32
126,Kristian IVs gate,2,159,hammer,Oslo,59.914735,10.740364,Kristian IVs gate 2
127,Vækerøveien,195C,751,Rud,Oslo,59.946182,10.642804,Vækerøveien 195C
128,Vestlisvingen,188,969,Romsås,Oslo,59.972458,10.928115,Vestlisvingen 188
129,Refstadveien,60,589,Tonsenhagen,Oslo,59.942519,10.811350000000001,Refstadveien 60
130,Arendalsgata,14,463,Torshov,Oslo,59.937816,10.754056,Arendalsgata 14
131,Operagata,71B,194,Vaterland,Oslo,59.906266,10.757979,Operagata 71B
132,Fredensborgveien,13C,177,hammer,Oslo,59.918069,10.748039,Fredensborgveien 13C
133,Helgesens gate,44B,553,Enerhaugen,Oslo,59.923651,10.76505,Helgesens gate 44B
134,Bergensgata,5,468,Torshov,Oslo,59.941001,10.759633000000001,Bergensgata 5
135,Maridalsveien,15,178,Fredensborg,Oslo,59.922647,10.751197,Maridalsveien 15
136,Waldemar Thranes gate,72,175,Fredensborg,Oslo,59.928221,10.750506,Waldemar Thranes gate 72
137,Huk aveny,56,287,Bygdøy,Oslo,59.89911,10.678159,Huk aveny 56
138,Kingos Gate,15,457,Ila,Oslo,59.929739,10.751381,Kingos Gate 15
139,Akershusstranda,13,150,Vika,Oslo,59.907633,10.734571,Akershusstranda 13
140,Trondheimsveien,157,570,Sindsen,Oslo,59.93116,10.778807,Trondheimsveien 157
141,Bryggegangen,6,252,Aker Brygge,Oslo,59.908671,10.721941,Bryggegangen 6
142,,,0,Bøler,Oslo,59.890257,10.85279,Østmarka skole
143,Torggata,16B,181,hammer,Oslo,59.915926,10.751005,Torggata 16B
144,Karlstadgata,17,553,Torshov,Oslo,59.924777,10.764298,Karlstadgata 17
145,,,0,Smedstad,Oslo,59.925603,10.674634,Hoffsveien 10
146,Østensjøveien,79,667,Bryn,Oslo,59.903192,10.822458,Østensjøveien 79
147,Stortingsgata,16,161,Vika,Oslo,59.913555,10.735851,Stortingsgata 16
148,Wessels Gate,2,165,hammer,Oslo,59.919659,10.743019,Wessels Gate 2
149,Youngstorget,3,181,hammer,Oslo,59.914322,10.749272,Youngstorget 3
150,Nedre Prinsdals Vei,76,1263,Holmlia,Oslo,59.83306,10.808504,Nedre Prinsdals Vei 76
151,Trygve Lies Plass,1,1051,Lindeberg,Oslo,59.942157,10.897744,Trygve Lies Plass 1
152,Vålerenggata,13,657,Gamle Oslo,Oslo,59.907838,10.785645,Vålerenggata 13
153,Seilduksgata,5,553,Fredensborg,Oslo,59.925336,10.756513,Seilduksgata 5
154,Fridtjof Nansens Plass,5,160,Vika,Oslo,59.913222,10.734444,Fridtjof Nansens Plass 5
155,Kjelsåsveien,143C,491,Nydalen,Oslo,59.966246,10.781107,Kjelsåsveien 143C
156,Rosenkrantz'' Gate,11,159,hammer,Oslo,59.914329,10.739208,Rosenkrantz'' Gate 11
157,Hagegata,22,653,Grønland,Oslo,59.914421,10.775439,Hagegata 22
158,,,0,Høybråten,Oslo,59.961651,10.928757,Karl Fossums vei 30
159,Parkveien,6,350,Homansbyen,Oslo,59.921397,10.730061,Parkveien 6
160,Grenseveien,50,579,Tøyen,Oslo,59.92357,10.792794,Grenseveien 50
161,Smalvollveien,34,667,Tveita,Oslo,59.91897,10.836196,Smalvollveien 34
162,Karenslyst Allé,11,278,Skøyen,Oslo,59.920846,10.68283,Karenslyst Allé 11
163,Niels Juels Gate,33,257,Ruselokka,Oslo,59.917426,10.715493,Niels Juels Gate 33
164,Granbergstubben,16,1275,Rønning,Oslo,59.826419,10.836913,Granbergstubben 16
165,Møllergata,8,179,hammer,Oslo,59.914181,10.746586,Møllergata 8
166,Pilestredet Park,24,176,hammer,Oslo,59.918934,10.737309,Pilestredet Park 24
167,Stortingsgata,4,158,Vika,Oslo,59.912838,10.738591,Stortingsgata 4
168,Maridalsveien,13,178,Fredensborg,Oslo,59.92175,10.751527,Maridalsveien 13
169,Ruseløkkveien,3,251,Vika,Oslo,59.914241,10.728994,Ruseløkkveien 3
170,Oberst Rodes vei,46D,1152,Lambertseter,Oslo,59.870374,10.808127,Oberst Rodes vei 46D
171,Grønland,14,188,Vaterland,Oslo,59.913129,10.760871,Grønland 14
172,Dronning Eufemias gate,12,191,Vaterland,Oslo,59.908208,10.757428,Dronning Eufemias gate 12
173,Sommerrogata,17,255,Ruselokka,Oslo,59.914986,10.718172,Sommerrogata 17
174,Skovveien,8,257,Ruselokka,Oslo,59.916363,10.716001,Skovveien 8
175,Lilleakerveien,2C,283,Skøyen,Oslo,59.914726,10.638940999999999,Lilleakerveien 2C
176,Ullevålsveien,41,171,Homansbyen,Oslo,59.923648,10.73978,Ullevålsveien 41
177,St. Olavs plass,2,165,hammer,Oslo,59.918231,10.740283999999999,St. Olavs plass 2
178,Europarådets plass,1,154,St. Hanshaugen,Oslo,59.911954,10.749291,Europarådets plass 1
179,Jernbanetorget,1,154,St. Hanshaugen,Oslo,59.910871,10.750735,Jernbanetorget 1
180,Wergelandsveien,17,167,Homansbyen,Oslo,59.91943,10.730615,Wergelandsveien 17
181,Lysebuveien,12,790,Lysebu,Oslo,59.977237,10.655501,Lysebuveien 12
182,Sørligata,40 b,0,Enerhaugen,Oslo,59.914398,10.771559,Sørligata 40 b
183,Nils Hansens Vei,15,667,Helsfyr,Oslo,59.910794,10.8205,Nils Hansens Vei 15
184,Osterhaus'' Gate,7,183,hammer,Oslo,59.915864,10.754429,Osterhaus'' Gate 7
185,Stockfleths gate,53A,461,Ila,Oslo,59.936844,10.752464,Stockfleths gate 53A
186,Lilleakerveien,23,283,Skøyen,Oslo,59.918945,10.636636,Lilleakerveien 23
187,Grefsenveien,57,487,Nydalen,Oslo,59.94536,10.780555,Grefsenveien 57
188,Vibes gate,11B,356,Bislett,Oslo,59.926517,10.72372,Vibes gate 11B
189,Grensen,1,159,St. Hanshaugen,Oslo,59.91341,10.744698,Grensen 1
190,Trondheimsveien,10C,560,Enerhaugen,Oslo,59.919524,10.764233,Trondheimsveien 10C
191,Karl Johans gate,18 C,0,St. Hanshaugen,Oslo,59.912638,10.741861,Karl Johans gate 18 C
192,Niels Juels gate,31,257,Ruselokka,Oslo,59.91678,10.714860999999999,Niels Juels gate 31
193,Kongens Gate,8,153,St. Hanshaugen,Oslo,59.910205,10.7421,Kongens Gate 8
194,Torggata,28,183,hammer,Oslo,59.916843,10.752728,Torggata 28
195,Bygdøy allé,12,262,Ruselokka,Oslo,59.916002,10.712514,Bygdøy allé 12
196,Gabels Gate,16,272,Skillebekk,Oslo,59.913655,10.70905,Gabels Gate 16
197,Pilestredet,75,354,Bislett,Oslo,59.927378,10.728449,Pilestredet 75
198,Lilletorget,1,184,Vaterland,Oslo,59.913501,10.755877,Lilletorget 1
199,Turbinveien,26,195,Gamle Oslo,Oslo,59.904116,10.789531,Turbinveien 26
200,Kaj Munks Vei,41,876,Korsvold,Oslo,59.952437,10.751197,Kaj Munks Vei 41
201,Vogts gate,43,474,Torshov,Oslo,59.933476,10.763881,Vogts gate 43
202,Carl Berners plass,2,568,Sindsen,Oslo,59.926437,10.776118,Carl Berners plass 2
203,Landgangen,1,252,Aker Brygge,Oslo,59.907662,10.72105,Landgangen 1
204,Odins gate,19A,266,Briskeby,Oslo,59.919504,10.708247,Odins gate 19A
205,Karenslyst Allé,9,278,Skøyen,Oslo,59.920521,10.683642,Karenslyst Allé 9
206,Kirkeveien,51,368,Majorstuen,Oslo,59.927656999999996,10.713796,Kirkeveien 51
207,Keysers Gate,7,165,hammer,Oslo,59.916898,10.74246,Keysers Gate 7
208,Vulkan,5,178,Fredensborg,Oslo,59.922427,10.751924,Vulkan 5
209,Øvre Slottsgate,3,157,Vika,Oslo,59.911002,10.74017,Øvre Slottsgate 3
210,Bogstadveien,66,366,Majorstuen,Oslo,59.928664,10.715726,Bogstadveien 66
211,Universitetsgata,11,164,hammer,Oslo,59.916706,10.738472999999999,Universitetsgata 11
212,Pløens gate,4,181,hammer,Oslo,59.914168,10.748852,Pløens gate 4
213,Jernbanetorget,1,154,St. Hanshaugen,Oslo,59.910871,10.750735,Jernbanetorget 1
214,,,0,Skillebekk,Oslo,59.912647,10.711385,Skillebekkparken
215,Bryggetorget,5,250,Aker Brygge,Oslo,59.910098,10.72464,Bryggetorget 5
216,Kristian IV''s Gate,4,164,hammer,Oslo,59.914895,10.739744,Kristian IV''s Gate 4
217,Pløens gate,4,181,hammer,Oslo,59.914168,10.748852,Pløens gate 4
218,Sørengkaia,51,194,St. Hanshaugen,Oslo,59.903392,10.755541000000001,Sørengkaia 51
219,Stovner Senter,3,985,Høybråten,Oslo,59.961789,10.923727,Stovner Senter 3
220,Hegdehaugsveien,22B,167,Homansbyen,Oslo,59.920229,10.729995,Hegdehaugsveien 22B
221,Sørengkaia,146,194,St. Hanshaugen,Oslo,59.901246,10.752265,Sørengkaia 146
222,,,0,Aker Brygge,Oslo,59.910135,10.728725,Aker brygge
223,Ulvenveien,82A,581,Økern,Oslo,59.925932,10.811649,Ulvenveien 82A
224,Grønland,5,188,Vaterland,Oslo,59.913106,10.759545,Grønland 5
225,Vækerøveien,207,751,Rud,Oslo,59.948303,10.643922,Vækerøveien 207
226,Mandalls gate,10,190,Vaterland,Oslo,59.911007,10.763015,Mandalls gate 10
227,Sognsveien,70B,855,Sogn,Oslo,59.948208,10.731483,Sognsveien 70B
228,Operagata,17,194,Vaterland,Oslo,59.907213,10.756059,Operagata 17
229,Fjordalléen,20,250,Aker Brygge,Oslo,59.909509,10.725055,Fjordalléen 20
230,,,0,Torshov,Oslo,59.92897,10.758812,"Thorvald Meyersgate 7-11, nedre plan"
231,Arbeidersamfunnets Plass,1,181,hammer,Oslo,59.915518,10.751805,Arbeidersamfunnets Plass 1
232,Ruseløkkveien,3,251,Vika,Oslo,59.914241,10.728994,Ruseløkkveien 3
233,Ruseløkkveien,26,251,Vika,Oslo,59.912665,10.726153,Ruseløkkveien 26
234,Prinsens Gate,5,152,St. Hanshaugen,Oslo,59.9108,10.746303,Prinsens Gate 5
235,Olav Kyrres gate,6F,273,Gimlé,Oslo,59.918252,10.69093,Olav Kyrres gate 6F
236,,,0,hammer,Oslo,59.914924,10.753613,Bernt Ankers gate
237,Olaf Ryes Plass,12,552,Fredensborg,Oslo,59.923489000000004,10.75863,Olaf Ryes Plass 12
238,Motzfeldts Gate,3,187,Vaterland,Oslo,59.91352,10.762321,Motzfeldts Gate 3
239,Prinsens Gate,5,152,St. Hanshaugen,Oslo,59.9108,10.746303,Prinsens Gate 5
240,Karl Johans Gate,6,154,St. Hanshaugen,Oslo,59.911432,10.748067,Karl Johans Gate 6
241,Grønland,12,188,Vaterland,Oslo,59.913307,10.760468,Grønland 12
242,Vulkan,5,178,Fredensborg,Oslo,59.922427,10.751924,Vulkan 5
243,Granhekkveien,1,682,Opsal,Oslo,59.900682,10.825137999999999,Granhekkveien 1
244,Henrik Ibsens gate,100,255,Ruselokka,Oslo,59.914153,10.718812,Henrik Ibsens gate 100
245,Torggata,11,181,hammer,Oslo,59.914047,10.748477,Torggata 11
246,Lørenfaret,1,585,Økern,Oslo,59.93072,10.800486,Lørenfaret 1
247,Tordenskiolds Gate,6,160,Vika,Oslo,59.91278,10.736345,Tordenskiolds Gate 6
248,Lilleakerveien,31,283,Skøyen,Oslo,59.920081,10.636469,Lilleakerveien 31
249,Rådhusgata,32,151,St. Hanshaugen,Oslo,59.910205,10.738916,Rådhusgata 32
250,Munkedamsveien,59B,244,Aker Brygge,Oslo,59.911043,10.721575,Munkedamsveien 59B
251,Munkedamsveien,45,250,Aker Brygge,Oslo,59.911007,10.723824,Munkedamsveien 45
252,Nedre Slottsgate,21,157,St. Hanshaugen,Oslo,59.912996,10.743176,Nedre Slottsgate 21
253,St. Olavs plass,3,165,hammer,Oslo,59.917943,10.740609,St. Olavs plass 3
254,,,0,Vaterland,Oslo,59.913104,10.761445,Kiwi Grønland 18
255,Ekebergveien,228,1162,Ekebergveien,Oslo,59.861331,10.800955,Ekebergveien 228
256,Torshovgata,2,476,Torshov,Oslo,59.934314,10.762764,Torshovgata 2
257,Skinnerbakken,7,198,Bekkelaget,Oslo,59.865115,10.750253,Skinnerbakken 7
258,Haakon VII''s Gate,6,161,Vika,Oslo,59.913406,10.730713,Haakon VII''s Gate 6
259,,,0,Vaterland,Oslo,59.90721,10.756378,Munch brygge
260,Pilestredet,27,164,hammer,Oslo,59.917595,10.738354,Pilestredet 27
261,Kirkegårdsgata,7,558,Enerhaugen,Oslo,59.921286,10.763926,Kirkegårdsgata 7
262,Henrik Ibsens gate,60C,255,Ruselokka,Oslo,59.914992,10.720439,Henrik Ibsens gate 60C
263,Grønlandsleiret,3,190,Vaterland,Oslo,59.912521,10.763129,Grønlandsleiret 3
264,Fredensborgveien,22,177,hammer,Oslo,59.918547,10.747854,Fredensborgveien 22
265,Jernbanetorget,1,154,St. Hanshaugen,Oslo,59.910871,10.750735,Jernbanetorget 1
266,Vulkan,5,178,Fredensborg,Oslo,59.922164,10.752075,Mathallen
267,Vogts gate,68,477,Torshov,Oslo,59.9369,10.766484,Vogts gate 68
268,Kirkeveien,166,450,Ila,Oslo,59.936937,10.737055999999999,Kirkeveien 166
269,Stovner Senter,3,985,Høybråten,Oslo,59.961789,10.923727,Stovner Senter 3
270,Haugerudsenteret,1,673,Lindeberg,Oslo,59.922674,10.8564,Haugerudsenteret 1
271,Teglverksgata,2,553,Enerhaugen,Oslo,59.923855,10.764673,Teglverksgata 2
272,Kirkeveien,57,368,Majorstuen,Oslo,59.927927,10.71413,Kirkeveien 57
273,Stenersgata,1,50,Vaterland,Oslo,59.913019,10.752913,Stenersgata 1
274,Operagata,73D,194,Vaterland,Oslo,59.906404,10.758657,Operagata 73D
275,Nydalsveien,33,484,Nydalen,Oslo,59.949113,10.766375,Nydalsveien 33
276,Bogstadveien,27,355,Bislett,Oslo,59.926346,10.721578,Bogstadveien 27
277,Grønlandsleiret,14,190,Vaterland,Oslo,59.912381,10.765206,Grønlandsleiret 14
278,Selma Ellefsens vei,2,581,Økern,Oslo,59.925423,10.807471,Selma Ellefsens vei 2
279,Vulkan,12,178,Fredensborg,Oslo,59.921653,10.751795,Vulkan 12
280,Kristian IV''s Gate,4,164,hammer,Oslo,59.914895,10.739744,Kristian IV''s Gate 4
281,Toftes Gate,48,556,Fredensborg,Oslo,59.925891,10.761457,Toftes Gate 48
282,Ingelbrecht Knudssøns Gate,11,365,Bislett,Oslo,59.927869,10.721686,Ingelbrecht Knudssøns Gate 11
283,Stortingsgata,22,161,Vika,Oslo,59.913832,10.734752,Stortingsgata 22
284,Munkedamsveien,62,270,Filipstad,Oslo,59.911394,10.71885,Munkedamsveien 62
285,,,0,Torshov,Oslo,59.934733,10.761387,Myrens Verksted
286,Akersgata,2,158,Vika,Oslo,59.910556,10.73903,Akersgata 2
287,Torgny Segerstedts Vei,11,372,Blindernveien,Oslo,59.948355,10.723703,Torgny Segerstedts Vei 11
288,Karl Johans Gate,6,154,St. Hanshaugen,Oslo,59.911432,10.748067,Karl Johans Gate 6
289,Erich Mogensøns Vei,38,594,Erich Mogensøns Vei,Oslo,59.943242,10.835478,Erich Mogensøns Vei 38
290,Søndre Rød,3B,752,Rud,Oslo,59.943047,10.64531,Søndre Rød 3B
291,Strømsveien,22,657,Helsfyr,Oslo,59.908881,10.786438,Strømsveien 22
292,Jernbanetorget,1,154,St. Hanshaugen,Oslo,59.910871,10.750735,Jernbanetorget 1
293,Økernveien,9,653,Grønland,Oslo,59.914864,10.77617,Økernveien 9
294,Grensen,17,159,St. Hanshaugen,Oslo,59.91416,10.742571,Grensen 17
295,Helgesens gate,72,558,Enerhaugen,Oslo,59.922291,10.770528,Helgesens gate 72
296,Thorvald Meyers gate,76A,550,Enerhaugen,Oslo,59.919405,10.759701,Thorvald Meyers gate 76A
297,Bergensgata,12A,468,Torshov,Oslo,59.94173,10.759237,Bergensgata 12A
298,Vardeveien,14,1182,Manglerud,Oslo,59.895519,10.795686,Vardeveien 14
299,Rådhusgaten,7,151,St. Hanshaugen,Oslo,59.909257,10.744012,Rådhusgaten 7
300,Olaf Ryes plass,11,552,Fredensborg,Oslo,59.923492,10.758325,Olaf Ryes plass 11
301,Vulkan,5,178,Fredensborg,Oslo,59.922427,10.751924,Vulkan 5
302,Lindemans Gate,4,267,Gimlé,Oslo,59.921879,10.703419,Lindemans Gate 4
303,Bogstadveien,64,366,Majorstuen,Oslo,59.928574,10.716006,Bogstadveien 64
304,Fredensborgveien,13C,177,hammer,Oslo,59.918069,10.748039,Fredensborgveien 13C
305,Sigurd Hoels Vei,45,655,Tøyen,Oslo,59.917869,10.787464,Sigurd Hoels Vei 45
306,,,0,,Oslo,60.041422,10.755485,Øyungsdammen Ø
307,Jernbanetorget,1,154,St. Hanshaugen,Oslo,59.910871,10.750735,Jernbanetorget 1
308,Pilestredet,71,354,Homansbyen,Oslo,59.925394,10.730575,Pilestredet 71
309,Ekebergveien,37,196,Gamle Oslo,Oslo,59.900983,10.776504,Ekebergveien 37
310,Kirkeveien,59,364,Majorstuen,Oslo,59.928942,10.716447,DNB Majorstua
311,Calmeyers Gate,9,183,hammer,Oslo,59.916252,10.754487,Calmeyers Gate 9
312,Tollbugata,17,152,St. Hanshaugen,Oslo,59.910474,10.744385,Tollbugata 17
313,Thorvald Meyers gate,33C,555,Fredensborg,Oslo,59.925827,10.758986,Thorvald Meyers gate 33C
314,Torggata,23,183,hammer,Oslo,59.91662,10.752774,Torggata 23
315,Storgata,47,182,hammer,Oslo,59.915589,10.755933,Storgata 47
316,Kirsten Flagstads plass,1,150,St. Hanshaugen,Oslo,59.907777,10.752058,Kirsten Flagstads plass 1
317,Refstadveien,68,589,Tonsenhagen,Oslo,59.942403,10.811703,Refstadveien 68
318,Thorvald Meyers gate,47B,555,Fredensborg,Oslo,59.924132,10.758592,Thorvald Meyers gate 47B
319,Maridalsveien,15,178,Fredensborg,Oslo,59.922647,10.751197,Maridalsveien 15
320,Nydalen allé,55,485,Nydalen,Oslo,59.947863,10.771625,Nydalen allé 55
321,Parkveien,68,254,Ruselokka,Oslo,59.913868,10.72111,Parkveien 68
322,Torggata,10,181,hammer,Oslo,59.914255,10.748027,Torggata 10
323,Helgesens Gate,18,553,Fredensborg,Oslo,59.924624,10.759506,Helgesens Gate 18
324,Thereses Gate,52,168,Homansbyen,Oslo,59.925793,10.731412,Thereses Gate 52
325,Karl Johans Gate,43,162,Vika,Oslo,59.91448,10.736932,Karl Johans Gate 43
326,Dronningens gate,8A,152,St. Hanshaugen,Oslo,59.90845,10.744618,Dronningens gate 8A
327,Ullevålsveien,95,359,Bislett,Oslo,59.932711,10.733718,Ullevålsveien 95
328,,,0,Briskeby,Oslo,59.927749,10.699068,Nr. 29: To kjempende menn
329,Strømsveien,1,657,Gamle Oslo,Oslo,59.907955,10.782987,Strømsveien 1
330,Universitetsgata,11,164,hammer,Oslo,59.916706,10.738472999999999,Universitetsgata 11
331,Lørenveien,55A,585,Økern,Oslo,59.929268,10.796313,Lørenveien 55A
332,Dronningens Gate,15,152,St. Hanshaugen,Oslo,59.910386,10.746016000000001,Dronningens Gate 15
333,Essendrops Gate,8,368,Majorstuen,Oslo,59.929277,10.710253999999999,Essendrops Gate 8
334,Calmeyers Gate,8,183,hammer,Oslo,59.916042,10.753529,Calmeyers Gate 8
335,Kristian Augusts gate,15D,164,hammer,Oslo,59.917134,10.737532999999999,Kristian Augusts gate 15D
336,President Harbitz' gate,4,259,Briskeby,Oslo,59.918836,10.715629,President Harbitz' gate 4
337,Hausmanns Gate,28,182,hammer,Oslo,59.9189,10.752393,Hausmanns Gate 28
338,Nedre Slottsgate,8,157,St. Hanshaugen,Oslo,59.91216,10.742763,Nedre Slottsgate 8
339,Akershusstranda,25,150,St. Hanshaugen,Oslo,59.901814,10.741166,Akershusstranda 25
340,Bygdøy Allé,66,265,Gimlé,Oslo,59.91891,10.701171,Bygdøy Allé 66
341,Marstrandgata,6,566,Torshov,Oslo,59.926721,10.769214,Marstrandgata 6
342,Operagata,1,194,St. Hanshaugen,Oslo,59.906454,10.75564,Operagata 1
343,Tore Hals Mejdells Vei,5,751,Rud,Oslo,59.946176,10.643484,Tore Hals Mejdells Vei 5
344,Torggata,13,181,hammer,Oslo,59.915206,10.750215,Torggata 13
345,Storgata,27,184,hammer,Oslo,59.914098,10.751521,Storgata 27
346,Osterhaus'' Gate,13,183,hammer,Oslo,59.917038,10.752631,Osterhaus'' Gate 13
347,Sannergata,6D,557,Torshov,Oslo,59.928569,10.760795,Sannergata 6D
348,Valkyriegata,9,366,Majorstuen,Oslo,59.928906,10.717581,Valkyriegata 9
349,Granebakken,54,1284,Ostmarkkapellet,Oslo,59.857467,10.829274999999999,Granebakken 54
350,Drammensveien,149,277,Gimlé,Oslo,59.922139,10.681963,Drammensveien 149
351,St. Olavs gate,26,166,hammer,Oslo,59.917777,10.736808,St. Olavs gate 26
352,,,0,Bygdøy,Oslo,59.901862,10.694654,Herbernveien
353,Hølandsgata,22,655,Grønland,Oslo,59.910386,10.78204,Hølandsgata 22
354,Ekebergveien,230,1166,Ekebergveien,Oslo,59.860378,10.801237,Ekebergveien 230
355,Dronning Eufemias Gate,32,191,Vaterland,Oslo,59.907486,10.760352,Dronning Eufemias Gate 32
356,Sannergata,13,557,Torshov,Oslo,59.928403,10.763232,Sannergata 13
357,Kongens Gate,23,153,St. Hanshaugen,Oslo,59.911713,10.743125,Kongens Gate 23
358,Frognerveien,12,263,Briskeby,Oslo,59.916532,10.713442,Frognerveien 12
359,Vogts gate,60,477,Torshov,Oslo,59.935918,10.765486,Vogts gate 60
360,Sarpsborggata,12,468,Torshov,Oslo,59.942084,10.760318999999999,Sarpsborggata 12
361,Parkveien,27,350,Homansbyen,Oslo,59.920533,10.72754,Parkveien 27
362,Sofienberggata,6,551,Fredensborg,Oslo,59.922421,10.757011,Sofienberggata 6
363,Københavngata,18,566,Torshov,Oslo,59.928184,10.768297,Københavngata 18
364,Smalgangen,43,188,Vaterland,Oslo,59.912526,10.761607,Smalgangen 43
365,Nydalsveien,33,484,Nydalen,Oslo,59.949113,10.766375,Nydalsveien 33
366,Olaf Ryes Plass,10,552,Fredensborg,Oslo,59.923498,10.758055,Olaf Ryes Plass 10
367,Damplassen,24,852,Blindernveien,Oslo,59.944326,10.732826,Damplassen 24
368,Schleppegrells gate,32B,556,Torshov,Oslo,59.92761,10.765343,Schleppegrells gate 32B
369,Kirkegata,20,153,St. Hanshaugen,Oslo,59.910779,10.744436,Kirkegata 20
370,Henrik Ibsens gate,60C,255,Ruselokka,Oslo,59.914992,10.720439,Henrik Ibsens gate 60C
371,Jacob Aalls Gate,28,366,Majorstuen,Oslo,59.928913,10.717843,Jacob Aalls Gate 28
372,Kristian IVs gate,15,0,hammer,Oslo,59.915599,10.738139,Kristian IVs gate 15
373,Kristian IV''s Gate,4,164,hammer,Oslo,59.914895,10.739744,Kristian IV''s Gate 4
374,Veitvetveien,8,596,Erich Mogensøns Vei,Oslo,59.943985,10.847813,Veitvetveien 8
375,Trosterudveien,63C,778,Haugerud,Oslo,59.960952,10.710574,Trosterudveien 63C
376,Karl Johans gate,20,159,Vika,Oslo,59.9129,10.741507,Karl Johans gate 20
377,Rosenkrantz' gate,7,159,hammer,Oslo,59.914691,10.73951,Rosenkrantz' gate 7
378,Torggata,21,183,hammer,Oslo,59.916424,10.752566999999999,Torggata 21
379,Vækerøveien,207,751,Rud,Oslo,59.948303,10.643922,Vækerøveien 207
380,Steinborgveien,49,678,Helsfyr,Oslo,59.902002,10.803283,Steinborgveien 49
381,Solligata,2,254,Ruselokka,Oslo,59.914372,10.720479,Solligata 2
382,St. Halvards gate,33,192,Gamle Oslo,Oslo,59.906048,10.77516,St. Halvards gate 33
383,Karl Johans Gate,17,159,St. Hanshaugen,Oslo,59.912668,10.74345,Karl Johans Gate 17
384,Trondheimsveien,2B,560,Enerhaugen,Oslo,59.918425,10.760401,Trondheimsveien 2B
385,Operagata,29,194,Vaterland,Oslo,59.907113,10.756923,Operagata 29
386,Brobekkveien,100,582,Økern,Oslo,59.928534,10.83127,Brobekkveien 100
387,Slemdalsveien,63B,373,Ris,Oslo,59.942083,10.70498,Slemdalsveien 63B
388,Møllergata,38,179,hammer,Oslo,59.917673,10.750294,Møllergata 38
389,Youngs Gate,4,181,hammer,Oslo,59.914549,10.751016,Youngs Gate 4
390,Fridtjof Nansens plass,9,160,Vika,Oslo,59.912269,10.734928,Fridtjof Nansens plass 9
391,,,0,Skillebekk,Oslo,59.912647,10.711385,Skillebekkparken
392,Schweigaards gate,57A,656,Grønland,Oslo,59.908168,10.769691,Schweigaards gate 57A
393,Johanne Dybwads plass,1,161,Vika,Oslo,59.914584,10.733592999999999,Johanne Dybwads plass 1
394,Hallings gate,3A,170,Homansbyen,Oslo,59.922516,10.739095,Hallings gate 3A
395,Karl Johans gate,13,154,St. Hanshaugen,Oslo,59.912419,10.744666,Karl Johans gate 13
396,Torggata,18,181,hammer,Oslo,59.916126,10.751136,Torggata 18
397,Schweigaards Gate,54,656,Grønland,Oslo,59.908629,10.769051,Schweigaards Gate 54
398,Thorvald Meyers Gate,32,555,Fredensborg,Oslo,59.924813,10.759517,Thorvald Meyers Gate 32
399,Østensjøveien,64,667,Helsfyr,Oslo,59.907649,10.8183,Østensjøveien 64
400,Vogts gate,68,477,Torshov,Oslo,59.9369,10.766484,Vogts gate 68
401,Holbergs gate,30,166,Homansbyen,Oslo,59.918067,10.733192,Holbergs gate 30
402,Bentsegata,1B,465,Torshov,Oslo,59.937869,10.757136,Bentsegata 1B
403,Rostockgata,64,194,Vaterland,Oslo,59.906162,10.760164,Rostockgata 64
404,Gabels Gate,11,272,Skillebekk,Oslo,59.91269,10.70896,Gabels Gate 11
405,Tvetenveien,150,671,Bryn,Oslo,59.913836,10.841898,Tvetenveien 150
406,,,0,Lambertseter,Oslo,59.874324,10.810704,Lambertseter senter
407,Tevlingveien,21,1081,Lindeberg,Oslo,59.930122,10.86826,Tevlingveien 21
408,Hammersborg Torg,3,179,hammer,Oslo,59.916881,10.749177,Hammersborg Torg 3
409,Rådhusgata,21,158,Vika,Oslo,59.910626,10.738294,Rådhusgata 21
410,Operagata,11,194,Vaterland,Oslo,59.906867,10.755855,Operagata 11
411,Holmlia Senter Vei,20,1255,Holmlia,Oslo,59.834159,10.794236,Holmlia Senter Vei 20
412,Bygdøy Allé,3,257,Ruselokka,Oslo,59.914995,10.716774000000001,Bygdøy Allé 3
413,Sakariasveien,276,758,,Oslo,60.031229,10.639865,Sakariasveien 276
414,Mariboes Gate,13,183,hammer,Oslo,59.917087,10.75164,Mariboes Gate 13
415,Markveien,35A,554,Fredensborg,Oslo,59.922222,10.757185,Markveien 35A
416,"Anne-Cath, Vestlys Plass",1,150,St. Hanshaugen,Oslo,59.908676,10.752618,"Anne-Cath, Vestlys Plass 1"
417,Thorvald Meyers Gate,36,555,Fredensborg,Oslo,59.924149,10.759853,Thorvald Meyers Gate 36
418,Hausmanns gate,31C,182,hammer,Oslo,59.917837,10.753786999999999,Hausmanns gate 31C
419,Skippergata,25C,154,St. Hanshaugen,Oslo,59.911202,10.747749,Skippergata 25C
420,Fridtjof Nansens Plass,4,160,Vika,Oslo,59.913219,10.734086,Fridtjof Nansens Plass 4
421,Helgesens Gate,14,553,Fredensborg,Oslo,59.924703,10.758331,Helgesens Gate 14
422,Hagegata,34A,653,Grønland,Oslo,59.913702,10.776409,Hagegata 34A
423,Osterhaus'' Gate,21,183,hammer,Oslo,59.917515,10.751532,Osterhaus'' Gate 21
424,Mauritz Hansens Gate,4,350,Homansbyen,Oslo,59.921362,10.731212,Mauritz Hansens Gate 4
425,Henrik Ibsens gate,90,255,Ruselokka,Oslo,59.914573,10.719421,Henrik Ibsens gate 90
426,Bygdøy Allé,63,265,Gimlé,Oslo,59.918909,10.703625,Bygdøy Allé 63
427,Kristian Augusts gate,14,164,hammer,Oslo,59.916326,10.738592,Kristian Augusts gate 14
428,Trondheimsveien,37,560,Enerhaugen,Oslo,59.921148,10.769711,Trondheimsveien 37
429,Østre Aker Vei,33,581,Økern,Oslo,59.928932,10.818591,Østre Aker Vei 33
430,Lofsrudveien,6,1281,Dal,Oslo,59.848419,10.829194,Lofsrudveien 6
431,Behrens'' Gate,2,257,Ruselokka,Oslo,59.916411,10.716914,Behrens'' Gate 2
432,Sandakerveien,28,473,Torshov,Oslo,59.934582,10.76187,Sandakerveien 28
433,,,0,Skøyen,Oslo,59.91367,10.64475,Drammensveien 288
434,Lille Stranden,4,252,Aker Brygge,Oslo,59.908246,10.723255,Lille Stranden 4
435,Dronningens gate,27,154,St. Hanshaugen,Oslo,59.912364,10.747907,Dronningens gate 27
436,Statsråd Mathiesens Vei,12,598,Linderud,Oslo,59.939395,10.830138,Statsråd Mathiesens Vei 12
437,Skovveien,14,257,Ruselokka,Oslo,59.917397,10.717253,Skovveien 14
438,Bogstadveien,41,366,Bislett,Oslo,59.927494,10.720122,Bogstadveien 41
439,Hagegata,23,653,Grønland,Oslo,59.914359,10.774646,Hagegata 23
440,Karl Johans gate,20,159,Vika,Oslo,59.9129,10.741507,Karl Johans gate 20
441,Henrik Ibsens Gate,18,255,Ruselokka,Oslo,59.915116,10.727986,Henrik Ibsens Gate 18
442,Nordre Gate,2,551,Fredensborg,Oslo,59.922148,10.754109,Nordre Gate 2
443,Thorvald Meyers Gate,72,552,Enerhaugen,Oslo,59.919841,10.759544,Thorvald Meyers Gate 72
444,Sørkedalsveien,3B,369,Majorstuen,Oslo,59.930332,10.712859,Sørkedalsveien 3B
445,Bøgata,21,655,Grønland,Oslo,59.913733,10.781006,Bøgata 21
446,Stovner Senter,3,985,Høybråten,Oslo,59.961789,10.923727,Stovner Senter 3
447,Holbergs gate,19,166,hammer,Oslo,59.918914,10.733719,Holbergs gate 19
448,Vulkan,5,178,Fredensborg,Oslo,59.922427,10.751924,Vulkan 5
449,Dronningens gate,25,154,St. Hanshaugen,Oslo,59.911391,10.747044,Dronningens gate 25
450,Jernbanetorget,1,154,St. Hanshaugen,Oslo,59.910871,10.750735,Jernbanetorget 1
451,Dagaliveien,48D,783,Slemdal,Oslo,59.956501,10.673748,Dagaliveien 48D
452,Fredensborgveien,9B,177,hammer,Oslo,59.91787,10.747492,Fredensborgveien 9B
453,Operagata,69A,194,Vaterland,Oslo,59.90637,10.757647,Operagata 69A
454,Arilds Vei,2,491,Kjelsås,Oslo,59.956561,10.789753,Arilds Vei 2
455,Stortingsgata,8,161,Vika,Oslo,59.913151,10.73755,Stortingsgata 8
456,Rådhusgata,19,158,St. Hanshaugen,Oslo,59.910269,10.740319,Rådhusgata 19
457,Prinsens gate,18,152,St. Hanshaugen,Oslo,59.911286,10.743444,Prinsens gate 18
458,,,0,Sogn,Oslo,59.949355,10.732218,Sognsveien 75
459,Sandakerveien,59,477,Torshov,Oslo,59.938435,10.768473,Sandakerveien 59
460,Grønlandsleiret,79,190,Grønland,Oslo,59.909131,10.768163,Grønlandsleiret 79
461,Jernbanetorget,1,154,St. Hanshaugen,Oslo,59.910871,10.750735,Jernbanetorget 1
462,Drammensveien,130,277,Gimlé,Oslo,59.921455,10.688035,Drammensveien 130
463,Sonja Henies Plass,3,185,Vaterland,Oslo,59.912658,10.756218,Sonja Henies Plass 3
464,Østensjøveien,79,667,Bryn,Oslo,59.903192,10.822458,Østensjøveien 79
465,Niels Juels Gate,70,259,Briskeby,Oslo,59.919251,10.718535,Niels Juels Gate 70
466,Holmlia Senter Vei,11,1255,Holmlia,Oslo,59.834718,10.794827,Holmlia Senter Vei 11
467,Bøgata,10,655,Grønland,Oslo,59.911946,10.780785,Bøgata 10
468,Karenslyst allé,18,278,Skøyen,Oslo,59.919821,10.683802,Karenslyst allé 18
469,Tordenskiolds Gate,1,160,Vika,Oslo,59.913277,10.736424,Tordenskiolds Gate 1
470,,,0,Holmlia,Oslo,59.834855,10.795329,Holmlia senter tannklinikk
471,Underhaugsveien,28,354,Homansbyen,Oslo,59.923859,10.726099,Underhaugsveien 28
472,Bergensgata,2,468,Torshov,Oslo,59.939992,10.758913,Bergensgata 2
473,Stranden,1,250,Aker Brygge,Oslo,59.910504,10.728505,Stranden 1
474,Bentsebrugata,31,469,Torshov,Oslo,59.939314,10.759454999999999,Bentsebrugata 31
475,Trondheimsveien,13,560,Enerhaugen,Oslo,59.919232,10.764368,Trondheimsveien 13
476,Haakon VII''s Gate,2,161,Vika,Oslo,59.912879,10.731086,Haakon VII''s Gate 2
477,Haakon VII''s Gate,6,161,Vika,Oslo,59.913406,10.730713,Haakon VII''s Gate 6
478,Jernbanetorget,1,154,St. Hanshaugen,Oslo,59.910871,10.750735,Jernbanetorget 1
479,Brugata,10,186,hammer,Oslo,59.914009,10.754819,Brugata 10
480,Youngstorget,6,181,hammer,Oslo,59.915121,10.748418,Youngstorget 6
481,Storgata,32,184,hammer,Oslo,59.914163,10.752915,Storgata 32
482,General Ruges Vei,106,694,Skulerud,Oslo,59.863673,10.846411,General Ruges Vei 106
483,,,0,,Oslo,60.041422,10.755485,Øyungsdammen Ø
484,Tøyengata,2,190,Vaterland,Oslo,59.91278,10.76392,Tøyengata 2
485,Vitaminveien,7,485,Nydalen,Oslo,59.947301,10.773794,Vitaminveien 7
486,Strandpromenaden,2,252,Aker Brygge,Oslo,59.906925,10.721938,Strandpromenaden 2
487,Kirkeveien,51,368,Majorstuen,Oslo,59.927656999999996,10.713796,Kirkeveien 51
488,Hagegata,22,653,Grønland,Oslo,59.914421,10.775439,Hagegata 22
489,,,0,Ryen,Oslo,59.897698,10.814762,Manglerud senter
490,Karoline Kristiansens Vei,3,661,Helsfyr,Oslo,59.913923,10.797616,Karoline Kristiansens Vei 3
491,Brobekkveien,54,598,Linderud,Oslo,59.936258,10.827325,Brobekkveien 54
492,Smalgangen,14,188,Vaterland,Oslo,59.912391,10.760332,Smalgangen 14
493,Kongens Gate,23,153,St. Hanshaugen,Oslo,59.911713,10.743125,Kongens Gate 23
494,Stranden,3,250,Aker Brygge,Oslo,59.910171,10.727808,Stranden 3
495,Munkedamsveien,53B,250,Aker Brygge,Oslo,59.91095,10.722625,Munkedamsveien 53B
496,Bygdøy allé,65,265,Gimlé,Oslo,59.918931,10.70268,Bygdøy allé 65
497,Mandalls gate,10,190,Vaterland,Oslo,59.911007,10.763015,Mandalls gate 10
498,Slemdalsveien,70B,370,Ris,Oslo,59.942304,10.703609,Slemdalsveien 70B
499,Vitaminveien,11,485,Nydalen,Oslo,59.947547,10.772777,Vitaminveien 11
500,Tjuvholmen allé,6,252,Aker Brygge,Oslo,59.908503,10.722822,Tjuvholmen allé 6
501,Storgata,25,184,hammer,Oslo,59.914012,10.751187999999999,Storgata 25
502,Karl Johans gate,27,159,hammer,Oslo,59.913595,10.73997,Karl Johans gate 27
503,Essendrops Gate,8,368,Majorstuen,Oslo,59.929277,10.710253999999999,Essendrops Gate 8
504,Dalsbergstien,19,167,Homansbyen,Oslo,59.923081,10.732925,Dalsbergstien 19
505,Jernbanetorget,1,154,St. Hanshaugen,Oslo,59.910871,10.750735,Jernbanetorget 1
506,Karl Johans Gate,23,159,St. Hanshaugen,Oslo,59.912856,10.742602,Karl Johans Gate 23
507,Dronningens Gate,15,152,St. Hanshaugen,Oslo,59.910386,10.746016000000001,Dronningens Gate 15
508,Pilestredet,41C,166,Homansbyen,Oslo,59.920475,10.733836,Pilestredet 41C
509,Torggata,26,183,hammer,Oslo,59.916672,10.752455,Torggata 26
510,Bjørnveien,67,773,Slemdal,Oslo,59.954344,10.685387,Bjørnveien 67
511,Lørenveien,44,585,Økern,Oslo,59.930662,10.793579,Lørenveien 44
512,Henrik Ibsens gate,36,255,Ruselokka,Oslo,59.915165,10.72576,Henrik Ibsens gate 36
513,Trondheimsveien,391,953,Ammerud,Oslo,59.952359,10.867367999999999,Trondheimsveien 391
514,Lilleakerveien,16,283,Skøyen,Oslo,59.917405,10.636047,Lilleakerveien 16
515,Waldemar Thranes Gate,9,171,Fredensborg,Oslo,59.924358,10.742076,Waldemar Thranes Gate 9
516,Mariholtveien,200,1061,,Oslo,59.891648,10.907346,Mariholtveien 200
517,Majorstuveien,41,367,Majorstuen,Oslo,59.928313,10.715431,Majorstuveien 41
518,Galgeberg,3,657,Gamle Oslo,Oslo,59.908139,10.780965,Galgeberg 3
519,Nedre Prinsdals Vei,77,1263,Holmlia,Oslo,59.83362,10.807451,Nedre Prinsdals Vei 77
520,Ivan Bjørndals Gate,25,472,Torshov,Oslo,59.938237,10.763714,Ivan Bjørndals Gate 25
521,Rådhusgata,11,151,St. Hanshaugen,Oslo,59.909517,10.743218,Rådhusgata 11
522,Fredensborgveien,42,177,hammer,Oslo,59.92039,10.749109,Fredensborgveien 42
523,Bjerregaards gate,2B,172,Homansbyen,Oslo,59.923375,10.740825,Bjerregaards gate 2B
524,Fridtjof Nansens plass,9,160,Vika,Oslo,59.912269,10.734928,Fridtjof Nansens plass 9
525,Skovveien,5,257,Ruselokka,Oslo,59.916299,10.716498,Skovveien 5
526,Fredensborgveien,32B,177,hammer,Oslo,59.920056,10.748519,Fredensborgveien 32B
527,Eiriks Gate,2,650,Grønland,Oslo,59.91161,10.771159,Eiriks Gate 2
528,Brugata,17,186,Vaterland,Oslo,59.913937,10.757415,Brugata 17
529,Tryvannsveien,64,791,Lysebu,Oslo,59.985343,10.666594,Tryvannsveien 64
530,Thorvald Meyers gate,87B,550,Enerhaugen,Oslo,59.918919,10.759225,Thorvald Meyers gate 87B
531,Myntgata,2,151,Vika,Oslo,59.90909,10.738471,Myntgata 2
532,Tollbugata,17,152,St. Hanshaugen,Oslo,59.910474,10.744385,Tollbugata 17
533,Stenersgata,1,50,Vaterland,Oslo,59.913019,10.752913,Stenersgata 1
534,Holmlia Senter Vei,10,1255,Holmlia,Oslo,59.834355,10.795301,Holmlia Senter Vei 10
535,Holmens Gate,5,250,Aker Brygge,Oslo,59.910309,10.725597,Holmens Gate 5
536,Rubina Ranas Gate,14,190,Vaterland,Oslo,59.911296,10.765022,Rubina Ranas Gate 14
537,Plogveien,6,679,Ryen,Oslo,59.897289,10.812857,Plogveien 6
538,Storgata,31,184,hammer,Oslo,59.914305,10.752207,Storgata 31
539,Brugata,3,186,hammer,Oslo,59.914342,10.754069,Brugata 3
540,Stenersgata,1,50,Vaterland,Oslo,59.913019,10.752913,Stenersgata 1
541,Operagata,6,150,Vaterland,Oslo,59.908239,10.7536,Operagata 6
542,Jernbanetorget,1,154,St. Hanshaugen,Oslo,59.910871,10.750735,Jernbanetorget 1
543,Akersgata,43,158,St. Hanshaugen,Oslo,59.913703,10.742032,Akersgata 43
544,,,0,Skillebekk,Oslo,59.912647,10.711385,Skillebekkparken
545,Sundveien,1,198,Bekkelaget,Oslo,59.873483,10.755443,Sundveien 1
546,Thereses gate,20A,168,Bislett,Oslo,59.92909,10.733033,Thereses gate 20A
547,Kirkeveien,64B,366,Majorstuen,Oslo,59.92917,10.71481,Kirkeveien 64B
548,Karl Johans gate,31,159,hammer,Oslo,59.913745,10.739477,Karl Johans gate 31
549,Tryvannsveien,64,791,Lysebu,Oslo,59.985343,10.666594,Tryvannsveien 64
550,Stenersgata,10,184,hammer,Oslo,59.91327,10.752612,Stenersgata 10
551,Torshovgata,7B,476,Torshov,Oslo,59.9336,10.763982,Torshovgata 7B
552,,,0,Bislett,Oslo,59.931129,10.734427,Brageveien 2
553,Holmenkollveien,200,791,Lysebu,Oslo,59.977545,10.677378,Holmenkollveien 200
554,Thorvald Meyers Gate,2,555,Torshov,Oslo,59.930115,10.759986,Thorvald Meyers Gate 2
555,Filipstad brygge,2,252,Aker Brygge,Oslo,59.909915,10.722698,Filipstad brygge 2
556,Rosenholmveien,22,1252,Holmlia,Oslo,59.825103,10.796416,Rosenholmveien 22
557,Lørenveien,55A,585,Økern,Oslo,59.929268,10.796313,Lørenveien 55A
558,Grensesvingen,26,663,Helsfyr,Oslo,59.913179,10.798903,Grensesvingen 26
559,Museumsveien,10,287,Bygdøy,Oslo,59.907485,10.686716,Museumsveien 10
560,Holmens Gate,5,250,Aker Brygge,Oslo,59.910309,10.725597,Holmens Gate 5
561,Hagegata,22,653,Grønland,Oslo,59.914421,10.775439,Hagegata 22
562,Kirkeveien,40,368,Briskeby,Oslo,59.927214,10.712061,Kirkeveien 40
563,Hammersborggata,2,181,hammer,Oslo,59.914791,10.751845,Hammersborggata 2
564,Fredensborgveien,30,177,hammer,Oslo,59.919894,10.748361,Fredensborgveien 30
565,Tøyengata,45B,578,Enerhaugen,Oslo,59.915548,10.771374,Tøyengata 45B
566,Tøyenbekken,6,188,Vaterland,Oslo,59.91302,10.763674,Tøyenbekken 6
567,Grønland,24,188,Vaterland,Oslo,59.912936,10.761899,Grønland 24
568,Bygdøynesveien,39,286,Bygdøy,Oslo,59.903346,10.69944,Bygdøynesveien 39
569,Leirfallsgata,6,550,hammer,Oslo,59.919335,10.757515,Leirfallsgata 6
570,Olav Kyrres gate,6F,273,Gimlé,Oslo,59.918252,10.69093,Olav Kyrres gate 6F
571,Mariboes gate,20,183,hammer,Oslo,59.918151,10.752473,Hausmanns gate barnehage Espira
572,Åslandhellinga,77,1274,Klemetsrud,Oslo,59.82294,10.841759,Åslandhellinga 77
573,Konghellegata,14,572,Sindsen,Oslo,59.929458,10.779977,Konghellegata 14
574,Behrens'' Gate,8,257,Ruselokka,Oslo,59.91698,10.715049,Behrens'' Gate 8
575,Schweigaards Gate,34,191,Vaterland,Oslo,59.910592,10.764933,Schweigaards Gate 34
576,Tordenskiolds Gate,1,160,Vika,Oslo,59.913277,10.736424,Tordenskiolds Gate 1
577,Colletts Gate,33,169,Bislett,Oslo,59.927067,10.73827,Colletts Gate 33
578,Ormøybakken,4A,198,Bekkelaget,Oslo,59.876857,10.762133,Ormøybakken 4A
579,Tullins Gate,2,166,hammer,Oslo,59.918366,10.735036,Tullins Gate 2
580,Grev Wedels plass,2,151,St. Hanshaugen,Oslo,59.907189,10.741444,Grev Wedels plass 2
581,Biskop Gunnerus' gate,3,155,St. Hanshaugen,Oslo,59.912457,10.749962,Biskop Gunnerus' gate 3
582,Helgesens Gate,50,553,Enerhaugen,Oslo,59.923568,10.76582,Helgesens Gate 50
583,Frognerveien,8,257,Ruselokka,Oslo,59.916226,10.715379,Frognerveien 8
584,Tvetenveien,150,671,Bryn,Oslo,59.913836,10.841898,Tvetenveien 150
585,Bjørnerudveien,17,1266,Hauketo,Oslo,59.843624,10.815268,Bjørnerudveien 17
586,Rådhusgata,28,151,St. Hanshaugen,Oslo,59.909831,10.740738,Rådhusgata 28
587,Tøyengata,1,190,Vaterland,Oslo,59.912629,10.764011,Tøyengata 1
588,Dronning Eufemias Gate,14,191,Vaterland,Oslo,59.908205,10.757843,Dronning Eufemias Gate 14
589,Utmarkveien,1,691,Bøler,Oslo,59.883242,10.845665,Utmarkveien 1
590,,,0,Vaterland,Oslo,59.911417,10.751685,Vinmonopolet Oslo S
591,Parkveien,29,350,Homansbyen,Oslo,59.920433,10.727411,Parkveien 29
592,Munkedamsveien,62,270,Filipstad,Oslo,59.911394,10.71885,Munkedamsveien 62
593,Rostockgata,66,194,Vaterland,Oslo,59.906149,10.760686,Rostockgata 66
594,Vulkan,28,178,Fredensborg,Oslo,59.922573,10.751628,Vulkan 28
595,Nydalen Allé,19,484,Nydalen,Oslo,59.947607,10.767374,Nydalen Allé 19
596,Bogstadveien,53A,366,Majorstuen,Oslo,59.929534,10.71416,Bogstadveien 53A
597,Sars' gate,1,562,Enerhaugen,Oslo,59.920134,10.770992,Sars' gate 1
598,Wergelandsveien,29,167,Homansbyen,Oslo,59.920275,10.728566,Wergelandsveien 29
599,Sørengkaia,163,194,St. Hanshaugen,Oslo,59.902285,10.752083,Sørengkaia 163
600,,,0,Bryn,Oslo,59.915328,10.827314,Ole Deviks vei 16
601,General Ruges Vei,107,694,Skulerud,Oslo,59.863702,10.843046,General Ruges Vei 107
602,Dronning Eufemias gate,15,194,Vaterland,Oslo,59.907798,10.756419,Dronning Eufemias gate 15
603,Thereses gate,33B,354,Bislett,Oslo,59.927642,10.731759,Thereses gate 33B
604,Fridtjof Nansens Plass,7,160,Vika,Oslo,59.912602,10.735311,Fridtjof Nansens Plass 7
605,Thorvald Meyers gate,49,555,Fredensborg,Oslo,59.92401,10.758884,Thorvald Meyers gate 49
606,Eiriks gate,17B,650,Grønland,Oslo,59.912637,10.773472,Eiriks gate 17B
607,,,0,Kongshavn,Oslo,59.895704,10.732042,Hovedøya
608,Munkedamsveien,59B,244,Aker Brygge,Oslo,59.911043,10.721575,Munkedamsveien 59B
609,Holmlia Senter Vei,10,1255,Holmlia,Oslo,59.834355,10.795301,Holmlia Senter Vei 10
610,Klingenberggata,4,161,Vika,Oslo,59.913683,10.733704,Klingenberggata 4
611,Oberst Rodes vei,79,1165,Ekebergveien,Oslo,59.864059,10.808901,Oberst Rodes vei 79
612,Bygdøy allé,8,262,Ruselokka,Oslo,59.915694,10.713251,Bygdøy allé 8
613,Strandpromenaden,11,252,Aker Brygge,Oslo,59.90793,10.723236,Strandpromenaden 11
614,,,0,Bryn,Oslo,59.913651,10.841087,Tveita senter
615,Marstrandgata,3,566,Torshov,Oslo,59.926807,10.769796,Marstrandgata 3
616,Korsgata,31,551,Enerhaugen,Oslo,59.919968,10.759008,Korsgata 31
617,Maridalsveien,3,178,Fredensborg,Oslo,59.920658,10.751597,Maridalsveien 3
618,Oscars Gate,19,352,Homansbyen,Oslo,59.922558,10.726777,Oscars Gate 19
619,Jernbanetorget,1,154,St. Hanshaugen,Oslo,59.910871,10.750735,Jernbanetorget 1
620,Rosenkrantz' gate,1,159,hammer,Oslo,59.915673,10.7405,Rosenkrantz' gate 1
621,Ruseløkkveien,3,251,Vika,Oslo,59.914241,10.728994,Ruseløkkveien 3
622,Stenbråtveien,91,1283,Ostmarkkapellet,Oslo,59.854434,10.820128,Stenbråtveien 91
623,Olaf Ryes Plass,9,552,Fredensborg,Oslo,59.923489000000004,10.757788,Olaf Ryes Plass 9
624,Sognsveien,67,854,Sogn,Oslo,59.947491,10.733012,Sognsveien 67
625,Hegdehaugsveien,1,352,Homansbyen,Oslo,59.920426,10.732837,Hegdehaugsveien 1
626,Ekebergveien,65,1181,Gamle Oslo,Oslo,59.89828,10.773555,Ekebergveien 65
627,Ullevålsveien,61,171,Bislett,Oslo,59.926514,10.738395,Ullevålsveien 61
628,Vulkan,5,178,Fredensborg,Oslo,59.922427,10.751924,Vulkan 5
629,Økernveien,9,653,Grønland,Oslo,59.914864,10.77617,Økernveien 9
630,Feltspatveien,64,1155,Lamberseter,Oslo,59.867472,10.822406,Feltspatveien 64
631,Lakkegata,71B,562,Enerhaugen,Oslo,59.918719,10.765336,Lakkegata 71B
632,Smalgangen,44,188,Vaterland,Oslo,59.912598,10.761078,Smalgangen 44
633,Hegdehaugsveien,31,352,Homansbyen,Oslo,59.92216,10.727241,Hegdehaugsveien 31
634,Innspurten,7,663,Helsfyr,Oslo,59.915616,10.804717,Innspurten 7
635,Opplandgata,19,657,Gamle Oslo,Oslo,59.906493,10.785501,Opplandgata 19
636,Kirkegata,34,153,St. Hanshaugen,Oslo,59.911764,10.745347,Kirkegata 34
637,Pilestredet,9,180,hammer,Oslo,59.915143,10.741124,Pilestredet 9
638,,,0,Enerhaugen,Oslo,59.914814,10.766308,Nr. 13
639,Nordsetergrenda,13,1161,Ekebergveien,Oslo,59.870417,10.79886,Nordsetergrenda 13
640,Observatoriegata,2,254,Ruselokka,Oslo,59.914253,10.718571,Observatoriegata 2
641,Nedre Slottsgate,8,157,St. Hanshaugen,Oslo,59.91216,10.742763,Nedre Slottsgate 8
642,Romsås Senter,1,970,Ammerud,Oslo,59.963161,10.892858,Romsås Senter 1
643,Maridalsveien,154,461,Torshov,Oslo,59.937679,10.756134,Maridalsveien 154
644,Ullevålsveien,47,171,Homansbyen,Oslo,59.924477,10.739642,Ullevålsveien 47
645,Refstadveien,73,584,Tonsenhagen,Oslo,59.938811,10.822096,Refstadveien 73
646,President Harbitz' gate,4,259,Briskeby,Oslo,59.918836,10.715629,President Harbitz' gate 4
647,Karl Johans Gate,37,162,Vika,Oslo,59.914197,10.7379,Karl Johans Gate 37
648,Grønland,10,188,Vaterland,Oslo,59.913369,10.76013,Grønland 10
649,Holmenveien,1,374,Ris,Oslo,59.943064,10.703434,Holmenveien 1
650,Langbølgen,5,1150,Lambertseter,Oslo,59.87307,10.811848,Langbølgen 5
651,Bryggetorget,10,250,Aker Brygge,Oslo,59.909377,10.724589,Bryggetorget 10
652,Storgata,41,182,hammer,Oslo,59.915214,10.754923999999999,Storgata 41
653,Prost Hallings Vei,10,666,Helsfyr,Oslo,59.914465,10.816618,Prost Hallings Vei 10
654,Kongens Gate,23,153,St. Hanshaugen,Oslo,59.911713,10.743125,Kongens Gate 23
655,Stranden,30,250,Aker Brygge,Oslo,59.908964,10.725717,Stranden 30
656,Stortingsgata,2,158,Vika,Oslo,59.912849,10.738643,Stortingsgata 2
657,Arendalsgata,3A,463,Torshov,Oslo,59.937415,10.75563,Arendalsgata 3A
658,Nydalsveien,36B,484,Nydalen,Oslo,59.949695,10.767176,Nydalsveien 36B
659,Stranden,71,250,Aker Brygge,Oslo,59.908798,10.724357,Stranden 71
660,Stortingsgata,24,161,Vika,Oslo,59.91404,10.733891,Stortingsgata 24
661,Dronning Mauds Gate,10,250,Vika,Oslo,59.912902,10.727376,Dronning Mauds Gate 10
662,Helga Vaneks Vei,3,1281,Dal,Oslo,59.848555,10.830642,Helga Vaneks Vei 3
663,Briskebyveien,28,259,Briskeby,Oslo,59.919952,10.717979,Briskebyveien 28
664,Waldemar Thranes Gate,9,171,Fredensborg,Oslo,59.924358,10.742076,Waldemar Thranes Gate 9
665,Akershusstranda,25,150,St. Hanshaugen,Oslo,59.901814,10.741166,Akershusstranda 25
666,Storgata,39,182,hammer,Oslo,59.915126,10.754685,Storgata 39
667,Trondheimsveien,64,565,Enerhaugen,Oslo,59.923088,10.771577,Trondheimsveien 64
668,Niels Juels Gate,25,257,Ruselokka,Oslo,59.916087,10.714144,Niels Juels Gate 25
669,Trondheimsveien,14A,560,Enerhaugen,Oslo,59.919653,10.76467,Trondheimsveien 14A
670,Valkyriegata,8,366,Majorstuen,Oslo,59.929415,10.715708,Valkyriegata 8
671,Vulkan,5,178,Fredensborg,Oslo,59.922427,10.751924,Vulkan 5
672,Kongens Gate,10,153,St. Hanshaugen,Oslo,59.910438,10.742321,Kongens Gate 10
673,Lørenveien,44,585,Økern,Oslo,59.930662,10.793579,Lørenveien 44
674,Holbergs gate,19,166,hammer,Oslo,59.918914,10.733719,Holbergs gate 19
675,Bøkkerveien,15,579,Økern,Oslo,59.927632,10.796924,Bøkkerveien 15
676,Waldemar Thranes gate,70,173,Fredensborg,Oslo,59.92813,10.749162,Waldemar Thranes gate 70
677,Dronning Eufemias Gate,18,191,Vaterland,Oslo,59.907836,10.758947,Dronning Eufemias Gate 18
678,Stovner Senter,3,985,Høybråten,Oslo,59.961789,10.923727,Stovner Senter 3
679,Storgata,5,155,St. Hanshaugen,Oslo,59.913199,10.748485,Storgata 5
680,Ingeborgs Gate,4,658,Helsfyr,Oslo,59.908363,10.787382,Ingeborgs Gate 4
681,Prinsens Gate,26,157,Vika,Oslo,59.912245,10.739565,Prinsens Gate 26
682,Rådhusgata,32,151,St. Hanshaugen,Oslo,59.910205,10.738916,Rådhusgata 32
683,Torggata,Torggata 17B,183,hammer,Oslo,59.916192,10.752007,Torggata Torggata 17B
684,Sofies Gate,16,170,Homansbyen,Oslo,59.923005,10.735013,Sofies Gate 16
685,Vulkan,5,178,Fredensborg,Oslo,59.922427,10.751924,Vulkan 5
686,Mandalls gate,10,190,Vaterland,Oslo,59.911007,10.763015,Mandalls gate 10
687,Slemdalsveien,1,369,Majorstuen,Oslo,59.930309,10.715419,Slemdalsveien 1
688,Kalbakkveien,34,953,Ammerud,Oslo,59.953547,10.873245,Kalbakkveien 34
689,St. Olavs Gate,31,166,hammer,Oslo,59.917914,10.734969,St. Olavs Gate 31
690,,,0,Bryn,Oslo,59.915328,10.827314,Ole Deviks vei 16
691,Majorstuveien,34,367,Majorstuen,Oslo,59.927639,10.715446,Majorstuveien 34
692,Engebrets Vei,7,275,Smedstad,Oslo,59.927824,10.67601,Engebrets Vei 7
693,Trondheimsveien,391,953,Ammerud,Oslo,59.952359,10.867367999999999,Trondheimsveien 391
694,Lilleakerveien,16,283,Skøyen,Oslo,59.917405,10.636047,Lilleakerveien 16
695,Henrik Ibsens Gate,18,255,Ruselokka,Oslo,59.915116,10.727986,Henrik Ibsens Gate 18
696,Youngstorget,1,181,hammer,Oslo,59.914781,10.75012,Youngstorget 1
697,Vitaminveien,29,485,Nydalen,Oslo,59.947598,10.77182,Vitaminveien 29
698,Tordenskiolds Gate,1,160,Vika,Oslo,59.913277,10.736424,Tordenskiolds Gate 1
699,Dronningens gate,22,154,St. Hanshaugen,Oslo,59.910803,10.746863,Dronningens gate 22
700,Vogts gate,64,477,Torshov,Oslo,59.936102,10.765475,Vogts gate 64
701,Dronning Eufemias Gate,14,191,Vaterland,Oslo,59.908205,10.757843,Dronning Eufemias Gate 14
702,Underhaugsveien,11,354,Homansbyen,Oslo,59.924563,10.727863,Underhaugsveien 11
703,Bygdøy Allé,53,265,Skillebekk,Oslo,59.918203,10.706241,Bygdøy Allé 53
704,Bygdøy Allé,15,257,Ruselokka,Oslo,59.915814,10.714054,Bygdøy Allé 15
705,Stranden,3,250,Aker Brygge,Oslo,59.910171,10.727808,Stranden 3
706,Kristiansands gate,2,463,Ila,Oslo,59.938268,10.752807,Kristiansands gate 2
707,Stockfleths gate,60,461,Ila,Oslo,59.937482,10.751917,Stockfleths gate 60
708,Sandstuveien,52,1184,Manglerud,Oslo,59.887049,10.803018999999999,Sandstuveien 52
709,Torggata,9,181,St. Hanshaugen,Oslo,59.913928,10.748213,Torggata 9
710,Møllergata,23,179,hammer,Oslo,59.915635,10.74856,Møllergata 23
711,Grefsenkollveien,100,490,Kjelsås,Oslo,59.958793,10.803897,Grefsenkollveien 100
712,Øvre Slottsgate,6,157,Vika,Oslo,59.911639,10.741155,Øvre Slottsgate 6
713,Christian Krohgs gate,43C,186,Enerhaugen,Oslo,59.916436,10.759383,Christian Krohgs gate 43C
714,Holmens Gate,5,250,Aker Brygge,Oslo,59.910309,10.725597,Holmens Gate 5
715,Grønland,22,188,Vaterland,Oslo,59.912973,10.761775,Grønland 22
716,Frognerveien,67,266,Briskeby,Oslo,59.923972,10.702639,Frognerveien 67
717,Nydalsveien,33,484,Nydalen,Oslo,59.949113,10.766375,Nydalsveien 33
718,Thorvald Meyers Gate,36,555,Fredensborg,Oslo,59.924149,10.759853,Thorvald Meyers Gate 36
719,Nedre Slottsgate,1,157,St. Hanshaugen,Oslo,59.909845,10.740141,Nedre Slottsgate 1
720,Brugata,11,186,Vaterland,Oslo,59.913825,10.756473,Brugata 11
721,Olav Vs gate,1,161,Vika,Oslo,59.913929,10.732386,Olav Vs gate 1
722,Stortorvet,9,155,St. Hanshaugen,Oslo,59.91312,10.745487,Stortorvet 9
723,Veitvetveien,8,596,Erich Mogensøns Vei,Oslo,59.943985,10.847813,Veitvetveien 8
724,Sjølyst Plass,5,278,Skøyen,Oslo,59.920215999999996,10.682822999999999,Sjølyst Plass 5
725,Vulkan,5,178,Fredensborg,Oslo,59.922427,10.751924,Vulkan 5
726,Ullevålsveien,81,454,Bislett,Oslo,59.931678,10.735438,Ullevålsveien 81
727,Sognsveien,75,855,Sogn,Oslo,59.948522,10.734687,Sognsveien 75
728,Kongsveien,94,1177,Bekkelaget,Oslo,59.881925,10.784221,Kongsveien 94
729,Stortingsgata,24/26,161,Vika,Oslo,59.91409,10.733521,Stortingsgata 24/26
730,Jernbanetorget,6,154,St. Hanshaugen,Oslo,59.911864,10.751097,Jernbanetorget 6
731,Dronning Eufemias gate,43,194,Vaterland,Oslo,59.907172,10.759753,Dronning Eufemias gate 43
732,Holmens Gate,5,250,Aker Brygge,Oslo,59.910309,10.725597,Holmens Gate 5
733,Tjuvholmen Allé,5,252,Aker Brygge,Oslo,59.908463,10.7222,Tjuvholmen Allé 5
734,Torvbakkgata,12,550,hammer,Oslo,59.919699,10.757123,Torvbakkgata 12
735,Jernbanetorget,1,154,St. Hanshaugen,Oslo,59.910871,10.750735,Jernbanetorget 1
736,Seilduksgata,17,553,Fredensborg,Oslo,59.925441,10.759491,Seilduksgata 17
737,St. Olavs Plass,1,165,hammer,Oslo,59.918162,10.739826,St. Olavs Plass 1
738,Hausmanns Gate,23,182,hammer,Oslo,59.91718,10.754816,Hausmanns Gate 23
739,Trondheimsveien,60,565,Enerhaugen,Oslo,59.922795,10.771149,Trondheimsveien 60
740,Thorvald Meyers gate,73A,552,Enerhaugen,Oslo,59.920934,10.758854,Thorvald Meyers gate 73A
741,Ruseløkkveien,26,251,Vika,Oslo,59.912665,10.726153,Ruseløkkveien 26
742,Strømsveien,245,668,Tveita,Oslo,59.926001,10.847668,Strømsveien 245
743,,,0,Skøyen,Oslo,59.91367,10.64475,Drammensveien 288
744,Majorstuveien,36,367,Majorstuen,Oslo,59.928026,10.715181,Majorstuveien 36
745,Lørenveien,42,585,Økern,Oslo,59.930908,10.792591999999999,Lørenveien 42
746,Normannsgata,44,655,Grønland,Oslo,59.911606,10.781575,Normannsgata 44
747,Olav Nygards Veg,62,688,Bøler,Oslo,59.886525,10.854253,Olav Nygards Veg 62
748,Mølleparken,6,459,Torshov,Oslo,59.930179,10.756664,Mølleparken 6
749,Strømsveien,24,658,Helsfyr,Oslo,59.908944,10.787272,Strømsveien 24
750,Pilestredet,51,350,Homansbyen,Oslo,59.921603,10.731969,Pilestredet 51
751,Dronningens gate,27,154,St. Hanshaugen,Oslo,59.912364,10.747907,Dronningens gate 27
752,Veitvetveien,8,596,Erich Mogensøns Vei,Oslo,59.943985,10.847813,Veitvetveien 8
753,Markveien,35A,554,Fredensborg,Oslo,59.922222,10.757185,Markveien 35A
754,Jernbanetorget,2,154,St. Hanshaugen,Oslo,59.910765,10.749568,Jernbanetorget 2
755,Disenveien,31,587,Grefsen,Oslo,59.941651,10.795734,Disenveien 31
756,Youngstorget,2,181,hammer,Oslo,59.914553,10.749678,Youngstorget 2
757,Platous Gate,16,190,Grønland,Oslo,59.911264,10.76542,Platous Gate 16
758,Nydalsveien,33,484,Nydalen,Oslo,59.949113,10.766375,Nydalsveien 33
759,Osterhaus'' Gate,14,183,hammer,Oslo,59.917183,10.753222,Osterhaus'' Gate 14
760,Valkyriegata,3,366,Majorstuen,Oslo,59.928325,10.718482999999999,Valkyriegata 3
761,Olaf Ryes Plass,4,552,Fredensborg,Oslo,59.922639,10.757073,Olaf Ryes Plass 4
762,Drammensveien,70,271,Skillebekk,Oslo,59.91276,10.706981,Drammensveien 70
763,,,0,Ryen,Oslo,59.893547,10.805305,Ryensvingen 3
764,Gimleveien,22B,266,Gimlé,Oslo,59.920224,10.705522,Gimleveien 22B
765,Maridalsveien,256,872,Torshov,Oslo,59.946396,10.759893,Maridalsveien 256
766,Maridalsveien,9C,178,Fredensborg,Oslo,59.921577,10.751032,Maridalsveien 9C
767,Lilleakerveien,16,283,Skøyen,Oslo,59.917405,10.636047,Lilleakerveien 16
768,Storgata,22,184,hammer,Oslo,59.913837,10.751555,Storgata 22
769,Ullern Allé,4,381,Smedstad,Oslo,59.926044,10.64165,Ullern Allé 4
770,Thorvald Meyers gate,14,555,Torshov,Oslo,59.928838999999996,10.759431,Thorvald Meyers gate 14
771,Cecilie Thoresens Vei,17,1153,Lambertseter,Oslo,59.874915,10.810471,Cecilie Thoresens Vei 17
772,Tøyengata,29B,578,Enerhaugen,Oslo,59.914258,10.768426,Tøyengata 29B
773,Sognsveien,75,855,Sogn,Oslo,59.948522,10.734687,Sognsveien 75
774,Storgata,45,182,hammer,Oslo,59.915598,10.755663,Storgata 45
775,Wergelandsveien,5,167,Homansbyen,Oslo,59.918433,10.732012,Wergelandsveien 5
776,Økernveien,190,580,Tonsenhagen,Oslo,59.936441,10.807879,Økernveien 190
777,Rådhusgata,28,151,St. Hanshaugen,Oslo,59.909831,10.740738,Rådhusgata 28
778,Magnus' gate,2D,650,Grønland,Oslo,59.911239,10.773237,Magnus' gate 2D
779,John G. Mattesons vei,4,687,Opsal,Oslo,59.891791,10.854369,John G. Mattesons vei 4
780,Strømsveien,245,668,Tveita,Oslo,59.926001,10.847668,Strømsveien 245
781,Brugata,9,186,Vaterland,Oslo,59.913911,10.756104,Brugata 9
782,,,0,St. Hanshaugen,Oslo,59.912069,10.75126,Byporten Shopping
783,Bergensveien,8,963,Ammerud,Oslo,59.961096,10.882082,Bergensveien 8
784,Jernbanetorget,6,154,St. Hanshaugen,Oslo,59.911864,10.751097,Jernbanetorget 6
785,Fjordalléen,10,250,Aker Brygge,Oslo,59.909344,10.725136,Fjordalléen 10
786,Josefines gate,23,351,Homansbyen,Oslo,59.923094,10.725904,Josefines gate 23
787,Møllergata,23,179,hammer,Oslo,59.915635,10.74856,Møllergata 23
788,Olav Vs gate,1,161,Vika,Oslo,59.913929,10.732386,Olav Vs gate 1
789,Stovner Senter,3,985,Høybråten,Oslo,59.961789,10.923727,Stovner Senter 3
790,Biskop Gunnerus' gate,3,155,St. Hanshaugen,Oslo,59.912457,10.749962,Biskop Gunnerus' gate 3
791,Herslebs Gate,4,561,Enerhaugen,Oslo,59.919623,10.762527,Herslebs Gate 4
792,Munkedamsveien,27,250,Vika,Oslo,59.912474,10.727364,Munkedamsveien 27
793,Ullevålsveien,82,454,Bislett,Oslo,59.932921,10.734401,Ullevålsveien 82
794,Torggata,27,183,hammer,Oslo,59.916916,10.75331,Torggata 27
795,Mandalls Gate,2,190,Vaterland,Oslo,59.912258,10.763915,Mandalls Gate 2
796,Kongsveien,15,193,Gamle Oslo,Oslo,59.899484,10.761656,Kongsveien 15
797,Rosenbergveien,,0,Ammerud,Oslo,59.960448,10.880478,Grorud senter
798,Tjuvholmen Allé,14,252,Aker Brygge,Oslo,59.907898,10.721969,Tjuvholmen Allé 14
799,Stovner Senter,3,985,Høybråten,Oslo,59.961789,10.923727,Stovner Senter 3
800,Nordre gate,20,551,Fredensborg,Oslo,59.921148,10.758321,Nordre gate 20
801,Lille Stranden,10,252,Aker Brygge,Oslo,59.908422,10.723568,Lille Stranden 10
802,Ruseløkkveien,3,251,Vika,Oslo,59.914241,10.728994,Ruseløkkveien 3
803,Storgata,3,155,St. Hanshaugen,Oslo,59.913065,10.748116,Storgata 3
804,Frognerveien,1A,257,Ruselokka,Oslo,59.915147,10.717611,Frognerveien 1A
805,Frognerveien,58,266,Briskeby,Oslo,59.922323,10.704395,Frognerveien 58
806,Fridtjof Nansens Vei,2,369,Majorstuen,Oslo,59.929548,10.712208,Fridtjof Nansens Vei 2
807,Henrik Ibsens gate,60C,255,Ruselokka,Oslo,59.914992,10.720439,Henrik Ibsens gate 60C
808,Karenslyst Allé,9,278,Skøyen,Oslo,59.920521,10.683642,Karenslyst Allé 9
809,Dronningens Gate,19,154,St. Hanshaugen,Oslo,59.911048,10.746737,Dronningens Gate 19
810,Grensesvingen,7,661,Helsfyr,Oslo,59.914091,10.798652,Grensesvingen 7
811,Platous Gate,16,190,Grønland,Oslo,59.911264,10.76542,Platous Gate 16
812,Ullevålsveien,45,171,Homansbyen,Oslo,59.924181,10.739662,Ullevålsveien 45
813,Munchs Gate,5,165,hammer,Oslo,59.917269,10.741427,Munchs Gate 5
814,Ekebergveien,228,1162,Ekebergveien,Oslo,59.861331,10.800955,Ekebergveien 228
815,Frognerveien,67,266,Briskeby,Oslo,59.923972,10.702639,Frognerveien 67
816,Stranden,3,250,Aker Brygge,Oslo,59.910171,10.727808,Stranden 3
817,Raschs Vei,38,1153,Lambertseter,Oslo,59.879663,10.804024,Raschs Vei 38
818,Møllergata,10,179,hammer,Oslo,59.9144,10.747041,Møllergata 10
819,St. Edmunds Vei,55,280,Smedstad,Oslo,59.925703,10.667545,St. Edmunds Vei 55
820,Trondheimsveien,154,570,Sindsen,Oslo,59.928975,10.77767,Trondheimsveien 154
821,Økernveien,9,653,Grønland,Oslo,59.914864,10.77617,Økernveien 9
822,Askekroken,11,277,Gimlé,Oslo,59.922627,10.682958,Askekroken 11
823,Lørenveien,60,585,Økern,Oslo,59.929358,10.797274999999999,Lørenveien 60
824,Vitaminveien,7,485,Nydalen,Oslo,59.947301,10.773794,Vitaminveien 7
825,Universitetsgata,12,164,hammer,Oslo,59.916505,10.738621,Universitetsgata 12
826,Schweigaards Gate,34,191,Vaterland,Oslo,59.910592,10.764933,Schweigaards Gate 34
827,Vetlandsveien,111,685,Opsal,Oslo,59.893014,10.841544,Vetlandsveien 111
828,Schweigaards Gate,56,656,Grønland,Oslo,59.908552,10.769722999999999,Schweigaards Gate 56
829,,,0,Helsfyr,Oslo,59.912403,10.819845,Tvetenveien 32
830,Karenslyst allé,7,278,Gimlé,Oslo,59.919932,10.685632,Karenslyst allé 7
831,Torggata,16B,181,hammer,Oslo,59.915926,10.751005,Torggata 16B
832,St. Olavs Gate,21,165,hammer,Oslo,59.918045,10.738462,St. Olavs Gate 21
833,Operagata,3,194,St. Hanshaugen,Oslo,59.906525,10.755677,Operagata 3
834,Vitaminveien,7,485,Nydalen,Oslo,59.947301,10.773794,Vitaminveien 7
835,Strømsveien,303,1081,Lindeberg,Oslo,59.933844,10.873135,Strømsveien 303
836,Skovveien,15,257,Ruselokka,Oslo,59.917808,10.718399,Skovveien 15
837,Storgata,13,155,hammer,Oslo,59.913808,10.748869,Storgata 13
838,Disengrenda,24H,587,Grefsen,Oslo,59.942813,10.799466,Disengrenda 24H
839,Oscars Gate,19,352,Homansbyen,Oslo,59.922558,10.726777,Oscars Gate 19
840,Ole Brumms vei,1,979,Høybråten,Oslo,59.952259,10.910788,Ole Brumms vei 1
841,Grønlandsleiret,41,190,Grønland,Oslo,59.910872,10.767101,Grønlandsleiret 41
842,Dronning Eufemias gate,11,150,Vaterland,Oslo,59.908275,10.755151,Dronning Eufemias gate 11
843,Ankerveien,127,766,Holmenkollen,Oslo,59.962297,10.6388,Ankerveien 127
844,Stenersgata,1,50,Vaterland,Oslo,59.913019,10.752913,Stenersgata 1
845,Vitaminveien,24,483,Nydalen,Oslo,59.946887,10.771979,Vitaminveien 24
846,Selma Ellefsens vei,2,581,Økern,Oslo,59.925423,10.807471,Selma Ellefsens vei 2
847,Dælenenggata,23,567,Torshov,Oslo,59.927337,10.771448,Dælenenggata 23
848,Frognerstranda,4,250,Skillebekk,Oslo,59.910364,10.705465,Frognerstranda 4
849,Trondheimsveien,162,570,Sindsen,Oslo,59.930412,10.777917,Trondheimsveien 162
850,Rosenkrantz' gate,7,159,hammer,Oslo,59.914691,10.73951,Rosenkrantz' gate 7
851,Pilestredet,39,166,Homansbyen,Oslo,59.920179,10.734642000000001,Pilestredet 39
852,Trondheimsveien,110,565,Sindsen,Oslo,59.925859,10.775559,Trondheimsveien 110
853,Stranden,1,250,Aker Brygge,Oslo,59.910504,10.728505,Stranden 1
854,Møllergata,15,179,hammer,Oslo,59.914656,10.747099,Møllergata 15
855,Valkyriegata,3,366,Majorstuen,Oslo,59.928325,10.718482999999999,Valkyriegata 3
856,Tollbugata,25,157,St. Hanshaugen,Oslo,59.911254,10.74116,Tollbugata 25
857,Møllergata,16,179,hammer,Oslo,59.914697,10.747611,Møllergata 16
858,Mariboes Gate,7,183,hammer,Oslo,59.916377,10.750818,Mariboes Gate 7
859,Tvetenveien,150,671,Bryn,Oslo,59.913836,10.841898,Tvetenveien 150
860,Vulkan,2,182,Fredensborg,Oslo,59.921365,10.752243,Vulkan 2
861,Tordenskiolds Gate,1,160,Vika,Oslo,59.913277,10.736424,Tordenskiolds Gate 1
862,Nydalsveien,33,484,Nydalen,Oslo,59.949113,10.766375,Nydalsveien 33
863,,,0,Aker Brygge,Oslo,59.909794,10.724879,Bryggetorget
864,Plogveien,6,679,Ryen,Oslo,59.897289,10.812857,Plogveien 6
865,Youngstorget,6,181,hammer,Oslo,59.915121,10.748418,Youngstorget 6
866,Akersgata,36,180,hammer,Oslo,59.914444,10.743312,Akersgata 36
867,Sørkedalsveien,75,376,Smedstad,Oslo,59.937753,10.68536,Sørkedalsveien 75
868,Kongeveien,26,787,Holmenkollen,Oslo,59.96248,10.663009,Kongeveien 26
869,Holbergs Plass,4,166,hammer,Oslo,59.919159,10.733967,Holbergs Plass 4
870,Akershusstranda,25,150,St. Hanshaugen,Oslo,59.901814,10.741166,Akershusstranda 25
871,Dronningens gate,27,154,St. Hanshaugen,Oslo,59.912364,10.747907,Dronningens gate 27
872,C. J. Hambros Plass,2,164,hammer,Oslo,59.915999,10.741089,C. J. Hambros Plass 2
873,Wessels Gate,2,165,hammer,Oslo,59.919659,10.743019,Wessels Gate 2
874,Valkyriegata,3,366,Majorstuen,Oslo,59.928325,10.718482999999999,Valkyriegata 3
875,Jernbanetorget,1,154,St. Hanshaugen,Oslo,59.910871,10.750735,Jernbanetorget 1
876,Sørengkaia,69,194,St. Hanshaugen,Oslo,59.9033,10.754335,Sørengkaia 69
877,Sørkedalsveien,5B,369,Majorstuen,Oslo,59.930691,10.712197,Sørkedalsveien 5B
878,Karl Johans gate,18 C,0,St. Hanshaugen,Oslo,59.912638,10.741861,Karl Johans gate 18 C
879,Vitaminveien,11,485,Nydalen,Oslo,59.947547,10.772777,Vitaminveien 11
880,Dronning Eufemias Gate,28,191,Vaterland,Oslo,59.907732,10.759354,Dronning Eufemias Gate 28
881,Trelastgata,5,191,Vaterland,Oslo,59.908684,10.75848,Trelastgata 5
882,Jernbanetorget,6,154,St. Hanshaugen,Oslo,59.911864,10.751097,Jernbanetorget 6
883,Arbeidersamfunnets Plass,1,181,hammer,Oslo,59.915518,10.751805,Arbeidersamfunnets Plass 1
884,,,0,Filipstad,Oslo,59.90934,10.70899,Hjortneskaia
885,Torggata,16B,181,hammer,Oslo,59.915926,10.751005,Torggata 16B
886,Majorstuveien,38,367,Majorstuen,Oslo,59.928352,10.714978,Majorstuveien 38
887,Storgata,23,184,hammer,Oslo,59.913892,10.75077,Storgata 23
888,Romsås Senter,1,970,Ammerud,Oslo,59.963161,10.892858,Romsås Senter 1
889,Sporveisgata,35,354,Bislett,Oslo,59.925191,10.725345,Sporveisgata 35
890,Grønlandsleiret,15,190,Vaterland,Oslo,59.912256,10.764388,Grønlandsleiret 15
891,,,0,Aker Brygge,Oslo,59.909794,10.724879,Bryggetorget
892,Kanalen,1,252,Aker Brygge,Oslo,59.908189,10.721233,Kanalen 1
893,,,0,Høybråten,Oslo,59.960866,10.924411,Stovner senter
894,Gabels gate,37B,272,Skillebekk,Oslo,59.915359,10.710871,Gabels gate 37B
895,Trondheimsveien,6,560,Enerhaugen,Oslo,59.919182,10.763353,Trondheimsveien 6
896,,,0,Ammerud,Oslo,59.9591,10.88273,Grorudveien
897,Sørengkaia,71,194,St. Hanshaugen,Oslo,59.903093,10.753896,Sørengkaia 71
898,Tøyenbekken,14,134,Vaterland,Oslo,59.911282,10.760494,Tøyenbekken 14
899,Thorvald Meyers gate,35,555,Torshov,Oslo,59.928237,10.759343,Thorvald Meyers gate 35
900,Haugerudsenteret,1,673,Lindeberg,Oslo,59.922674,10.8564,Haugerudsenteret 1
901,Grønnegata,10,350,Homansbyen,Oslo,59.922133,10.729325,Grønnegata 10
902,Messepromenaden,2,279,Skøyen,Oslo,59.920888,10.681155,Messepromenaden 2
903,Tollbugata,11,152,St. Hanshaugen,Oslo,59.910035,10.746311,Tollbugata 11
904,Ludvig Karstens Vei,4,1064,Ellingsrud,Oslo,59.93447,10.925264,Ludvig Karstens Vei 4
905,Åsengata,42,480,Torshov,Oslo,59.939503,10.773713,Åsengata 42
906,Hieronymus Heyerdahls Gate,1,160,Vika,Oslo,59.911776,10.734504,Hieronymus Heyerdahls Gate 1
907,Vogts gate,46,477,Torshov,Oslo,59.934497,10.764116,Vogts gate 46
908,Jernbanetorget,1,154,St. Hanshaugen,Oslo,59.910871,10.750735,Jernbanetorget 1
909,Rådhusgata,32,151,St. Hanshaugen,Oslo,59.910205,10.738916,Rådhusgata 32
910,Thorvald Meyers Gate,30,555,Fredensborg,Oslo,59.925017,10.759724,Thorvald Meyers Gate 30
911,Ekebergveien,235,1162,Ekebergveien,Oslo,59.861082,10.799914,Ekebergveien 235
912,Dronning Eufemias Gate,32,191,Vaterland,Oslo,59.907486,10.760352,Dronning Eufemias Gate 32
913,Hegdehaugsveien,26,352,Homansbyen,Oslo,59.921099,10.72735,Hegdehaugsveien 26
914,Jens Bjelkes gate,9B,562,Enerhaugen,Oslo,59.918982,10.763793,Jens Bjelkes gate 9B
915,,,0,,Oslo,59.99077,10.627177,Zinoberveien 21
916,Torggata,11,181,hammer,Oslo,59.914047,10.748477,Torggata 11
917,Dronningens gate,27,154,St. Hanshaugen,Oslo,59.912364,10.747907,Dronningens gate 27
918,Bogstadveien,53A,366,Majorstuen,Oslo,59.929534,10.71416,Bogstadveien 53A
919,Rådhusgata,27,158,Vika,Oslo,59.911155,10.735915,Rådhusgata 27
920,,,0,Torshov,Oslo,59.934733,10.761387,Myrens Verksted
921,Vestgrensa,2,851,Blindernveien,Oslo,59.94079,10.729133,Vestgrensa 2
922,,,0,Vika,Oslo,59.91229,10.731867,Olav Vs plass
923,Parkveien,12,350,Homansbyen,Oslo,59.920818,10.728916,Parkveien 12
924,Kongeveien,5,787,Holmenkollen,Oslo,59.962632,10.666289,Kongeveien 5
925,Dronning Eufemias gate,16,191,Vaterland,Oslo,59.908252,10.758949,Dronning Eufemias gate 16
926,Grønlandsleiret,61,190,Grønland,Oslo,59.909614,10.768084,Grønlandsleiret 61
927,Vulkan,5,178,Fredensborg,Oslo,59.922427,10.751924,Vulkan 5
928,Grorudveien,5,962,Ammerud,Oslo,59.958631,10.882408,Grorudveien 5
929,Henny Mürers gang,3,150,Vaterland,Oslo,59.908179,10.754304,Henny Mürers gang 3
930,Trygve Lies Plass,1,1051,Lindeberg,Oslo,59.942157,10.897744,Trygve Lies Plass 1
931,Tjuvholmen allé,6,252,Aker Brygge,Oslo,59.908503,10.722822,Tjuvholmen allé 6
932,Normannsgata,5,655,Grønland,Oslo,59.908747,10.78001,Normannsgata 5
933,Frognerveien,12,263,Briskeby,Oslo,59.916532,10.713442,Frognerveien 12
934,Karl Johans gate,35,162,Vika,Oslo,59.914121,10.738150000000001,Karl Johans gate 35
935,Nydalsveien,28,484,Nydalen,Oslo,59.94973,10.76402,Nydalsveien 28
936,Maridalsveien,17,178,Fredensborg,Oslo,59.922637,10.751986,Maridalsveien 17
937,Edvard Munchs plass,1,194,St. Hanshaugen,Oslo,59.906166,10.755419,Edvard Munchs plass 1
938,Bentsegata,2,465,Torshov,Oslo,59.937981,10.756819,Bentsegata 2
939,Sandakerveien,106,484,Torshov,Oslo,59.945217,10.771976,Sandakerveien 106
940,Møllergata,10,179,hammer,Oslo,59.9144,10.747041,Møllergata 10
941,Stranden,39,250,Aker Brygge,Oslo,59.90964,10.726513,Stranden 39
942,Operagata,36,194,Vaterland,Oslo,59.906678,10.759956,Operagata 36
943,Stenbråtveien,81,1283,Ostmarkkapellet,Oslo,59.853338,10.821589,Stenbråtveien 81
944,,,0,hammer,Oslo,59.918963,10.747563,Fredensborgveien 24
945,Valkyriegata,21B,366,Majorstuen,Oslo,59.930147,10.715897,Valkyriegata 21B
946,Rådhusgata,27,158,Vika,Oslo,59.911155,10.735915,Rådhusgata 27
947,Mariboes Gate,7,183,hammer,Oslo,59.916377,10.750818,Mariboes Gate 7
948,,,0,Lambertseter,Oslo,59.874324,10.810704,Lambertseter senter
949,Fossumberget,49,983,Høybråten,Oslo,59.959257,10.933117,Fossumberget 49
950,Langbølgen,9,1150,Lambertseter,Oslo,59.87297,10.811539,Langbølgen 9
951,Grønlandsleiret,10,190,Vaterland,Oslo,59.912518,10.765009,Grønlandsleiret 10
952,Sandakerveien,22,473,Torshov,Oslo,59.934002,10.760349,Sandakerveien 22
953,Tore Hals Mejdells Vei,5,751,Rud,Oslo,59.946176,10.643484,Tore Hals Mejdells Vei 5
954,Lille Bislett,6,170,Homansbyen,Oslo,59.923362,10.733265,Lille Bislett 6
955,Grønlandsleiret,46,190,Grønland,Oslo,59.908817,10.768454,Grønlandsleiret 46
956,Københavngata,2,553,Fredensborg,Oslo,59.92474,10.76284,Københavngata 2
957,Bygdøyveien,62,287,Bygdøy,Oslo,59.910406,10.68118,Bygdøyveien 62
958,Garver Ytteborgs Vei,98,977,Høybråten,Oslo,59.953134,10.908127,Garver Ytteborgs Vei 98
959,Parkveien,1A,350,Homansbyen,Oslo,59.922465,10.73182,Parkveien 1A
960,Toftes Gate,19,556,Torshov,Oslo,59.929486,10.76055,Toftes Gate 19
961,Elisenbergveien,19A,265,Gimlé,Oslo,59.918675,10.705854,Elisenbergveien 19A
962,Youngs Gate,4,181,hammer,Oslo,59.914549,10.751016,Youngs Gate 4
963,Underhaugsveien,28,354,Homansbyen,Oslo,59.923859,10.726099,Underhaugsveien 28
964,Parkveien,64,254,Ruselokka,Oslo,59.914373,10.721731,Parkveien 64
965,Munkedamsveien,14,250,Vika,Oslo,59.913236,10.729625,Munkedamsveien 14
966,Konghellegata,5,569,Sindsen,Oslo,59.929735,10.779664,Konghellegata 5
967,Maridalsveien,4B,178,hammer,Oslo,59.919662,10.751164,Maridalsveien 4B
968,Dronning Eufemias gate,23,194,Vaterland,Oslo,59.907545,10.758183,Dronning Eufemias gate 23
969,Stovner Senter,3,985,Høybråten,Oslo,59.961789,10.923727,Stovner Senter 3
970,Frydenlundgata,2A,169,Homansbyen,Oslo,59.923318,10.736149,Frydenlundgata 2A
971,Fredriksborgveien,16,286,Bygdøy,Oslo,59.90343,10.688032,Fredriksborgveien 16
972,Stenersgata,1,50,Vaterland,Oslo,59.913019,10.752913,Stenersgata 1
973,Tvetenveien,150,671,Bryn,Oslo,59.913836,10.841898,Tvetenveien 150
974,Frognerveien,33,263,Briskeby,Oslo,59.918948,10.710067,Frognerveien 33
975,Dronning Eufemias Gate,28,191,Vaterland,Oslo,59.907732,10.759354,Dronning Eufemias Gate 28
976,Thorvald Meyers Gate,65,552,Enerhaugen,Oslo,59.921757,10.758439,Thorvald Meyers Gate 65
977,Waldemar Thranes Gate,9,171,Fredensborg,Oslo,59.924358,10.742076,Waldemar Thranes Gate 9
978,Vulkan,5,178,Fredensborg,Oslo,59.922427,10.751924,Vulkan 5
979,Operagata,13,194,Vaterland,Oslo,59.907073,10.755980000000001,Operagata 13
980,Trondheimsveien,16,560,Enerhaugen,Oslo,59.91976,10.765393,Trondheimsveien 16
981,Nordstrandveien,32,1163,Ekebergveien,Oslo,59.861105,10.795853,Nordstrandveien 32
982,Ullevålsveien,1,165,hammer,Oslo,59.918116,10.74375,Ullevålsveien 1
983,Grønlandsleiret,1,190,Vaterland,Oslo,59.912581,10.762854,Grønlandsleiret 1
984,Youngstorget,2,181,hammer,Oslo,59.914553,10.749678,Youngstorget 2
985,Hovinveien,39,661,Tøyen,Oslo,59.920044,10.791074,Hovinveien 39
986,,,0,Grønland,Oslo,59.911238,10.766678,Storgaten legeklinikk
987,Dronning Eufemias gate,11,150,Vaterland,Oslo,59.908275,10.755151,Dronning Eufemias gate 11
988,Sandakerveien,72,484,Torshov,Oslo,59.942374,10.769046,Sandakerveien 72
989,Balchens gate,5,265,Skillebekk,Oslo,59.918421,10.70795,Balchens gate 5
990,Tøyengata,2,190,Vaterland,Oslo,59.91278,10.76392,Tøyengata 2
991,Markveien,57,550,hammer,Oslo,59.919955,10.757219,Markveien 57
992,Pilestredet,63D,350,Homansbyen,Oslo,59.924194,10.73106,Pilestredet 63D
993,Søndre Gate,8,550,hammer,Oslo,59.918712,10.758256,Søndre Gate 8
994,Torggata,16B,181,hammer,Oslo,59.915926,10.751005,Torggata 16B
995,Professor Birkelands Vei,27,1081,Lindeberg,Oslo,59.940839,10.882873,Professor Birkelands Vei 27
996,Øvre Slottsgate,16,157,St. Hanshaugen,Oslo,59.913084,10.742608,Øvre Slottsgate 16
997,Ekebergveien,99,1181,Ekeberg,Oslo,59.892147,10.774622,Ekebergveien 99
998,Parkveien,13,350,Homansbyen,Oslo,59.921776,10.730371,Parkveien 13
999,Karl Johans Gate,25,159,Vika,Oslo,59.913308,10.741004,Karl Johans Gate 25
1000,Torggata,34,183,hammer,Oslo,59.917275,10.753586,Torggata 34
1001,Bøkkerveien,4,579,Økern,Oslo,59.92698,10.793998,Bøkkerveien 4
1002,Klingenberggata,12,161,Vika,Oslo,59.913359,10.732011,Klingenberggata 12
1003,Frognerstranda,4,250,Skillebekk,Oslo,59.910364,10.705465,Frognerstranda 4
1004,Dronning Eufemias Gate,14,191,Vaterland,Oslo,59.908205,10.757843,Dronning Eufemias Gate 14
1005,Storgata,53,182,hammer,Oslo,59.916638,10.757231,Storgata 53
1006,Lakkegata,55,187,Enerhaugen,Oslo,59.916934,10.762468,Lakkegata 55
1007,Niels Juels Gate,29,257,Ruselokka,Oslo,59.916475,10.714738,Niels Juels Gate 29
1008,Stovner Senter,3,985,Høybråten,Oslo,59.961789,10.923727,Stovner Senter 3
1009,Langbølgen,3,1150,Lambertseter,Oslo,59.873363,10.811722,Langbølgen 3
1010,Middelthuns gate,25F,368,Majorstuen,Oslo,59.928541,10.710054,Middelthuns gate 25F
1011,C. J. Hambros Plass,7,164,hammer,Oslo,59.915971,10.740752,C. J. Hambros Plass 7
1012,Hegdehaugsveien,36,352,Homansbyen,Oslo,59.9235,10.725313,Hegdehaugsveien 36
1013,Thorvald Meyers Gate,43,555,Fredensborg,Oslo,59.924406,10.758889,Thorvald Meyers Gate 43
1014,Sandakerveien,72,484,Torshov,Oslo,59.942374,10.769046,Sandakerveien 72
1015,Nedre Prinsdals Vei,77,1263,Holmlia,Oslo,59.83362,10.807451,Nedre Prinsdals Vei 77
1016,Frognerveien,58,266,Briskeby,Oslo,59.922323,10.704395,Frognerveien 58
1017,Møllerveien,4,182,Fredensborg,Oslo,59.92135,10.751861,Møllerveien 4
1018,Henrik Ibsens gate,90,255,Ruselokka,Oslo,59.914573,10.719421,Henrik Ibsens gate 90
1019,Nedre Slottsgate,8,157,St. Hanshaugen,Oslo,59.91216,10.742763,Nedre Slottsgate 8
1020,Lilleakerveien,16,283,Skøyen,Oslo,59.917405,10.636047,Lilleakerveien 16
1021,Rathkes gate,9A,558,Enerhaugen,Oslo,59.920591,10.763228999999999,Rathkes gate 9A
1022,Lofsrudveien,6,1281,Dal,Oslo,59.848419,10.829194,Lofsrudveien 6
1023,Møllergata,8,179,hammer,Oslo,59.914181,10.746586,Møllergata 8
1024,Markveien,50C,554,Fredensborg,Oslo,59.920755,10.758145,Markveien 50C
1025,,,0,Ryen,Oslo,59.893547,10.805305,Ryensvingen 3
1026,Frederik Stangs gate,46C,264,Skillebekk,Oslo,59.918753,10.708768,Frederik Stangs gate 46C
1027,Bogstadveien,58,366,Majorstuen,Oslo,59.928143,10.717387,Bogstadveien 58
1028,Hallagerbakken,108,1256,Holmlia,Oslo,59.84137,10.792825,Hallagerbakken 108
1029,Thorvald Meyers gate,76A,550,Enerhaugen,Oslo,59.919405,10.759701,Thorvald Meyers gate 76A
1030,Markveien,58,550,hammer,Oslo,59.918985,10.757479,Markveien 58
1031,Josefines gate,23,351,Homansbyen,Oslo,59.923094,10.725904,Josefines gate 23
1032,Trondheimsveien,139B,570,Sindsen,Oslo,59.929546,10.77833,Trondheimsveien 139B
1033,Karl Johans Gate,25,159,Vika,Oslo,59.913308,10.741004,Karl Johans Gate 25
1034,Sofienberggata,15,558,Enerhaugen,Oslo,59.922237,10.76135,Sofienberggata 15
1035,Vogts Gate,38,474,Torshov,Oslo,59.933265,10.763167,Vogts Gate 38
1036,Langgata,2B,566,Enerhaugen,Oslo,59.924067,10.768339,Langgata 2B
1037,Stranden,3,250,Aker Brygge,Oslo,59.910171,10.727808,Stranden 3
1038,Jernbanetorget,6,154,St. Hanshaugen,Oslo,59.911864,10.751097,Jernbanetorget 6
1039,Møllergata,8,179,hammer,Oslo,59.914181,10.746586,Møllergata 8
1040,President Harbitz' gate,4,259,Briskeby,Oslo,59.918836,10.715629,President Harbitz' gate 4
1041,Calmeyers Gate,8,183,hammer,Oslo,59.916042,10.753529,Calmeyers Gate 8
1042,Fossumberget,49,983,Høybråten,Oslo,59.959257,10.933117,Fossumberget 49
1043,Hammersborg Torg,3,179,hammer,Oslo,59.916881,10.749177,Hammersborg Torg 3
1044,Bankplassen,1,151,St. Hanshaugen,Oslo,59.90892,10.742104,Bankplassen 1
1045,Ekebergveien,103,1178,Ekeberg,Oslo,59.891199,10.775637,Ekebergveien 103
1046,Sørkedalsveien,3B,369,Majorstuen,Oslo,59.930332,10.712859,Sørkedalsveien 3B
1047,Drammensveien,130,277,Gimlé,Oslo,59.921455,10.688035,Drammensveien 130
1048,Vitaminveien,7,485,Nydalen,Oslo,59.947301,10.773794,Vitaminveien 7
1049,Refstadveien,44,589,Tonsenhagen,Oslo,59.942033,10.808013,Refstadveien 44
1050,Rosenbergveien,,0,Ammerud,Oslo,59.960448,10.880478,Grorud senter
1051,Thereses gate,20A,168,Bislett,Oslo,59.92909,10.733033,Thereses gate 20A
1052,Refstadveien,27,589,Tonsenhagen,Oslo,59.941297,10.810886,Refstadveien 27
1053,,,0,Bislett,Oslo,59.931129,10.734427,Brageveien 2
1054,Industrigata,36,357,Briskeby,Oslo,59.926046,10.719707,Industrigata 36
1055,Østensjøveien,79,667,Bryn,Oslo,59.903192,10.822458,Østensjøveien 79
1056,Rosenbergveien,,0,Ammerud,Oslo,59.960448,10.880478,Grorud senter
1057,Skovveien,4,257,Ruselokka,Oslo,59.915809,10.715559,Skovveien 4
1058,Akershusstranda,11,150,Vika,Oslo,59.907893,10.733983,Akershusstranda 11
1059,Torggata,11,181,hammer,Oslo,59.914047,10.748477,Torggata 11
1060,Silurveien,46,380,Smedstad,Oslo,59.932862,10.656952,Silurveien 46
1061,Ruseløkkveien,3,251,Vika,Oslo,59.914241,10.728994,Ruseløkkveien 3
1062,Thorvald Meyers Gate,18,555,Torshov,Oslo,59.928204,10.759281,Thorvald Meyers Gate 18
1063,Tjuvholmen Allé,15,252,Aker Brygge,Oslo,59.907337,10.721021,Tjuvholmen Allé 15
1064,Steinhammerveien,6A,1177,Bekkelaget,Oslo,59.878744,10.787175,Steinhammerveien 6A
1065,Parkveien,78,254,Filipstad,Oslo,59.912305,10.719155,Parkveien 78
1066,Maridalsveien,17,178,Fredensborg,Oslo,59.922637,10.751986,Maridalsveien 17
1067,Parkveien,12,350,Homansbyen,Oslo,59.920818,10.728916,Parkveien 12
1068,Arilds Vei,2,491,Kjelsås,Oslo,59.956561,10.789753,Arilds Vei 2
1069,Waldemar Thranes gate,65A,173,Fredensborg,Oslo,59.927789,10.749195,Waldemar Thranes gate 65A
1070,Cort Adelers gate,2,254,Ruselokka,Oslo,59.914655,10.720815,Cort Adelers gate 2
1071,Jernbanetorget,1,154,St. Hanshaugen,Oslo,59.910871,10.750735,Jernbanetorget 1
1072,Bogstadveien,66,366,Majorstuen,Oslo,59.928664,10.715726,Bogstadveien 66
1073,Møllergata,42,179,hammer,Oslo,59.918025,10.750607,Møllergata 42
1074,Torggata,17B,183,hammer,Oslo,59.916183,10.751991,Torggata 17B
1075,Sørkedalsveien,10,369,Majorstuen,Oslo,59.930724,10.709959,Sørkedalsveien 10
1076,Sørkedalsveien,1,369,Majorstuen,Oslo,59.929923,10.713789,Sørkedalsveien 1
1077,Geitmyrsveien,57,455,Ila,Oslo,59.93118,10.742734,Geitmyrsveien 57
1078,Jernbanetorget,6,154,St. Hanshaugen,Oslo,59.911864,10.751097,Jernbanetorget 6
1079,Østensjøveien,79,667,Bryn,Oslo,59.903192,10.822458,Østensjøveien 79
1080,Welhavens gate,2C,166,hammer,Oslo,59.919639,10.733846,Welhavens gate 2C
1081,Holmens Gate,5,250,Aker Brygge,Oslo,59.910309,10.725597,Holmens Gate 5
1082,Brobekkveien,80,582,Økern,Oslo,59.93206,10.831542,Brobekkveien 80
1083,Torggata,9,181,St. Hanshaugen,Oslo,59.913928,10.748213,Torggata 9
1084,Nedre Kalbakkvei,2,950,Ammerud,Oslo,59.951422,10.867129,Nedre Kalbakkvei 2
1085,Bryggetorget,14,250,Aker Brygge,Oslo,59.909345,10.724432,Bryggetorget 14
1086,Hammersborggata,9,181,hammer,Oslo,59.915036,10.752189,Hammersborggata 9
1087,Bøkkerveien,4,579,Økern,Oslo,59.92698,10.793998,Bøkkerveien 4
1088,Tullins gate,5,166,hammer,Oslo,59.918258,10.7344,Tullins gate 5
1089,Fredensborgveien,22,177,hammer,Oslo,59.918547,10.747854,Fredensborgveien 22
1090,Maridalsveien,153,461,Torshov,Oslo,59.937536,10.756509,Maridalsveien 153
1091,Kongens Gate,8,153,St. Hanshaugen,Oslo,59.910205,10.7421,Kongens Gate 8
1092,Ole Vigs Gate,22,366,Majorstuen,Oslo,59.928427,10.719482,Ole Vigs Gate 22
1093,Sommerrogata,1,255,Ruselokka,Oslo,59.915245,10.719612,Sommerrogata 1
1094,Hegdehaugsveien,36,352,Homansbyen,Oslo,59.9235,10.725313,Hegdehaugsveien 36
1095,Rådhusbrygge 2,1,160,Vika,Oslo,59.909989,10.732819,Rådhusbrygge 2 1
1096,Strømsveien,241,668,Tveita,Oslo,59.924659,10.843525,Strømsveien 241
1097,Bøkkerveien,4,579,Økern,Oslo,59.92698,10.793998,Bøkkerveien 4
1098,Monrads gate,1C,577,Enerhaugen,Oslo,59.915592,10.773451,Monrads gate 1C
1099,Erich Mogensøns Vei,38,594,Erich Mogensøns Vei,Oslo,59.943242,10.835478,Erich Mogensøns Vei 38
1100,Stockfleths Gate,51,461,Ila,Oslo,59.936501,10.752521999999999,Stockfleths Gate 51
1101,Munkedamsveien,29,250,Aker Brygge,Oslo,59.91217,10.726725,Munkedamsveien 29
1102,Toftes gate,20B,556,Torshov,Oslo,59.928362,10.761482,Toftes gate 20B
1103,Trollvannsveien,3,490,Kjelsås,Oslo,59.961718,10.80608,Trollvannsveien 3
1104,Vitaminveien,31,485,Nydalen,Oslo,59.947235,10.77158,Vitaminveien 31
1105,,,0,,Oslo,60.041422,10.755485,Øyungsdammen Ø
1106,Kirkeveien,104A,361,Bislett,Oslo,59.933434,10.725707,Kirkeveien 104A
1107,Waldemar Thranes Gate,32,171,Fredensborg,Oslo,59.925006,10.742655,Waldemar Thranes Gate 32
1108,Hesselbergs gate,6A,555,Torshov,Oslo,59.927938,10.761656,Hesselbergs gate 6A
1109,Sørkedalsveien,10,369,Majorstuen,Oslo,59.930724,10.709959,Sørkedalsveien 10
1110,Thorvald Meyers gate,27A,555,Fredensborg,Oslo,59.926834,10.758914,Thorvald Meyers gate 27A
1111,Dronning Eufemias Gate,14,191,Vaterland,Oslo,59.908205,10.757843,Dronning Eufemias Gate 14
1112,Elisenbergveien,22,265,Gimlé,Oslo,59.919033999999996,10.706062,Elisenbergveien 22
1113,Fjordalléen,4,250,Aker Brygge,Oslo,59.909137,10.725161,Fjordalléen 4
1114,Rådhusgata,28,151,St. Hanshaugen,Oslo,59.909831,10.740738,Rådhusgata 28
1115,,,0,Bøler,Oslo,59.891523,10.854906,Østmarkveien
1116,Østre Aker Vei,243,976,Ammerud,Oslo,59.953823,10.892411,Østre Aker Vei 243
1117,Bogstadveien,30B,355,Briskeby,Oslo,59.92601,10.72065,Bogstadveien 30B
1118,St. Halvards gate,33,192,Gamle Oslo,Oslo,59.906048,10.77516,St. Halvards gate 33
1119,Vitaminveien,7,485,Nydalen,Oslo,59.947301,10.773794,Vitaminveien 7
1120,Tollbugata,7,152,St. Hanshaugen,Oslo,59.909927,10.746559,Tollbugata 7
1121,Torggata,18,181,hammer,Oslo,59.916126,10.751136,Torggata 18
1122,Hauketoveien,8,1266,Hauketo,Oslo,59.84701,10.804407,Hauketoveien 8
1123,Thorvald Meyers gate,23A,555,Fredensborg,Oslo,59.927393,10.758764,Thorvald Meyers gate 23A
1124,Schweigaards gate,10,185,Vaterland,Oslo,59.911683,10.758148,Schweigaards gate 10
1125,Briskebyveien,31,260,Briskeby,Oslo,59.922319,10.715401,Briskebyveien 31
1126,Erich Mogensøns Vei,38,594,Erich Mogensøns Vei,Oslo,59.943242,10.835478,Erich Mogensøns Vei 38
1127,Lilleakerveien,16,283,Skøyen,Oslo,59.917405,10.636047,Lilleakerveien 16
1128,Tevlingveien,17,1081,Lindeberg,Oslo,59.930863,10.868669,Tevlingveien 17
1129,Henrik Ibsens gate,100,255,Ruselokka,Oslo,59.914153,10.718812,Henrik Ibsens gate 100
1130,,,0,Ekebergveien,Oslo,59.860841,10.802908,Sæter torg
1131,Søndre Gate,8,550,hammer,Oslo,59.918712,10.758256,Søndre Gate 8
1132,Dronning Eufemias gate,16,191,Vaterland,Oslo,59.908252,10.758949,Dronning Eufemias gate 16
1133,Sørengkaia,99,194,St. Hanshaugen,Oslo,59.902836,10.753338,Sørengkaia 99
1134,Sognsveien,75,855,Sogn,Oslo,59.948522,10.734687,Sognsveien 75
1135,Pasoplia,5,1279,Rønning,Oslo,59.842154,10.845451,Pasoplia 5
1136,Thereses gate,51C,354,Homansbyen,Oslo,59.926065,10.730818,Thereses gate 51C
1137,Holmlia Senter Vei,10,1255,Holmlia,Oslo,59.834355,10.795301,Holmlia Senter Vei 10
1138,Tøyengata,29B,578,Enerhaugen,Oslo,59.914258,10.768426,Tøyengata 29B
1139,Olaf Ryes Plass,10,552,Fredensborg,Oslo,59.923498,10.758055,Olaf Ryes Plass 10
1140,Østre Aker Vei,243,976,Ammerud,Oslo,59.953823,10.892411,Østre Aker Vei 243
1141,Ekebergveien,11,192,Gamle Oslo,Oslo,59.902082,10.77383,Ekebergveien 11
1142,Sundveien,1,198,Bekkelaget,Oslo,59.873483,10.755443,Sundveien 1
1143,Hegdehaugsveien,22B,167,Homansbyen,Oslo,59.920229,10.729995,Hegdehaugsveien 22B
1144,,,0,Aker Brygge,Oslo,59.910135,10.728725,Aker brygge
1145,Dronning Eufemias Gate,14,191,Vaterland,Oslo,59.908205,10.757843,Dronning Eufemias Gate 14
1146,Tokerudberget,16,986,Høybråten,Oslo,59.964208,10.927202,Tokerudberget 16
1147,Torggata,11,181,hammer,Oslo,59.914047,10.748477,Torggata 11
1148,Søndre Gate,8,550,hammer,Oslo,59.918712,10.758256,Søndre Gate 8
1149,Fredensborgveien,22,177,hammer,Oslo,59.918547,10.747854,Fredensborgveien 22
1150,Vogts gate,64,477,Torshov,Oslo,59.936102,10.765475,Vogts gate 64
1151,Kongens Gate,23,153,St. Hanshaugen,Oslo,59.911713,10.743125,Kongens Gate 23
1152,Ekebergveien,230,1166,Ekebergveien,Oslo,59.860378,10.801237,Ekebergveien 230
1153,Balchens gate,5,265,Skillebekk,Oslo,59.918421,10.70795,Balchens gate 5
1154,Lerkeveien,2G,1053,Ammerud,Oslo,59.947286,10.889356,Lerkeveien 2G
1155,Kirkegata,15,153,St. Hanshaugen,Oslo,59.910246,10.743444,Kirkegata 15
1156,,,0,Vaterland,Oslo,59.913104,10.761445,Kiwi Grønland 18
1157,Stenbråtveien,91,1283,Ostmarkkapellet,Oslo,59.854434,10.820128,Stenbråtveien 91
1158,Grønland,12,188,Vaterland,Oslo,59.913307,10.760468,Grønland 12
1159,Munkedamsveien,29,250,Aker Brygge,Oslo,59.91217,10.726725,Munkedamsveien 29
1160,Langbølgen,3,1150,Lambertseter,Oslo,59.873363,10.811722,Langbølgen 3
1161,,,0,Bøler,Oslo,59.891523,10.854906,Østmarkveien
1162,St. Olavs plass,2,165,hammer,Oslo,59.918231,10.740283999999999,St. Olavs plass 2
1163,Disengrenda,24H,587,Grefsen,Oslo,59.942813,10.799466,Disengrenda 24H
1164,Vulkan,5,178,Fredensborg,Oslo,59.922427,10.751924,Vulkan 5
1165,Myntgata,2,151,Vika,Oslo,59.90909,10.738471,Myntgata 2
1166,Nedre Slottsgate,8,157,St. Hanshaugen,Oslo,59.91216,10.742763,Nedre Slottsgate 8
1167,Normannsgata,5,655,Grønland,Oslo,59.908747,10.78001,Normannsgata 5
1168,Lørenveien,60,585,Økern,Oslo,59.929358,10.797274999999999,Lørenveien 60
1169,Odins gate,1B,266,Gimlé,Oslo,59.91897,10.704617,Odins gate 1B
1170,Nydalsveien,33,484,Nydalen,Oslo,59.949113,10.766375,Nydalsveien 33
1171,Hagegata,22,653,Grønland,Oslo,59.914421,10.775439,Hagegata 22
1172,Vogts Gate,38,474,Torshov,Oslo,59.933265,10.763167,Vogts Gate 38
1173,Rådhusgata,32,151,St. Hanshaugen,Oslo,59.910205,10.738916,Rådhusgata 32
1174,Tullins Gate,2,166,hammer,Oslo,59.918366,10.735036,Tullins Gate 2
1175,,,0,Briskeby,Oslo,59.927584,10.698691,Nr. 12: Gutteslagsmål
1176,Dronningens gate,25,154,St. Hanshaugen,Oslo,59.911391,10.747044,Dronningens gate 25
1177,Trygve Lies Plass,1,1051,Lindeberg,Oslo,59.942157,10.897744,Trygve Lies Plass 1
1178,Arendalsgata,14,463,Torshov,Oslo,59.937816,10.754056,Arendalsgata 14
1179,Frognerveien,1A,257,Ruselokka,Oslo,59.915147,10.717611,Frognerveien 1A
1180,Rådhusgata,32,151,St. Hanshaugen,Oslo,59.910205,10.738916,Rådhusgata 32
1181,Storgata,45,182,hammer,Oslo,59.915598,10.755663,Storgata 45
1182,Underhaugsveien,28,354,Homansbyen,Oslo,59.923859,10.726099,Underhaugsveien 28
1183,Vækerøveien,195C,751,Rud,Oslo,59.946182,10.642804,Vækerøveien 195C
1184,Thorvald Meyers gate,14,555,Torshov,Oslo,59.928838999999996,10.759431,Thorvald Meyers gate 14
1185,Kongens Gate,8,153,St. Hanshaugen,Oslo,59.910205,10.7421,Kongens Gate 8
1186,Kirkeveien,59,364,Majorstuen,Oslo,59.928942,10.716447,DNB Majorstua
1187,Haakon VII''s Gate,6,161,Vika,Oslo,59.913406,10.730713,Haakon VII''s Gate 6
1188,Youngstorget,1,181,hammer,Oslo,59.914781,10.75012,Youngstorget 1
1189,,,0,Gamle Oslo,Oslo,59.904728,10.787295,Kværnerbyen næringspark
1190,Olav Vs gate,1,161,Vika,Oslo,59.913929,10.732386,Olav Vs gate 1
1191,Bergensveien,8,963,Ammerud,Oslo,59.961096,10.882082,Bergensveien 8
1192,Mandalls gate,10,190,Vaterland,Oslo,59.911007,10.763015,Mandalls gate 10
1193,Fjordalléen,10,250,Aker Brygge,Oslo,59.909344,10.725136,Fjordalléen 10
1194,Konghellegata,5,569,Sindsen,Oslo,59.929735,10.779664,Konghellegata 5
1195,Grefsenveien,107,492,Kjelsås,Oslo,59.955958,10.786083,Grefsenveien 107
1196,Dronningens Gate,15,152,St. Hanshaugen,Oslo,59.910386,10.746016000000001,Dronningens Gate 15
1197,Frognerveien,1A,257,Ruselokka,Oslo,59.915147,10.717611,Frognerveien 1A
1198,Karenslyst Allé,9,278,Skøyen,Oslo,59.920521,10.683642,Karenslyst Allé 9
1199,Veitvetveien,8,596,Erich Mogensøns Vei,Oslo,59.943985,10.847813,Veitvetveien 8
1200,Thorvald Meyers gate,23A,555,Fredensborg,Oslo,59.927393,10.758764,Thorvald Meyers gate 23A
1201,Arbeidergata,2,159,hammer,Oslo,59.914499,10.74084,Arbeidergata 2
1202,Parkveien,29,350,Homansbyen,Oslo,59.920433,10.727411,Parkveien 29
1203,Dronningens Gate,19,154,St. Hanshaugen,Oslo,59.911048,10.746737,Dronningens Gate 19
1204,Trondheimsveien,5,560,Enerhaugen,Oslo,59.918179,10.760705,Trondheimsveien 5
1205,Lerkeveien,2G,1053,Ammerud,Oslo,59.947286,10.889356,Lerkeveien 2G
1206,Torggata,16A,181,hammer,Oslo,59.915834,10.75081,Oslo street food Torggata Bad
1207,Kirkeveien,57,368,Majorstuen,Oslo,59.927927,10.71413,Kirkeveien 57
1208,Valkyriegata,3,366,Majorstuen,Oslo,59.928325,10.718482999999999,Valkyriegata 3
1209,Lilleakerveien,16,283,Skøyen,Oslo,59.917405,10.636047,Lilleakerveien 16
1210,Møllergata,23,179,hammer,Oslo,59.915635,10.74856,Møllergata 23
1211,Vestlisvingen,188,969,Romsås,Oslo,59.972458,10.928115,Vestlisvingen 188
1212,Kjelsåsveien,143C,491,Nydalen,Oslo,59.966246,10.781107,Kjelsåsveien 143C
1213,Beverveien,25,596,Erich Mogensøns Vei,Oslo,59.942815,10.848722,Beverveien 25
1214,Torggata,11,181,hammer,Oslo,59.914047,10.748477,Torggata 11
1215,Parkveien,64,254,Ruselokka,Oslo,59.914373,10.721731,Parkveien 64
1216,Josefines Gate,36,351,Homansbyen,Oslo,59.921636,10.723583,Josefines Gate 36
1217,Holmens Gate,5,250,Aker Brygge,Oslo,59.910309,10.725597,Holmens Gate 5
1218,Dronning Eufemias Gate,14,191,Vaterland,Oslo,59.908205,10.757843,Dronning Eufemias Gate 14
1219,Elisenbergveien,19A,265,Gimlé,Oslo,59.918675,10.705854,Elisenbergveien 19A
1220,Hallagerbakken,108,1256,Holmlia,Oslo,59.84137,10.792825,Hallagerbakken 108
1221,,,0,Homansbyen,Oslo,59.920737,10.727058,Parkveien 27-31
1222,Frognerveien,67,266,Briskeby,Oslo,59.923972,10.702639,Frognerveien 67
1223,Colletts Gate,33,169,Bislett,Oslo,59.927067,10.73827,Colletts Gate 33
1224,Stranden,1,250,Aker Brygge,Oslo,59.910504,10.728505,Stranden 1
1225,Ullevålsveien,81,454,Bislett,Oslo,59.931678,10.735438,Ullevålsveien 81
1226,Maridalsveien,154,461,Torshov,Oslo,59.937679,10.756134,Maridalsveien 154
1227,Rådhusgata,32,151,St. Hanshaugen,Oslo,59.910205,10.738916,Rådhusgata 32
1228,,,0,St. Hanshaugen,Oslo,59.912069,10.75126,Byporten Shopping
1229,Mølleparken,6,459,Torshov,Oslo,59.930179,10.756664,Mølleparken 6
1230,Henrik Ibsens gate,100,255,Ruselokka,Oslo,59.914153,10.718812,Henrik Ibsens gate 100
1231,John Brandts Vei,3,860,Haugerud,Oslo,59.958669,10.730638,John Brandts Vei 3
1232,Vulkan,5,178,Fredensborg,Oslo,59.922427,10.751924,Vulkan 5
1233,Universitetsgata,11,164,hammer,Oslo,59.916706,10.738472999999999,Universitetsgata 11
1234,Mandalls gate,10,190,Vaterland,Oslo,59.911007,10.763015,Mandalls gate 10
1235,Markveien,67A,550,hammer,Oslo,59.918883,10.757044,Markveien 67A
1236,Sagveien,23,459,Torshov,Oslo,59.930993,10.756273,Sagveien 23
1237,Sakariasveien,276,758,,Oslo,60.031229,10.639865,Sakariasveien 276
1238,Frognerstranda,4,250,Skillebekk,Oslo,59.910364,10.705465,Frognerstranda 4
1239,Nordstrandveien,32,1163,Ekebergveien,Oslo,59.861105,10.795853,Nordstrandveien 32
1240,Løchenveien,30B,286,Bygdøy,Oslo,59.903299,10.695308,Løchenveien 30B
1241,Ruseløkkveien,3,251,Vika,Oslo,59.914241,10.728994,Ruseløkkveien 3
1242,Sørengkaia,163,194,St. Hanshaugen,Oslo,59.902285,10.752083,Sørengkaia 163
1243,Christian Krohgs gate,43C,186,Enerhaugen,Oslo,59.916436,10.759383,Christian Krohgs gate 43C
1244,Nydalsveien,33,484,Nydalen,Oslo,59.949113,10.766375,Nydalsveien 33
1245,Øvre Slottsgate,16,157,St. Hanshaugen,Oslo,59.913084,10.742608,Øvre Slottsgate 16
1246,Fridtjof Nansens Plass,2,160,Vika,Oslo,59.912946,10.733441,Fridtjof Nansens Plass 2
1247,Universitetsgata,11,164,hammer,Oslo,59.916706,10.738472999999999,Universitetsgata 11
1248,Vulkan,2,182,Fredensborg,Oslo,59.921365,10.752243,Vulkan 2
1249,Thorvald Meyers gate,61,552,Fredensborg,Oslo,59.922088,10.759126,Thorvald Meyers gate 61
1250,,,0,Manglerud,Oslo,59.88834,10.79765,Vestengveien
1251,Statsråd Mathiesens Vei,12,598,Linderud,Oslo,59.939395,10.830138,Statsråd Mathiesens Vei 12
1252,Silurveien,46,380,Smedstad,Oslo,59.932862,10.656952,Silurveien 46
1253,Torshovgata,7B,476,Torshov,Oslo,59.9336,10.763982,Torshovgata 7B
1254,Garver Ytteborgs Vei,98,977,Høybråten,Oslo,59.953134,10.908127,Garver Ytteborgs Vei 98
1255,Rådhusgata,32,151,St. Hanshaugen,Oslo,59.910205,10.738916,Rådhusgata 32
1256,Henrik Ibsens gate,60C,255,Ruselokka,Oslo,59.914992,10.720439,Henrik Ibsens gate 60C
1257,Oberst Rodes vei,79,1165,Ekebergveien,Oslo,59.864059,10.808901,Oberst Rodes vei 79
1258,Vålerenggata,13,657,Gamle Oslo,Oslo,59.907838,10.785645,Vålerenggata 13
1259,Vulkan,5,178,Fredensborg,Oslo,59.922427,10.751924,Vulkan 5
1260,Gunnar Schjelderups vei,4,485,Nydalen,Oslo,59.947502,10.773238,Gunnar Schjelderups vei 4
1261,Josefines gate,23,351,Homansbyen,Oslo,59.923094,10.725904,Josefines gate 23
1262,Galgeberg,3,657,Gamle Oslo,Oslo,59.908139,10.780965,Galgeberg 3
1263,Wergelandsveien,29,167,Homansbyen,Oslo,59.920275,10.728566,Wergelandsveien 29
1264,Kongens Gate,8,153,St. Hanshaugen,Oslo,59.910205,10.7421,Kongens Gate 8
1265,Vulkan,5,178,Fredensborg,Oslo,59.922427,10.751924,Vulkan 5
1266,Dronningens gate,27,154,St. Hanshaugen,Oslo,59.912364,10.747907,Dronningens gate 27
1267,Vulkan,5,178,Fredensborg,Oslo,59.922427,10.751924,Vulkan 5
1268,Dronning Eufemias gate,16,191,Vaterland,Oslo,59.908252,10.758949,Dronning Eufemias gate 16
1269,Opplandgata,19,657,Gamle Oslo,Oslo,59.906493,10.785501,Opplandgata 19
1270,,,0,Briskeby,Oslo,59.927638,10.699109,Nr. 35: Tre gamle kvinner
1271,Nordsetergrenda,13,1161,Ekebergveien,Oslo,59.870417,10.79886,Nordsetergrenda 13
1272,Trondheimsveien,2B,560,Enerhaugen,Oslo,59.918425,10.760401,Trondheimsveien 2B
1273,Operagata,77A,194,Vaterland,Oslo,59.906446,10.759225,Operagata 77A
1274,Kongens Gate,23,153,St. Hanshaugen,Oslo,59.911713,10.743125,Kongens Gate 23
1275,Østensjøveien,79,667,Bryn,Oslo,59.903192,10.822458,Østensjøveien 79
1276,Thorvald Meyers gate,33C,555,Fredensborg,Oslo,59.925827,10.758986,Thorvald Meyers gate 33C
1277,Frognerveien,58,266,Briskeby,Oslo,59.922323,10.704395,Frognerveien 58
1278,Toftes Gate,48,556,Fredensborg,Oslo,59.925891,10.761457,Toftes Gate 48
1279,,,0,Skillebekk,Oslo,59.912165,10.699758,Brygge 8
1280,Rosenkrantz' gate,7,159,hammer,Oslo,59.914691,10.73951,Rosenkrantz' gate 7
1281,Torggata,18,181,hammer,Oslo,59.916126,10.751136,Torggata 18
1282,Hammersborggata,9,181,hammer,Oslo,59.915036,10.752189,Hammersborggata 9
1283,Magnus' gate,2D,650,Grønland,Oslo,59.911239,10.773237,Magnus' gate 2D
1284,Helgesens Gate,14,553,Fredensborg,Oslo,59.924703,10.758331,Helgesens Gate 14
1285,President Harbitz' gate,4,259,Briskeby,Oslo,59.918836,10.715629,President Harbitz' gate 4
1286,Torggata,16B,181,hammer,Oslo,59.915926,10.751005,Torggata 16B
1287,Thorvald Meyers gate,76A,550,Enerhaugen,Oslo,59.919405,10.759701,Thorvald Meyers gate 76A
1288,Tollbugata,3,152,St. Hanshaugen,Oslo,59.909762,10.747278,Tollbugata 3
1289,Østensjøveien,64,667,Helsfyr,Oslo,59.907649,10.8183,Østensjøveien 64
1290,Vibes gate,11B,356,Bislett,Oslo,59.926517,10.72372,Vibes gate 11B
1291,Thorvald Meyers gate,76A,550,Enerhaugen,Oslo,59.919405,10.759701,Thorvald Meyers gate 76A
1292,Maridalsveien,15,178,Fredensborg,Oslo,59.922647,10.751197,Maridalsveien 15
1293,Stortingsgata,22,161,Vika,Oslo,59.913832,10.734752,Stortingsgata 22
1294,Operagata,61C,194,Vaterland,Oslo,59.906848,10.758055,Operagata 61C
1295,Torggata,27,183,hammer,Oslo,59.916916,10.75331,Torggata 27
1296,Torggata,16B,181,hammer,Oslo,59.915926,10.751005,Torggata 16B
1297,Lilleakerveien,8,283,Skøyen,Oslo,59.91613,10.636899,Lilleakerveien 8
1298,Sandakerveien,59,477,Torshov,Oslo,59.938435,10.768473,Sandakerveien 59
1299,Oberst Rodes Vei,104,1165,Hauketo,Oslo,59.85672,10.812012,Oberst Rodes Vei 104
1300,,,0,Bryn,Oslo,59.915328,10.827314,Ole Deviks vei 16
1301,Arbeidersamfunnets Plass,1,181,hammer,Oslo,59.915518,10.751805,Arbeidersamfunnets Plass 1
1302,Dronning Eufemias Gate,14,191,Vaterland,Oslo,59.908205,10.757843,Dronning Eufemias Gate 14
1303,Vulkan,11,178,Fredensborg,Oslo,59.922666,10.751895,Vulkan 11
1304,Tordenskiolds Gate,1,160,Vika,Oslo,59.913277,10.736424,Tordenskiolds Gate 1
1305,Vulkan,12,178,Fredensborg,Oslo,59.921653,10.751795,Vulkan 12
1306,Vitaminveien,7,485,Nydalen,Oslo,59.947301,10.773794,Vitaminveien 7
1307,Grev Wedels plass,2,151,St. Hanshaugen,Oslo,59.907189,10.741444,Grev Wedels plass 2
1308,Thorvald Meyers gate,49,555,Fredensborg,Oslo,59.92401,10.758884,Thorvald Meyers gate 49
1309,Feltspatveien,64,1155,Lamberseter,Oslo,59.867472,10.822406,Feltspatveien 64
1310,Torvbakkgata,12,550,hammer,Oslo,59.919699,10.757123,Torvbakkgata 12
1311,Stovner Senter,3,985,Høybråten,Oslo,59.961789,10.923727,Stovner Senter 3
1312,Ekebergveien,235,1162,Ekebergveien,Oslo,59.861082,10.799914,Ekebergveien 235
1313,Grønlandsleiret,10,190,Vaterland,Oslo,59.912518,10.765009,Grønlandsleiret 10
1314,Ekebergveien,228,1162,Ekebergveien,Oslo,59.861331,10.800955,Ekebergveien 228
1315,Trondheimsveien,6,560,Enerhaugen,Oslo,59.919182,10.763353,Trondheimsveien 6
1316,Nedre Prinsdals Vei,77,1263,Holmlia,Oslo,59.83362,10.807451,Nedre Prinsdals Vei 77
1317,Vækerøveien,207,751,Rud,Oslo,59.948303,10.643922,Vækerøveien 207
1318,Ole Vigs Gate,22,366,Majorstuen,Oslo,59.928427,10.719482,Ole Vigs Gate 22
1319,Fredensborgveien,9B,177,hammer,Oslo,59.91787,10.747492,Fredensborgveien 9B
1320,Veitvetveien,8,596,Erich Mogensøns Vei,Oslo,59.943985,10.847813,Veitvetveien 8
1321,Romsås Senter,1,970,Ammerud,Oslo,59.963161,10.892858,Romsås Senter 1
1322,Nydalsveien,33,484,Nydalen,Oslo,59.949113,10.766375,Nydalsveien 33
1323,Thorvald Meyers Gate,2,555,Torshov,Oslo,59.930115,10.759986,Thorvald Meyers Gate 2
1324,Søndre Gate,8,550,hammer,Oslo,59.918712,10.758256,Søndre Gate 8
1325,Dronning Eufemias gate,15,194,Vaterland,Oslo,59.907798,10.756419,Dronning Eufemias gate 15
1326,Grønland,14,188,Vaterland,Oslo,59.913129,10.760871,Grønland 14
1327,Tøyenbekken,14,134,Vaterland,Oslo,59.911282,10.760494,Tøyenbekken 14
1328,Grønlandsleiret,15,190,Vaterland,Oslo,59.912256,10.764388,Grønlandsleiret 15
1329,Erich Mogensøns Vei,38,594,Erich Mogensøns Vei,Oslo,59.943242,10.835478,Erich Mogensøns Vei 38
1330,Normannsgata,44,655,Grønland,Oslo,59.911606,10.781575,Normannsgata 44
1331,Brobekkveien,54,598,Linderud,Oslo,59.936258,10.827325,Brobekkveien 54
1332,Frognerstranda,4,250,Skillebekk,Oslo,59.910364,10.705465,Frognerstranda 4
1333,Storgata,25,184,hammer,Oslo,59.914012,10.751187999999999,Storgata 25
1334,Sannergata,13,557,Torshov,Oslo,59.928403,10.763232,Sannergata 13
1335,Nedre Slottsgate,1,157,St. Hanshaugen,Oslo,59.909845,10.740141,Nedre Slottsgate 1
1336,Sommerrogata,17,255,Ruselokka,Oslo,59.914986,10.718172,Sommerrogata 17
1337,Ruseløkkveien,26,251,Vika,Oslo,59.912665,10.726153,Ruseløkkveien 26
1338,Olaf Ryes Plass,4,552,Fredensborg,Oslo,59.922639,10.757073,Olaf Ryes Plass 4
1339,Markveien,35A,554,Fredensborg,Oslo,59.922222,10.757185,Markveien 35A
1340,Fredensborgveien,42,177,hammer,Oslo,59.92039,10.749109,Fredensborgveien 42
1341,Storgata,39,182,hammer,Oslo,59.915126,10.754685,Storgata 39
1342,Thorvald Meyers Gate,48,552,Fredensborg,Oslo,59.922952,10.759809,Thorvald Meyers Gate 48
1343,Sjølyst plass,2,278,Skøyen,Oslo,59.920453,10.68219,Sjølyst plass 2
1344,Haugerudsenteret,1,673,Lindeberg,Oslo,59.922674,10.8564,Haugerudsenteret 1
1345,Storgata,47,182,hammer,Oslo,59.915589,10.755933,Storgata 47
1346,Dronningens Gate,15,152,St. Hanshaugen,Oslo,59.910386,10.746016000000001,Dronningens Gate 15
1347,Skovveien,3,257,Ruselokka,Oslo,59.9159,10.716192,Skovveien 3
1348,Rådhusgata,21,158,Vika,Oslo,59.910626,10.738294,Rådhusgata 21
1349,Grønland,10,188,Vaterland,Oslo,59.913369,10.76013,Grønland 10
1350,Teglverksgata,2,553,Enerhaugen,Oslo,59.923855,10.764673,Teglverksgata 2
1351,Lørenveien,44,585,Økern,Oslo,59.930662,10.793579,Lørenveien 44
1352,Elisenbergveien,22,265,Gimlé,Oslo,59.919033999999996,10.706062,Elisenbergveien 22
1353,,,0,Nydalen,Oslo,59.947002,10.775302,Storo storsenter
1354,Trondheimsveien,16,560,Enerhaugen,Oslo,59.91976,10.765393,Trondheimsveien 16
1355,Munkebekken,180,1061,Ellingsrud,Oslo,59.929488,10.916239,Munkebekken 180
1356,Jacob Fayes vei,5,287,Bygdøy,Oslo,59.902878,10.674047,Jacob Fayes vei 5
1357,Markveien,57,550,hammer,Oslo,59.919955,10.757219,Markveien 57
1358,Storgata,23,184,hammer,Oslo,59.913892,10.75077,Storgata 23
1359,,,0,St. Hanshaugen,Oslo,59.910579,10.74979,Pier 42
1360,Henrik Ibsens gate,100,255,Ruselokka,Oslo,59.914153,10.718812,Henrik Ibsens gate 100
1361,Oscars Gate,19,352,Homansbyen,Oslo,59.922558,10.726777,Oscars Gate 19
1362,Schweigaards Gate,34,191,Vaterland,Oslo,59.910592,10.764933,Schweigaards Gate 34
1363,President Harbitz' gate,4,259,Briskeby,Oslo,59.918836,10.715629,President Harbitz' gate 4
1364,Grønlandsleiret,32,190,Grønland,Oslo,59.91162,10.766986,Grønlandsleiret 32
1365,Dronning Eufemias Gate,28,191,Vaterland,Oslo,59.907732,10.759354,Dronning Eufemias Gate 28
1366,Tryvannsveien,64,791,Lysebu,Oslo,59.985343,10.666594,Tryvannsveien 64
1367,Fjordalléen,4,250,Aker Brygge,Oslo,59.909137,10.725161,Fjordalléen 4
1368,Jernbanetorget,1,154,St. Hanshaugen,Oslo,59.910871,10.750735,Jernbanetorget 1
1369,Stenersgata,10,184,hammer,Oslo,59.91327,10.752612,Stenersgata 10
1370,Trondheimsveien,37,560,Enerhaugen,Oslo,59.921148,10.769711,Trondheimsveien 37
1371,Frognerveien,67,266,Briskeby,Oslo,59.923972,10.702639,Frognerveien 67
1372,Brynsalléen,4,667,Helsfyr,Oslo,59.910739,10.817051,Brynsalléen 4
1373,Selma Ellefsens vei,2,581,Økern,Oslo,59.925423,10.807471,Selma Ellefsens vei 2
1374,Vækerøveien,207,751,Rud,Oslo,59.948303,10.643922,Vækerøveien 207
1375,Tore Hals Mejdells Vei,5,751,Rud,Oslo,59.946176,10.643484,Tore Hals Mejdells Vei 5
1376,Sognsveien,77,855,Sogn,Oslo,59.949923,10.736031,Sognsveien 77
1377,,,0,Briskeby,Oslo,59.927606,10.699016,Nr. 1: Geniemylder
1378,Waldemar Thranes gate,72,175,Fredensborg,Oslo,59.928221,10.750506,Waldemar Thranes gate 72
1379,Grorudveien,5,962,Ammerud,Oslo,59.958631,10.882408,Grorudveien 5
1380,Stranden,3,250,Aker Brygge,Oslo,59.910171,10.727808,Stranden 3
1381,Kongens Gate,10,153,St. Hanshaugen,Oslo,59.910438,10.742321,Kongens Gate 10
1382,,,0,Manglerud,Oslo,59.892383,10.805036,Ryensvingen 5
1383,Bogstadveien,53A,366,Majorstuen,Oslo,59.929534,10.71416,Bogstadveien 53A
1384,Skøyenveien,43,375,Gimlé,Oslo,59.929176,10.687622,Skøyenveien 43
1385,Mariboes Gate,7,183,hammer,Oslo,59.916377,10.750818,Mariboes Gate 7
1386,Holbergs gate,19,166,hammer,Oslo,59.918914,10.733719,Holbergs gate 19
1387,Smalgangen,44,188,Vaterland,Oslo,59.912598,10.761078,Smalgangen 44
1388,Kristian Augusts gate,14,164,hammer,Oslo,59.916326,10.738592,Kristian Augusts gate 14
1389,Dronningens gate,27,154,St. Hanshaugen,Oslo,59.912364,10.747907,Dronningens gate 27
1390,Ole Brumms vei,1,979,Høybråten,Oslo,59.952259,10.910788,Ole Brumms vei 1
1391,Markveien,58,550,hammer,Oslo,59.918985,10.757479,Markveien 58
1392,Stockfleths Gate,51,461,Ila,Oslo,59.936501,10.752521999999999,Stockfleths Gate 51
1393,Fridtjof Nansens Plass,4,160,Vika,Oslo,59.913219,10.734086,Fridtjof Nansens Plass 4
1394,Maridalsveien,9C,178,Fredensborg,Oslo,59.921577,10.751032,Maridalsveien 9C
1395,Hasleveien,31,575,Sindsen,Oslo,59.927946,10.786386,Hasleveien 31
1396,Maridalsveien,153,461,Torshov,Oslo,59.937536,10.756509,Maridalsveien 153
1397,Kirkeveien,64B,366,Majorstuen,Oslo,59.92917,10.71481,Kirkeveien 64B
1398,Fredensborgveien,30,177,hammer,Oslo,59.919894,10.748361,Fredensborgveien 30
1399,Bøkkerveien,4,579,Økern,Oslo,59.92698,10.793998,Bøkkerveien 4
1400,Dronning Mauds Gate,10,250,Vika,Oslo,59.912902,10.727376,Dronning Mauds Gate 10
1401,Neuberggata,2,367,Briskeby,Oslo,59.924776,10.713111,Neuberggata 2
1402,Storgata,5,155,St. Hanshaugen,Oslo,59.913199,10.748485,Storgata 5
1403,Sandakerveien,28,473,Torshov,Oslo,59.934582,10.76187,Sandakerveien 28
1404,Eiriks Gate,2,650,Grønland,Oslo,59.91161,10.771159,Eiriks Gate 2
1405,Dronning Eufemias Gate,14,191,Vaterland,Oslo,59.908205,10.757843,Dronning Eufemias Gate 14
1406,Toftes Gate,19,556,Torshov,Oslo,59.929486,10.76055,Toftes Gate 19
1407,Ekebergveien,103,1178,Ekeberg,Oslo,59.891199,10.775637,Ekebergveien 103
1408,Brugata,3,186,hammer,Oslo,59.914342,10.754069,Brugata 3
1409,Hesselbergs gate,6A,555,Torshov,Oslo,59.927938,10.761656,Hesselbergs gate 6A
1410,Langgata,2B,566,Enerhaugen,Oslo,59.924067,10.768339,Langgata 2B
1411,Middelthuns Gate,28,368,Majorstuen,Oslo,59.928119,10.708111,Middelthuns Gate 28
1412,Dronning Eufemias gate,12,191,Vaterland,Oslo,59.908208,10.757428,Dronning Eufemias gate 12
1413,Karenslyst Allé,55,277,Skøyen,Oslo,59.921501,10.67841,Karenslyst Allé 55
1414,Trondheimsveien,14A,560,Enerhaugen,Oslo,59.919653,10.76467,Trondheimsveien 14A
1415,Helgesens Gate,50,553,Enerhaugen,Oslo,59.923568,10.76582,Helgesens Gate 50
1416,Youngs Gate,4,181,hammer,Oslo,59.914549,10.751016,Youngs Gate 4
1417,Vulkan,7,178,Fredensborg,Oslo,59.922571,10.751958,Vulkan 7
1418,Maridalsveien,17,178,Fredensborg,Oslo,59.922637,10.751986,Maridalsveien 17
1419,Ankerveien,127,766,Holmenkollen,Oslo,59.962297,10.6388,Ankerveien 127
1420,Torggata,16B,181,hammer,Oslo,59.915926,10.751005,Torggata 16B
1421,Parkveien,12,350,Homansbyen,Oslo,59.920818,10.728916,Parkveien 12
1422,Operagata,39,194,Vaterland,Oslo,59.906813,10.756127,Operagata 39
1423,Torggata,23,183,hammer,Oslo,59.91662,10.752774,Torggata 23
1424,Mariboes gate,20,183,hammer,Oslo,59.918151,10.752473,Hausmanns gate barnehage Espira
1425,Lille Stranden,10,252,Aker Brygge,Oslo,59.908422,10.723568,Lille Stranden 10
1426,Storgata,5,155,St. Hanshaugen,Oslo,59.913199,10.748485,Storgata 5
1427,Ullevålsveien,61,171,Bislett,Oslo,59.926514,10.738395,Ullevålsveien 61
1428,Brobekkveien,100,582,Økern,Oslo,59.928534,10.83127,Brobekkveien 100
1429,Sonja Henies Plass,3,185,Vaterland,Oslo,59.912658,10.756218,Sonja Henies Plass 3
1430,Hegdehaugsveien,1,352,Homansbyen,Oslo,59.920426,10.732837,Hegdehaugsveien 1
1431,Operagata,71B,194,Vaterland,Oslo,59.906266,10.757979,Operagata 71B
1432,Tordenskiolds Gate,6,160,Vika,Oslo,59.91278,10.736345,Tordenskiolds Gate 6
1433,Colbjørnsens gate,1,256,Ruselokka,Oslo,59.916851,10.722485,Colbjørnsens gate 1
1434,Hoffsveien,15,275,Smedstad,Oslo,59.9259,10.675415,Hoffsveien 15
1435,Trondheimsveien,12A,560,Enerhaugen,Oslo,59.919628,10.764339,Trondheimsveien 12A
1436,Dronning Eufemias gate,23,194,Vaterland,Oslo,59.907545,10.758183,Dronning Eufemias gate 23
1437,Schweigaards Gate,54,656,Grønland,Oslo,59.908629,10.769051,Schweigaards Gate 54
1438,,,0,,Oslo,60.041422,10.755485,Øyungsdammen Ø
1439,Kongeveien,5,787,Holmenkollen,Oslo,59.962632,10.666289,Kongeveien 5
1440,Høyenhallveien,64,678,Ryen,Oslo,59.900636,10.815478,Høyenhallveien 64
1441,Trondheimsveien,320,593,Erich Mogensøns Vei,Oslo,59.944078,10.833223,Trondheimsveien 320
1442,Hegdehaugsveien,31,352,Homansbyen,Oslo,59.92216,10.727241,Hegdehaugsveien 31
1443,Hammersborggata,9,181,hammer,Oslo,59.915036,10.752189,Hammersborggata 9
1444,Helgesens gate,44B,553,Enerhaugen,Oslo,59.923651,10.76505,Helgesens gate 44B
1445,Gydas Vei,4,363,Majorstuen,Oslo,59.932856,10.713572,Gydas Vei 4
1446,Thorvald Meyers Gate,32,555,Fredensborg,Oslo,59.924813,10.759517,Thorvald Meyers Gate 32
1447,Tøyengata,2,190,Vaterland,Oslo,59.91278,10.76392,Tøyengata 2
1448,Grefsenveien,57,487,Nydalen,Oslo,59.94536,10.780555,Grefsenveien 57
1449,Slemdalsveien,1,369,Majorstuen,Oslo,59.930309,10.715419,Slemdalsveien 1
1450,Henrik Ibsens gate,60C,255,Ruselokka,Oslo,59.914992,10.720439,Henrik Ibsens gate 60C
1451,Sognsveien,75,855,Sogn,Oslo,59.948522,10.734687,Sognsveien 75
1452,Fossumberget,49,983,Høybråten,Oslo,59.959257,10.933117,Fossumberget 49
1453,,,0,Skillebekk,Oslo,59.912647,10.711385,Skillebekkparken
1454,Stockfleths gate,60,461,Ila,Oslo,59.937482,10.751917,Stockfleths gate 60
1455,Calmeyers Gate,9,183,hammer,Oslo,59.916252,10.754487,Calmeyers Gate 9
1456,Calmeyers Gate,11,183,hammer,Oslo,59.916259,10.754683,Calmeyers Gate 11
1457,,,0,Ryen,Oslo,59.897698,10.814762,Manglerud senter
1458,Tollbugata,17,152,St. Hanshaugen,Oslo,59.910474,10.744385,Tollbugata 17
1459,Sommerrogata,1,255,Ruselokka,Oslo,59.915245,10.719612,Sommerrogata 1
1460,,,0,Skøyen,Oslo,59.91367,10.64475,Drammensveien 288
1461,St. Edmunds Vei,55,280,Smedstad,Oslo,59.925703,10.667545,St. Edmunds Vei 55
1462,Bygdøy Allé,59,265,Gimlé,Oslo,59.918587,10.705045,Bygdøy Allé 59
1463,Tjuvholmen Allé,5,252,Aker Brygge,Oslo,59.908463,10.7222,Tjuvholmen Allé 5
1464,Nydalsveien,33,484,Nydalen,Oslo,59.949113,10.766375,Nydalsveien 33
1465,Nydalen allé,55,485,Nydalen,Oslo,59.947863,10.771625,Nydalen allé 55
1466,Bernt Ankers gate,37,183,hammer,Oslo,59.917023,10.75027,Bernt Ankers gate 37
1467,Lofsrudveien,6,1281,Dal,Oslo,59.848419,10.829194,Lofsrudveien 6
1468,Landgangen,1,252,Aker Brygge,Oslo,59.907662,10.72105,Landgangen 1
1469,Tøyengata,1,190,Vaterland,Oslo,59.912629,10.764011,Tøyengata 1
1470,Frognerveien,33,263,Briskeby,Oslo,59.918948,10.710067,Frognerveien 33
1471,Sandakerveien,102D,484,Torshov,Oslo,59.944756,10.771561,Sandakerveien 102D
1472,Brugata,11,186,Vaterland,Oslo,59.913825,10.756473,Brugata 11
1473,Trondheimsveien,187,570,Hasle,Oslo,59.935021,10.780591,Trondheimsveien 187
1474,Rostockgata,64,194,Vaterland,Oslo,59.906162,10.760164,Rostockgata 64
1475,Storgata,5,155,St. Hanshaugen,Oslo,59.913199,10.748485,Storgata 5
1476,Dronningens gate,22,154,St. Hanshaugen,Oslo,59.910803,10.746863,Dronningens gate 22
1477,Grefsenveien,94B,492,Kjelsås,Oslo,59.956074,10.785267,Grefsenveien 94B
1478,Niels Juels Gate,25,257,Ruselokka,Oslo,59.916087,10.714144,Niels Juels Gate 25
1479,Youngstorget,6,181,hammer,Oslo,59.915121,10.748418,Youngstorget 6
1480,Sørkedalsveien,1,369,Majorstuen,Oslo,59.929923,10.713789,Sørkedalsveien 1
1481,Rådhusbrygge 2,1,160,Vika,Oslo,59.909989,10.732819,Rådhusbrygge 2 1
1482,Schweigaards Gate,54,656,Grønland,Oslo,59.908629,10.769051,Schweigaards Gate 54
1483,Skinnerbakken,7,198,Bekkelaget,Oslo,59.865115,10.750253,Skinnerbakken 7
1484,Storgata,22,184,hammer,Oslo,59.913837,10.751555,Storgata 22
1485,Tordenskiolds Gate,1,160,Vika,Oslo,59.913277,10.736424,Tordenskiolds Gate 1
1486,Økernveien,9,653,Grønland,Oslo,59.914864,10.77617,Økernveien 9
1487,Youngstorget,6,181,hammer,Oslo,59.915121,10.748418,Youngstorget 6
1488,Stenersgata,1,50,Vaterland,Oslo,59.913019,10.752913,Stenersgata 1
1489,St. Halvards gate,33,192,Gamle Oslo,Oslo,59.906048,10.77516,St. Halvards gate 33
1490,Munkedamsveien,29,250,Aker Brygge,Oslo,59.91217,10.726725,Munkedamsveien 29
1491,Stenersgata,1,50,Vaterland,Oslo,59.913019,10.752913,Stenersgata 1
1492,Karenslyst Allé,2,278,Gimlé,Oslo,59.918396,10.686283,Karenslyst Allé 2
1493,Henrik Ibsens gate,100,255,Ruselokka,Oslo,59.914153,10.718812,Henrik Ibsens gate 100
1494,,,0,Bryn,Oslo,59.915328,10.827314,Ole Deviks vei 16
1495,Sørkedalsveien,3B,369,Majorstuen,Oslo,59.930332,10.712859,Sørkedalsveien 3B
1496,Thorvald Meyers Gate,36,555,Fredensborg,Oslo,59.924149,10.759853,Thorvald Meyers Gate 36
1497,Møllergata,8,179,hammer,Oslo,59.914181,10.746586,Møllergata 8
1498,Bygdøy Allé,3,257,Ruselokka,Oslo,59.914995,10.716774000000001,Bygdøy Allé 3
1499,Bankplassen,1,151,St. Hanshaugen,Oslo,59.90892,10.742104,Bankplassen 1
1500,Henrik Ibsens gate,90,255,Ruselokka,Oslo,59.914573,10.719421,Henrik Ibsens gate 90
1501,Grev Wedels plass,2,151,St. Hanshaugen,Oslo,59.907189,10.741444,Grev Wedels plass 2
1502,Rådhusgata,32,151,St. Hanshaugen,Oslo,59.910205,10.738916,Rådhusgata 32
1503,Karoline Kristiansens Vei,3,661,Helsfyr,Oslo,59.913923,10.797616,Karoline Kristiansens Vei 3
1504,Schleppegrells gate,30A,556,Torshov,Oslo,59.927366,10.764113,Schleppegrells gate 30A
1505,Bjerregaards Gate,29,172,Fredensborg,Oslo,59.924794,10.746104,Bjerregaards Gate 29
1506,Grønlandsleiret,79,190,Grønland,Oslo,59.909131,10.768163,Grønlandsleiret 79
1507,Sandakerveien,106,484,Torshov,Oslo,59.945217,10.771976,Sandakerveien 106
1508,Bernt Ankers gate,27,183,hammer,Oslo,59.916472,10.751166,Bernt Ankers gate 27
1509,Harry Fetts vei,7B,667,Bryn,Oslo,59.902508,10.822657,Harry Fetts vei 7B
1510,Bjørnerudveien,17,1266,Hauketo,Oslo,59.843624,10.815268,Bjørnerudveien 17
1511,Stovner Senter,3,985,Høybråten,Oslo,59.961789,10.923727,Stovner Senter 3
1512,Brugata,17,186,Vaterland,Oslo,59.913937,10.757415,Brugata 17
1513,Kirkeveien,64B,366,Majorstuen,Oslo,59.92917,10.71481,Kirkeveien 64B
1514,Dronning Eufemias Gate,18,191,Vaterland,Oslo,59.907836,10.758947,Dronning Eufemias Gate 18
1515,Karl Johans gate,27,159,hammer,Oslo,59.913595,10.73997,Karl Johans gate 27
1516,Bygdøy Allé,66,265,Gimlé,Oslo,59.91891,10.701171,Bygdøy Allé 66
1517,,,0,Kongshavn,Oslo,59.886446,10.725319,Gressholmen
1518,Trondheimsveien,64,565,Enerhaugen,Oslo,59.923088,10.771577,Trondheimsveien 64
1519,Carl Berners plass,2,568,Sindsen,Oslo,59.926437,10.776118,Carl Berners plass 2
1520,Møllergata,38,179,hammer,Oslo,59.917673,10.750294,Møllergata 38
1521,Stovner Senter,3,985,Høybråten,Oslo,59.961789,10.923727,Stovner Senter 3
1522,Sandakerveien,72,484,Torshov,Oslo,59.942374,10.769046,Sandakerveien 72
1523,Youngstorget,2,181,hammer,Oslo,59.914553,10.749678,Youngstorget 2
1524,Lakkegata,55,187,Enerhaugen,Oslo,59.916934,10.762468,Lakkegata 55
1525,Brobekkveien,31B,598,Tonsenhagen,Oslo,59.939738,10.823703,Brobekkveien 31B
1526,Thorvald Meyers gate,76A,550,Enerhaugen,Oslo,59.919405,10.759701,Thorvald Meyers gate 76A
1527,Granebakken,54,1284,Ostmarkkapellet,Oslo,59.857467,10.829274999999999,Granebakken 54
1528,Tjuvholmen Allé,2,252,Aker Brygge,Oslo,59.908836,10.723155,Tjuvholmen Allé 2
1529,Kirkeveien,40,368,Briskeby,Oslo,59.927214,10.712061,Kirkeveien 40
1530,Vitaminveien,7,485,Nydalen,Oslo,59.947301,10.773794,Vitaminveien 7
1531,Fredensborgveien,44,177,hammer,Oslo,59.920487,10.749257,Fredensborgveien 44
1532,Sandakerveien,106,484,Torshov,Oslo,59.945217,10.771976,Sandakerveien 106
1533,Sporveisgata,35,354,Bislett,Oslo,59.925191,10.725345,Sporveisgata 35
1534,Gøteborggata,51,566,Torshov,Oslo,59.926925,10.770889,Gøteborggata 51
1535,Skippergata,32,154,St. Hanshaugen,Oslo,59.911163,10.748352,Skippergata 32
1536,Holbergs gate,19,166,hammer,Oslo,59.918914,10.733719,Holbergs gate 19
1537,Stranden,30,250,Aker Brygge,Oslo,59.908964,10.725717,Stranden 30
1538,Ullern Allé,4,381,Smedstad,Oslo,59.926044,10.64165,Ullern Allé 4
1539,Dronning Eufemias gate,43,194,Vaterland,Oslo,59.907172,10.759753,Dronning Eufemias gate 43
1540,Bergensveien,4A,963,Ammerud,Oslo,59.960169,10.880708,Bergensveien 4A
1541,Lysebuveien,12,790,Lysebu,Oslo,59.977237,10.655501,Lysebuveien 12
1542,Sandtakveien,5,491,Kjelsås,Oslo,59.955208,10.794138,Sandtakveien 5
1543,Brugata,9,186,Vaterland,Oslo,59.913911,10.756104,Brugata 9
1544,Stenersgata,2C,184,hammer,Oslo,59.91315,10.751443,Stenersgata 2C
1545,Konghellegata,8,570,Sindsen,Oslo,59.929641,10.778804,Konghellegata 8
1546,Lindemans Gate,4,267,Gimlé,Oslo,59.921879,10.703419,Lindemans Gate 4
1547,Tvetenveien,162,671,Tveita,Oslo,59.915181,10.846551,Tvetenveien 162
1548,Valkyriegata,21B,366,Majorstuen,Oslo,59.930147,10.715897,Valkyriegata 21B
1549,Storgata,17,184,hammer,Oslo,59.913662,10.750001,Storgata 17
1550,Josefines gate,23,351,Homansbyen,Oslo,59.923094,10.725904,Josefines gate 23
1551,Smalgangen,43,188,Vaterland,Oslo,59.912526,10.761607,Smalgangen 43
1552,Vulkan,5,178,Fredensborg,Oslo,59.922427,10.751924,Vulkan 5
1553,Utmarkveien,1,691,Bøler,Oslo,59.883242,10.845665,Utmarkveien 1
1554,Bryggetorget,14,250,Aker Brygge,Oslo,59.909345,10.724432,Bryggetorget 14
1555,Oberst Rodes Vei,104,1165,Hauketo,Oslo,59.85672,10.812012,Oberst Rodes Vei 104
1556,Tjuvholmen allé,6,252,Aker Brygge,Oslo,59.908503,10.722822,Tjuvholmen allé 6
1557,Thorvald Meyers Gate,72,552,Enerhaugen,Oslo,59.919841,10.759544,Thorvald Meyers Gate 72
1558,Platous Gate,16,190,Grønland,Oslo,59.911264,10.76542,Platous Gate 16
1559,Grubbegata,4,179,hammer,Oslo,59.913912,10.745227,Grubbegata 4
1560,Ole Deviks Vei,26,666,Bryn,Oslo,59.917132,10.827849,Ole Deviks Vei 26
1561,Fridtjof Nansens vei,28B,369,Majorstuen,Oslo,59.931655,10.704999,Fridtjof Nansens vei 28B
1562,Sørkedalsveien,5B,369,Majorstuen,Oslo,59.930691,10.712197,Sørkedalsveien 5B
1563,Filipstad brygge,2,252,Aker Brygge,Oslo,59.909915,10.722698,Filipstad brygge 2
1564,Brobekkveien,80,582,Økern,Oslo,59.93206,10.831542,Brobekkveien 80
1565,Møllergata,8,179,hammer,Oslo,59.914181,10.746586,Møllergata 8
1566,Youngs gate,19,181,hammer,Oslo,59.915119,10.750084,Youngs gate 19
1567,Torggata,16B,181,hammer,Oslo,59.915926,10.751005,Torggata 16B
1568,Fredensborgveien,13C,177,hammer,Oslo,59.918069,10.748039,Fredensborgveien 13C
1569,Kristian IVs gate,15,0,hammer,Oslo,59.915599,10.738139,Kristian IVs gate 15
1570,Bergensgata,2,468,Torshov,Oslo,59.939992,10.758913,Bergensgata 2
1571,Operagata,6,150,Vaterland,Oslo,59.908239,10.7536,Operagata 6
1572,,,0,Bryn,Oslo,59.913651,10.841087,Tveita senter
1573,Stockfleths gate,53A,461,Ila,Oslo,59.936844,10.752464,Stockfleths gate 53A
1574,Kjelsåsveien,18,488,Kjelsås,Oslo,59.944225,10.786392,Kjelsåsveien 18
1575,Korsgata,31,551,Enerhaugen,Oslo,59.919968,10.759008,Korsgata 31
1576,C. J. Hambros Plass,2,164,hammer,Oslo,59.915999,10.741089,C. J. Hambros Plass 2
1577,Dronning Eufemias Gate,32,191,Vaterland,Oslo,59.907486,10.760352,Dronning Eufemias Gate 32
1578,Sørengkaia,99,194,St. Hanshaugen,Oslo,59.902836,10.753338,Sørengkaia 99
1579,Torggata,26,183,hammer,Oslo,59.916672,10.752455,Torggata 26
1580,Deichmans Gate,6,178,hammer,Oslo,59.919191,10.749992,Deichmans Gate 6
1581,Holmens Gate,5,250,Aker Brygge,Oslo,59.910309,10.725597,Holmens Gate 5
1582,Arbeidersamfunnets Plass,1,181,hammer,Oslo,59.915518,10.751805,Arbeidersamfunnets Plass 1
1583,Brugata,10,186,hammer,Oslo,59.914009,10.754819,Brugata 10
1584,Munkedamsveien,59B,244,Aker Brygge,Oslo,59.911043,10.721575,Munkedamsveien 59B
1585,,,0,Holmlia,Oslo,59.838511,10.795671,Ravnåsveien 1-3
1586,Stenersgata,2C,184,hammer,Oslo,59.91315,10.751443,Stenersgata 2C
1587,Nils Bays vei,78,855,Sogn,Oslo,59.951139,10.734874,Nils Bays vei 78
1588,Trygve Lies Plass,1,1051,Lindeberg,Oslo,59.942157,10.897744,Trygve Lies Plass 1
1589,Trondheimsveien,8,560,Enerhaugen,Oslo,59.919274,10.763718,Trondheimsveien 8
1590,Frognerveien,58,266,Briskeby,Oslo,59.922323,10.704395,Frognerveien 58
1591,Sørkedalsveien,5B,369,Majorstuen,Oslo,59.930691,10.712197,Sørkedalsveien 5B
1592,Stranden,3,250,Aker Brygge,Oslo,59.910171,10.727808,Stranden 3
1593,Maridalsveien,256,872,Torshov,Oslo,59.946396,10.759893,Maridalsveien 256
1594,Olaf Ryes plass,11,552,Fredensborg,Oslo,59.923492,10.758325,Olaf Ryes plass 11
1595,Markveien,57,550,hammer,Oslo,59.919955,10.757219,Markveien 57
1596,Østre Aker Vei,33,581,Økern,Oslo,59.928932,10.818591,Østre Aker Vei 33
1597,Holmenkollveien,200,791,Lysebu,Oslo,59.977545,10.677378,Holmenkollveien 200
1598,Olaf Ryes Plass,12,552,Fredensborg,Oslo,59.923489000000004,10.75863,Olaf Ryes Plass 12
1599,Mandalls Gate,2,190,Vaterland,Oslo,59.912258,10.763915,Mandalls Gate 2
1600,Storgata,5,155,St. Hanshaugen,Oslo,59.913199,10.748485,Storgata 5
1601,Norbygata,56,190,Vaterland,Oslo,59.913141,10.765646,Norbygata 56
1602,Holmens Gate,5,250,Aker Brygge,Oslo,59.910309,10.725597,Holmens Gate 5
1603,Dronningens gate,27,154,St. Hanshaugen,Oslo,59.912364,10.747907,Dronningens gate 27
1604,Økernveien,190,580,Tonsenhagen,Oslo,59.936441,10.807879,Økernveien 190
1605,Calmeyers Gate,8,183,hammer,Oslo,59.916042,10.753529,Calmeyers Gate 8
1606,Kanalen,1,252,Aker Brygge,Oslo,59.908189,10.721233,Kanalen 1
1607,Prinsens Gate,5,152,St. Hanshaugen,Oslo,59.9108,10.746303,Prinsens Gate 5
1608,Trondheimsveien,60,565,Enerhaugen,Oslo,59.922795,10.771149,Trondheimsveien 60
1609,Prinsens gate,18,152,St. Hanshaugen,Oslo,59.911286,10.743444,Prinsens gate 18
1610,Darres Gate,2,175,Fredensborg,Oslo,59.927711,10.751784,Darres Gate 2
1611,Bogstadveien,1,355,Homansbyen,Oslo,59.924093,10.725577,Bogstadveien 1
1612,Briskebyveien,31,260,Briskeby,Oslo,59.922319,10.715401,Briskebyveien 31
1613,Drammensveien,130,277,Gimlé,Oslo,59.921455,10.688035,Drammensveien 130
1614,Jernbanetorget,2,154,St. Hanshaugen,Oslo,59.910765,10.749568,Jernbanetorget 2
1615,Dronning Eufemias Gate,32,191,Vaterland,Oslo,59.907486,10.760352,Dronning Eufemias Gate 32
1616,Stovner Senter,3,985,Høybråten,Oslo,59.961789,10.923727,Stovner Senter 3
1617,Vitaminveien,31,485,Nydalen,Oslo,59.947235,10.77158,Vitaminveien 31
1618,Operagata,11,194,Vaterland,Oslo,59.906867,10.755855,Operagata 11
1619,Stortingsgata,2,158,Vika,Oslo,59.912849,10.738643,Stortingsgata 2
1620,Gabels gate,37B,272,Skillebekk,Oslo,59.915359,10.710871,Gabels gate 37B
1621,Sørkedalsveien,106,378,Smedstad,Oslo,59.941488,10.671457,Sørkedalsveien 106
1622,Hoffsveien,15,275,Smedstad,Oslo,59.9259,10.675415,Hoffsveien 15
1623,Mariboes gate,20,183,hammer,Oslo,59.918151,10.752473,Hausmanns gate barnehage Espira
1624,Ivan Bjørndals Gate,25,472,Torshov,Oslo,59.938237,10.763714,Ivan Bjørndals Gate 25
1625,St. Olavs Gate,31,166,hammer,Oslo,59.917914,10.734969,St. Olavs Gate 31
1626,Etterstadsletta,68,659,Helsfyr,Oslo,59.907952,10.805497,Etterstadsletta 68
1627,Kirkeveien,51,368,Majorstuen,Oslo,59.927656999999996,10.713796,Kirkeveien 51
1628,Mariholtveien,200,1061,,Oslo,59.891648,10.907346,Mariholtveien 200
1629,Mandalls gate,10,190,Vaterland,Oslo,59.911007,10.763015,Mandalls gate 10
1630,Sørkedalsveien,1014,758,,Oslo,60.016797,10.612043,Sørkedalsveien 1014
1631,Niels Juels Gate,33,257,Ruselokka,Oslo,59.917426,10.715493,Niels Juels Gate 33
1632,Henrik Ibsens gate,60C,255,Ruselokka,Oslo,59.914992,10.720439,Henrik Ibsens gate 60C
1633,Toftes gate,20B,556,Torshov,Oslo,59.928362,10.761482,Toftes gate 20B
1634,Thorvald Meyers gate,47B,555,Fredensborg,Oslo,59.924132,10.758592,Thorvald Meyers gate 47B
1635,St. Halvards gate,33,192,Gamle Oslo,Oslo,59.906048,10.77516,St. Halvards gate 33
1636,Bogstadveien,64,366,Majorstuen,Oslo,59.928574,10.716006,Bogstadveien 64
1637,Motzfeldts Gate,3,187,Vaterland,Oslo,59.91352,10.762321,Motzfeldts Gate 3
1638,Bogstadveien,53A,366,Majorstuen,Oslo,59.929534,10.71416,Bogstadveien 53A
1639,Lilleakerveien,31,283,Skøyen,Oslo,59.920081,10.636469,Lilleakerveien 31
1640,Youngs Gate,4,181,hammer,Oslo,59.914549,10.751016,Youngs Gate 4
1641,Lille Stranden,4,252,Aker Brygge,Oslo,59.908246,10.723255,Lille Stranden 4
1642,Skovveien,4,257,Ruselokka,Oslo,59.915809,10.715559,Skovveien 4
1643,Sørkedalsveien,3B,369,Majorstuen,Oslo,59.930332,10.712859,Sørkedalsveien 3B
1644,Kristian IV''s Gate,4,164,hammer,Oslo,59.914895,10.739744,Kristian IV''s Gate 4
1645,Parkveien,12,350,Homansbyen,Oslo,59.920818,10.728916,Parkveien 12
1646,Munkedamsveien,62,270,Filipstad,Oslo,59.911394,10.71885,Munkedamsveien 62
1647,Dronning Eufemias Gate,28,191,Vaterland,Oslo,59.907732,10.759354,Dronning Eufemias Gate 28
1648,Bygdøy allé,8,262,Ruselokka,Oslo,59.915694,10.713251,Bygdøy allé 8
1649,Nedre Kalbakkvei,2,950,Ammerud,Oslo,59.951422,10.867129,Nedre Kalbakkvei 2
1650,Waldemar Thranes Gate,9,171,Fredensborg,Oslo,59.924358,10.742076,Waldemar Thranes Gate 9
1651,Karl Johans gate,18 C,0,St. Hanshaugen,Oslo,59.912638,10.741861,Karl Johans gate 18 C
1652,Grensen,17,159,St. Hanshaugen,Oslo,59.91416,10.742571,Grensen 17
1653,Parkveien,1A,350,Homansbyen,Oslo,59.922465,10.73182,Parkveien 1A
1654,Vulkan,5,178,Fredensborg,Oslo,59.922427,10.751924,Vulkan 5
1655,Torggata,13,181,hammer,Oslo,59.915206,10.750215,Torggata 13
1656,Strømsveien,1,657,Gamle Oslo,Oslo,59.907955,10.782987,Strømsveien 1
1657,Thorvald Meyers gate,49,555,Fredensborg,Oslo,59.92401,10.758884,Thorvald Meyers gate 49
1658,Stenersgata,2C,184,hammer,Oslo,59.91315,10.751443,Stenersgata 2C
1659,Nordre Gate,2,551,Fredensborg,Oslo,59.922148,10.754109,Nordre Gate 2
1660,Nils Hansens Vei,15,667,Helsfyr,Oslo,59.910794,10.8205,Nils Hansens Vei 15
1661,Normannsgata,18,655,Grønland,Oslo,59.909756,10.779989,Normannsgata 18
1662,Hoffsveien,92,377,Smedstad,Oslo,59.936898,10.683487,Hoffsveien 92
1663,Haugerudsenteret,1,673,Lindeberg,Oslo,59.922674,10.8564,Haugerudsenteret 1
1664,Tjuvholmen Allé,14,252,Aker Brygge,Oslo,59.907898,10.721969,Tjuvholmen Allé 14
1665,Akershusstranda,25,150,St. Hanshaugen,Oslo,59.901814,10.741166,Akershusstranda 25
1666,Rådhusgata,27,158,Vika,Oslo,59.911155,10.735915,Rådhusgata 27
1667,Sørengkaia,146,194,St. Hanshaugen,Oslo,59.901246,10.752265,Sørengkaia 146
1668,Hausmanns Gate,23,182,hammer,Oslo,59.91718,10.754816,Hausmanns Gate 23
1669,Maridalsveien,4B,178,hammer,Oslo,59.919662,10.751164,Maridalsveien 4B
1670,Refstadveien,44,589,Tonsenhagen,Oslo,59.942033,10.808013,Refstadveien 44
1671,Østerli Terrasse,17,1185,Bøler,Oslo,59.884217,10.811785,Østerli Terrasse 17
1672,Essendrops Gate,8,368,Majorstuen,Oslo,59.929277,10.710253999999999,Essendrops Gate 8
1673,Bentsegata,2,465,Torshov,Oslo,59.937981,10.756819,Bentsegata 2
1674,Rådhusgata,28,151,St. Hanshaugen,Oslo,59.909831,10.740738,Rådhusgata 28
1675,Dronning Eufemias Gate,14,191,Vaterland,Oslo,59.908205,10.757843,Dronning Eufemias Gate 14
1676,Waldemar Thranes Gate,32,171,Fredensborg,Oslo,59.925006,10.742655,Waldemar Thranes Gate 32
1677,Hagegata,22,653,Grønland,Oslo,59.914421,10.775439,Hagegata 22
1678,,,0,,Oslo,60.041422,10.755485,Øyungsdammen Ø
1679,Huk aveny,56,287,Bygdøy,Oslo,59.89911,10.678159,Huk aveny 56
1680,Romsås Senter,1,970,Ammerud,Oslo,59.963161,10.892858,Romsås Senter 1
1681,Sandakerveien,22,473,Torshov,Oslo,59.934002,10.760349,Sandakerveien 22
1682,Bergensgata,5,468,Torshov,Oslo,59.941001,10.759633000000001,Bergensgata 5
1683,Kirkeveien,11,260,Briskeby,Oslo,59.924188,10.708315,Kirkeveien 11
1684,Tollbugata,17,152,St. Hanshaugen,Oslo,59.910474,10.744385,Tollbugata 17
1685,Lilleakerveien,23,283,Skøyen,Oslo,59.918945,10.636636,Lilleakerveien 23
1686,,,0,,Oslo,60.041422,10.755485,Øyungsdammen Ø
1687,Bygdøy allé,65,265,Gimlé,Oslo,59.918931,10.70268,Bygdøy allé 65
1688,Sars' gate,1,562,Enerhaugen,Oslo,59.920134,10.770992,Sars' gate 1
1689,Museumsveien,10,287,Bygdøy,Oslo,59.907485,10.686716,Museumsveien 10
1690,Fridtjof Nansens Plass,5,160,Vika,Oslo,59.913222,10.734444,Fridtjof Nansens Plass 5
1691,Vogts gate,45B,477,Torshov,Oslo,59.934189,10.764368,Vogts gate 45B
1692,Ruseløkkveien,3,251,Vika,Oslo,59.914241,10.728994,Ruseløkkveien 3
1693,Hauketoveien,8,1266,Hauketo,Oslo,59.84701,10.804407,Hauketoveien 8
1694,Vulkan,5,178,Fredensborg,Oslo,59.922164,10.752075,Mathallen
1695,,,0,Manglerud,Oslo,59.892383,10.805036,Ryensvingen 5
1696,Vogts gate,68,477,Torshov,Oslo,59.9369,10.766484,Vogts gate 68
1697,Marstrandgata,3,566,Torshov,Oslo,59.926807,10.769796,Marstrandgata 3
1698,Torggata,34,183,hammer,Oslo,59.917275,10.753586,Torggata 34
1699,Rathkes gate,9A,558,Enerhaugen,Oslo,59.920591,10.763228999999999,Rathkes gate 9A
1700,,,0,Kjelsås,Oslo,59.979252,10.817667,Solemskogen
1701,Ruseløkkveien,3,251,Vika,Oslo,59.914241,10.728994,Ruseløkkveien 3
1702,Thorvald Meyers gate,49,555,Fredensborg,Oslo,59.92401,10.758884,Thorvald Meyers gate 49
1703,Grønlandsleiret,14,190,Vaterland,Oslo,59.912381,10.765206,Grønlandsleiret 14
1704,Thorvald Meyers Gate,18,555,Torshov,Oslo,59.928204,10.759281,Thorvald Meyers Gate 18
1705,Bygdøy Allé,53,265,Skillebekk,Oslo,59.918203,10.706241,Bygdøy Allé 53
1706,Munkedamsveien,29,250,Aker Brygge,Oslo,59.91217,10.726725,Munkedamsveien 29
1707,Arilds Vei,2,491,Kjelsås,Oslo,59.956561,10.789753,Arilds Vei 2
1708,Bogstadveien,66,366,Majorstuen,Oslo,59.928664,10.715726,Bogstadveien 66
1709,Damplassen,1,852,Blindernveien,Oslo,59.943977,10.73262,Damplassen 1
1710,Grønland,5,188,Vaterland,Oslo,59.913106,10.759545,Grønland 5
1711,Operagata,73D,194,Vaterland,Oslo,59.906404,10.758657,Operagata 73D
1712,Stortingsgata,8,161,Vika,Oslo,59.913151,10.73755,Stortingsgata 8
1713,Henrik Ibsens Gate,18,255,Ruselokka,Oslo,59.915116,10.727986,Henrik Ibsens Gate 18
1714,Helgesens gate,16C,553,Fredensborg,Oslo,59.924627,10.759033,Helgesens gate 16C
1715,Bygdøynesveien,39,286,Bygdøy,Oslo,59.903346,10.69944,Bygdøynesveien 39
1716,Hammersborggata,2,181,hammer,Oslo,59.914791,10.751845,Hammersborggata 2
1717,Gimleveien,22B,266,Gimlé,Oslo,59.920224,10.705522,Gimleveien 22B
1718,Henrik Ibsens gate,60C,255,Ruselokka,Oslo,59.914992,10.720439,Henrik Ibsens gate 60C
1719,Bogstadveien,27,355,Bislett,Oslo,59.926346,10.721578,Bogstadveien 27
1720,Ruseløkkveien,3,251,Vika,Oslo,59.914241,10.728994,Ruseløkkveien 3
1721,Karenslyst allé,7,278,Gimlé,Oslo,59.919932,10.685632,Karenslyst allé 7
1722,Rådhusgata,32,151,St. Hanshaugen,Oslo,59.910205,10.738916,Rådhusgata 32
1723,Markveien,50C,554,Fredensborg,Oslo,59.920755,10.758145,Markveien 50C
1724,Øvre Slottsgate,3,157,Vika,Oslo,59.911002,10.74017,Øvre Slottsgate 3
1725,Darres Gate,1,175,Fredensborg,Oslo,59.927441,10.751228,Darres Gate 1
1726,Smalgangen,14,188,Vaterland,Oslo,59.912391,10.760332,Smalgangen 14
1727,Refstadveien,27,589,Tonsenhagen,Oslo,59.941297,10.810886,Refstadveien 27
1728,Stortingsgata,12,161,Vika,Oslo,59.913258,10.736941999999999,Stortingsgata 12
1729,Herslebs Gate,4,561,Enerhaugen,Oslo,59.919623,10.762527,Herslebs Gate 4
1730,Mariboes Gate,7,183,hammer,Oslo,59.916377,10.750818,Mariboes Gate 7
1731,Sandstuveien,52,1184,Manglerud,Oslo,59.887049,10.803018999999999,Sandstuveien 52
1732,,,0,Bryn,Oslo,59.902732,10.820488,Bryn senter
1733,Skovveien,15,257,Ruselokka,Oslo,59.917808,10.718399,Skovveien 15
1734,Storgata,53,182,hammer,Oslo,59.916638,10.757231,Storgata 53
1735,Thorvald Meyers Gate,64,552,Enerhaugen,Oslo,59.921402,10.759434,Thorvald Meyers Gate 64
1736,Kleiva,5,1088,Høybråten,Oslo,59.943562,10.928537,Kleiva 5
1737,Strømsveien,24,658,Helsfyr,Oslo,59.908944,10.787272,Strømsveien 24
1738,Dronning Eufemias gate,16,191,Vaterland,Oslo,59.908252,10.758949,Dronning Eufemias gate 16
1739,Fjordalléen,20,250,Aker Brygge,Oslo,59.909509,10.725055,Fjordalléen 20
1740,Trondheimsveien,13,560,Enerhaugen,Oslo,59.919232,10.764368,Trondheimsveien 13
1741,Osterhaus'' Gate,21,183,hammer,Oslo,59.917515,10.751532,Osterhaus'' Gate 21
1742,,,0,Grønland,Oslo,59.911238,10.766678,Storgaten legeklinikk
1743,Kirkegata,34,153,St. Hanshaugen,Oslo,59.911764,10.745347,Kirkegata 34
1744,Rådhusgata,27,158,Vika,Oslo,59.911155,10.735915,Rådhusgata 27
1745,Odins gate,19A,266,Briskeby,Oslo,59.919504,10.708247,Odins gate 19A
1746,Hølandsgata,22,655,Grønland,Oslo,59.910386,10.78204,Hølandsgata 22
1747,Kirkegata,30,153,St. Hanshaugen,Oslo,59.911499,10.745104,Kirkegata 30
1748,Nedre Prinsdals Vei,76,1263,Holmlia,Oslo,59.83306,10.808504,Nedre Prinsdals Vei 76
1749,Heimdalsgata,37,578,Enerhaugen,Oslo,59.914111,10.767301,Heimdalsgata 37
1750,Ullevålsveien,95,359,Bislett,Oslo,59.932711,10.733718,Ullevålsveien 95
1751,,,0,Skillebekk,Oslo,59.912647,10.711385,Skillebekkparken
1752,Ruseløkkveien,26,251,Vika,Oslo,59.912665,10.726153,Ruseløkkveien 26
1753,Lørenveien,60,585,Økern,Oslo,59.929358,10.797274999999999,Lørenveien 60
1754,Schweigaards Gate,34,191,Vaterland,Oslo,59.910592,10.764933,Schweigaards Gate 34
1755,,,0,Lambertseter,Oslo,59.874324,10.810704,Lambertseter senter
1756,Midtoddveien,5C,494,Nydalen,Oslo,59.963833,10.785291,Midtoddveien 5C
1757,Korsvollbakken,17C,880,Nydalen,Oslo,59.957274,10.762819,Korsvollbakken 17C
1758,Kalbakkveien,34,953,Ammerud,Oslo,59.953547,10.873245,Kalbakkveien 34
1759,Vulkan,5,178,Fredensborg,Oslo,59.922427,10.751924,Vulkan 5
1760,Behrens'' Gate,2,257,Ruselokka,Oslo,59.916411,10.716914,Behrens'' Gate 2
1761,Thorvald Meyers Gate,30,555,Fredensborg,Oslo,59.925017,10.759724,Thorvald Meyers Gate 30
1762,Thorvald Meyers gate,27A,555,Fredensborg,Oslo,59.926834,10.758914,Thorvald Meyers gate 27A
1763,Osterhaus'' Gate,7,183,hammer,Oslo,59.915864,10.754429,Osterhaus'' Gate 7
1764,Grønland,22,188,Vaterland,Oslo,59.912973,10.761775,Grønland 22
1765,Hoffsveien,15,275,Smedstad,Oslo,59.9259,10.675415,Hoffsveien 15
1766,Bjørnveien,67,773,Slemdal,Oslo,59.954344,10.685387,Bjørnveien 67
1767,Ekebergveien,228,1162,Ekebergveien,Oslo,59.861331,10.800955,Ekebergveien 228
1768,Torggata,21,183,hammer,Oslo,59.916424,10.752566999999999,Torggata 21
1769,Rådhusgata,11,151,St. Hanshaugen,Oslo,59.909517,10.743218,Rådhusgata 11
1770,Grüners Gate,16,552,Fredensborg,Oslo,59.923544,10.760593,Grüners Gate 16
1771,Rådhusgata,28,151,St. Hanshaugen,Oslo,59.909831,10.740738,Rådhusgata 28
1772,Sognsveien,70B,855,Sogn,Oslo,59.948208,10.731483,Sognsveien 70B
1773,Parkveien,78,254,Filipstad,Oslo,59.912305,10.719155,Parkveien 78
1774,Edvard Munchs plass,1,194,St. Hanshaugen,Oslo,59.906166,10.755419,Edvard Munchs plass 1
1775,Jernbanetorget,1,154,St. Hanshaugen,Oslo,59.910871,10.750735,Jernbanetorget 1
1776,Operagata,69A,194,Vaterland,Oslo,59.90637,10.757647,Operagata 69A
1777,Thorvald Meyers gate,49,555,Fredensborg,Oslo,59.92401,10.758884,Thorvald Meyers gate 49
1778,Torggata,11,181,hammer,Oslo,59.914047,10.748477,Torggata 11
1779,Bryggetorget,10,250,Aker Brygge,Oslo,59.909377,10.724589,Bryggetorget 10
1780,Platous Gate,16,190,Grønland,Oslo,59.911264,10.76542,Platous Gate 16
1781,Welhavens gate,2C,166,hammer,Oslo,59.919639,10.733846,Welhavens gate 2C
1782,Ullevålsveien,41,171,Homansbyen,Oslo,59.923648,10.73978,Ullevålsveien 41
1783,Pløens gate,4,181,hammer,Oslo,59.914168,10.748852,Pløens gate 4
1784,Fridtjof Nansens plass,9,160,Vika,Oslo,59.912269,10.734928,Fridtjof Nansens plass 9
1785,Niels Juels Gate,29,257,Ruselokka,Oslo,59.916475,10.714738,Niels Juels Gate 29
1786,Tollbugata,7,152,St. Hanshaugen,Oslo,59.909927,10.746559,Tollbugata 7
1787,,,0,,Oslo,60.041422,10.755485,Øyungsdammen Ø
1788,Hausmanns Gate,6,186,Enerhaugen,Oslo,59.915704,10.758676,Hausmanns Gate 6
1789,Gabels Gate,16,272,Skillebekk,Oslo,59.913655,10.70905,Gabels Gate 16
1790,,,0,Bøler,Oslo,59.890257,10.85279,Østmarka skole
1791,President Harbitz' gate,4,259,Briskeby,Oslo,59.918836,10.715629,President Harbitz' gate 4
1792,Steinhammerveien,6A,1177,Bekkelaget,Oslo,59.878744,10.787175,Steinhammerveien 6A
1793,Sigurds Gate,16,650,Grønland,Oslo,59.912542,10.77387,Sigurds Gate 16
1794,Aslakveien,17,753,Rud,Oslo,59.941637,10.648723,Aslakveien 17
1795,Strømsveien,22,657,Helsfyr,Oslo,59.908881,10.786438,Strømsveien 22
1796,Holmlia Senter Vei,20,1255,Holmlia,Oslo,59.834159,10.794236,Holmlia Senter Vei 20
1797,Økernveien,9,653,Grønland,Oslo,59.914864,10.77617,Økernveien 9
1798,Møllergata,16,179,hammer,Oslo,59.914697,10.747611,Møllergata 16
1799,Torggata,16B,181,hammer,Oslo,59.915926,10.751005,Torggata 16B
1800,Ekebergveien,44,196,Gamle Oslo,Oslo,59.900943,10.778123,Ekebergveien 44
1801,Henrik Ibsens gate,90,255,Ruselokka,Oslo,59.914573,10.719421,Henrik Ibsens gate 90
1802,Karl Johans gate,13,154,St. Hanshaugen,Oslo,59.912419,10.744666,Karl Johans gate 13
1803,Lilleakerveien,16,283,Skøyen,Oslo,59.917405,10.636047,Lilleakerveien 16
1804,Thereses gate,51C,354,Homansbyen,Oslo,59.926065,10.730818,Thereses gate 51C
1805,Universitetsgata,12,164,hammer,Oslo,59.916505,10.738621,Universitetsgata 12
1806,Ulvenveien,82A,581,Økern,Oslo,59.925932,10.811649,Ulvenveien 82A
1807,Thorvald Meyers Gate,65,552,Enerhaugen,Oslo,59.921757,10.758439,Thorvald Meyers Gate 65
1808,Ekebergveien,65,1181,Gamle Oslo,Oslo,59.89828,10.773555,Ekebergveien 65
1809,Stenersgata,2C,184,hammer,Oslo,59.91315,10.751443,Stenersgata 2C
1810,Hausmanns Gate,29,182,hammer,Oslo,59.917676,10.754018,Hausmanns Gate 29
1811,General Ruges Vei,106,694,Skulerud,Oslo,59.863673,10.846411,General Ruges Vei 106
1812,Industrigata,36,357,Briskeby,Oslo,59.926046,10.719707,Industrigata 36
1813,Grefsenkollveien,100,490,Kjelsås,Oslo,59.958793,10.803897,Grefsenkollveien 100
1814,Sofienberggata,6,551,Fredensborg,Oslo,59.922421,10.757011,Sofienberggata 6
1815,Thorvald Meyers gate,49,555,Fredensborg,Oslo,59.92401,10.758884,Thorvald Meyers gate 49
1816,Møllergata,15,179,hammer,Oslo,59.914656,10.747099,Møllergata 15
1817,Stortingsgata,24,161,Vika,Oslo,59.91404,10.733891,Stortingsgata 24
1818,Parkveien,9A,350,Homansbyen,Oslo,59.921929,10.730513,Parkveien 9A
1819,Operagata,1,194,St. Hanshaugen,Oslo,59.906454,10.75564,Operagata 1
1820,Thorvald Meyers gate,78B,550,Enerhaugen,Oslo,59.918888,10.759708,Thorvald Meyers gate 78B
1821,Lørenveien,55A,585,Økern,Oslo,59.929268,10.796313,Lørenveien 55A
1822,Grønlandsleiret,46,190,Grønland,Oslo,59.908817,10.768454,Grønlandsleiret 46
1823,Tvetenveien,150,671,Bryn,Oslo,59.913836,10.841898,Tvetenveien 150
1824,Holbergs Plass,4,166,hammer,Oslo,59.919159,10.733967,Holbergs Plass 4
1825,Møllergata,10,179,hammer,Oslo,59.9144,10.747041,Møllergata 10
1826,Sørengkaia,69,194,St. Hanshaugen,Oslo,59.9033,10.754335,Sørengkaia 69
1827,Hieronymus Heyerdahls Gate,1,160,Vika,Oslo,59.911776,10.734504,Hieronymus Heyerdahls Gate 1
1828,Plogveien,6,679,Ryen,Oslo,59.897289,10.812857,Plogveien 6
1829,,,0,Vaterland,Oslo,59.913104,10.761445,Kiwi Grønland 18
1830,Lilleakerveien,16,283,Skøyen,Oslo,59.917405,10.636047,Lilleakerveien 16
1831,Dalsbergstien,19,167,Homansbyen,Oslo,59.923081,10.732925,Dalsbergstien 19
1832,Brynsalléen,2,667,Helsfyr,Oslo,59.911068,10.81581,Brynsalléen 2
1833,Eiriks gate,17B,650,Grønland,Oslo,59.912637,10.773472,Eiriks gate 17B
1834,Sørkedalsveien,75,376,Smedstad,Oslo,59.937753,10.68536,Sørkedalsveien 75
1835,Kristian IV''s Gate,4,164,hammer,Oslo,59.914895,10.739744,Kristian IV''s Gate 4
1836,Akershusstranda,15,150,Vika,Oslo,59.906871,10.73492,Akershusstranda 15
1837,Henrik Ibsens Gate,18,255,Ruselokka,Oslo,59.915116,10.727986,Henrik Ibsens Gate 18
1838,Schleppegrells gate,32B,556,Torshov,Oslo,59.92761,10.765343,Schleppegrells gate 32B
1839,Slemdalsveien,70B,370,Ris,Oslo,59.942304,10.703609,Slemdalsveien 70B
1840,Kongsveien,15,193,Gamle Oslo,Oslo,59.899484,10.761656,Kongsveien 15
1841,Stovner Senter,3,985,Høybråten,Oslo,59.961789,10.923727,Stovner Senter 3
1842,Fredensborgveien,9B,177,hammer,Oslo,59.91787,10.747492,Fredensborgveien 9B
1843,Voksenkollveien,60,790,Holmenkollen,Oslo,59.975071,10.655643,Voksenkollveien 60
1844,Operagata,3,194,St. Hanshaugen,Oslo,59.906525,10.755677,Operagata 3
1845,Storgata,21,184,hammer,Oslo,59.914316,10.750491,Storgata 21
1846,Cort Adelers gate,2,254,Ruselokka,Oslo,59.914655,10.720815,Cort Adelers gate 2
1847,Bøgata,21,655,Grønland,Oslo,59.913733,10.781006,Bøgata 21
1848,Nydalen Allé,19,484,Nydalen,Oslo,59.947607,10.767374,Nydalen Allé 19
1849,Søndre Rød,3B,752,Rud,Oslo,59.943047,10.64531,Søndre Rød 3B
1850,Munkedamsveien,62,270,Filipstad,Oslo,59.911394,10.71885,Munkedamsveien 62
1851,Maridalsveien,15,178,Fredensborg,Oslo,59.922647,10.751197,Maridalsveien 15
1852,Grenseveien,32,571,Sindsen,Oslo,59.924925,10.781195,Grenseveien 32
1853,Professor Birkelands Vei,27,1081,Lindeberg,Oslo,59.940839,10.882873,Professor Birkelands Vei 27
1854,Arups gate,13,192,Gamle Oslo,Oslo,59.906587,10.771809,Arups gate 13
1855,Lilleakerveien,2C,283,Skøyen,Oslo,59.914726,10.638940999999999,Lilleakerveien 2C
1856,Kirkeveien,59,364,Majorstuen,Oslo,59.928981,10.716221,Kirkeveien 59
1857,Pilestredet,41C,166,Homansbyen,Oslo,59.920475,10.733836,Pilestredet 41C
1858,Rostockgata,66,194,Vaterland,Oslo,59.906149,10.760686,Rostockgata 66
1859,Jacob Aalls Gate,28,366,Majorstuen,Oslo,59.928913,10.717843,Jacob Aalls Gate 28
1860,Akershusstranda,25,150,St. Hanshaugen,Oslo,59.901814,10.741166,Akershusstranda 25
1861,Sofienberggata,15,558,Enerhaugen,Oslo,59.922237,10.76135,Sofienberggata 15
1862,Østensjøveien,98B,682,Opsal,Oslo,59.900424,10.827771,Østensjøveien 98B
1863,,,0,,Oslo,60.041422,10.755485,Øyungsdammen Ø
1864,Strandpromenaden,2,252,Aker Brygge,Oslo,59.906925,10.721938,Strandpromenaden 2
1865,,,0,,Oslo,60.041422,10.755485,Øyungsdammen Ø
1866,Rosenkrantz' gate,7,159,hammer,Oslo,59.914691,10.73951,Rosenkrantz' gate 7
1867,Thereses gate,20A,168,Bislett,Oslo,59.92909,10.733033,Thereses gate 20A
1868,Fridtjof Nansens plass,9,160,Vika,Oslo,59.912269,10.734928,Fridtjof Nansens plass 9
1869,Ullveien,4B,791,Lysebu,Oslo,59.975541,10.66468,Ullveien 4B
1870,Henrik Ibsens gate,60C,255,Ruselokka,Oslo,59.914992,10.720439,Henrik Ibsens gate 60C
1871,Pilestredet,51,350,Homansbyen,Oslo,59.921603,10.731969,Pilestredet 51
1872,Underhaugsveien,28,354,Homansbyen,Oslo,59.923859,10.726099,Underhaugsveien 28
1873,Vulkan,2,182,Fredensborg,Oslo,59.921365,10.752243,Vulkan 2
1874,Københavngata,18,566,Torshov,Oslo,59.928184,10.768297,Københavngata 18
1875,Tonsenveien,14,587,Grefsen,Oslo,59.941645,10.792207,Tonsenveien 14
1876,Vogts gate,60,477,Torshov,Oslo,59.935918,10.765486,Vogts gate 60
1877,Tordenskiolds Gate,1,160,Vika,Oslo,59.913277,10.736424,Tordenskiolds Gate 1
1878,Storgata,39,182,hammer,Oslo,59.915126,10.754685,Storgata 39
1879,Rådhusgata,19,158,St. Hanshaugen,Oslo,59.910269,10.740319,Rådhusgata 19
1880,Arbins gate,13B,253,Ruselokka,Oslo,59.913935,10.725732,Arbins gate 13B
1881,Storgata,41,182,hammer,Oslo,59.915214,10.754923999999999,Storgata 41
1882,Thorvald Meyers gate,87B,550,Enerhaugen,Oslo,59.918919,10.759225,Thorvald Meyers gate 87B
1883,Olaf Ryes Plass,9,552,Fredensborg,Oslo,59.923489000000004,10.757788,Olaf Ryes Plass 9
1884,Hegdehaugsveien,36,352,Homansbyen,Oslo,59.9235,10.725313,Hegdehaugsveien 36
1885,Torggata,18,181,hammer,Oslo,59.916126,10.751136,Torggata 18
1886,Vestgrensa,2,851,Blindernveien,Oslo,59.94079,10.729133,Vestgrensa 2
1887,Fagerborggata,1,354,Bislett,Oslo,59.927877,10.728541,Fagerborggata 1
1888,St. Olavs Gate,21,165,hammer,Oslo,59.918045,10.738462,St. Olavs Gate 21
1889,Pilestredet,71,354,Homansbyen,Oslo,59.925394,10.730575,Pilestredet 71
1890,Bjerregaards gate,2B,172,Homansbyen,Oslo,59.923375,10.740825,Bjerregaards gate 2B
1891,Munkedamsveien,53B,250,Aker Brygge,Oslo,59.91095,10.722625,Munkedamsveien 53B
1892,Briskebyveien,28,259,Briskeby,Oslo,59.919952,10.717979,Briskebyveien 28
1893,Stenersgata,2C,184,hammer,Oslo,59.91315,10.751443,Stenersgata 2C
1894,Grønlandsleiret,61,190,Grønland,Oslo,59.909614,10.768084,Grønlandsleiret 61
1895,Operagata,36,194,Vaterland,Oslo,59.906678,10.759956,Operagata 36
1896,Solligata,2,254,Ruselokka,Oslo,59.914372,10.720479,Solligata 2
1897,Trondheimsveien,154,570,Sindsen,Oslo,59.928975,10.77767,Trondheimsveien 154
1898,Helgesens gate,72,558,Enerhaugen,Oslo,59.922291,10.770528,Helgesens gate 72
1899,"Anne-Cath, Vestlys Plass",1,150,St. Hanshaugen,Oslo,59.908676,10.752618,"Anne-Cath, Vestlys Plass 1"
1900,Ludvig Karstens Vei,4,1064,Ellingsrud,Oslo,59.93447,10.925264,Ludvig Karstens Vei 4
1901,Kirkegata,20,153,St. Hanshaugen,Oslo,59.910779,10.744436,Kirkegata 20
1902,Holmenveien,1,374,Ris,Oslo,59.943064,10.703434,Holmenveien 1
1903,Hegdehaugsveien,36,352,Homansbyen,Oslo,59.9235,10.725313,Hegdehaugsveien 36
1904,Hausmanns gate,31C,182,hammer,Oslo,59.917837,10.753786999999999,Hausmanns gate 31C
1905,Karl Johans gate,27,159,hammer,Oslo,59.913595,10.73997,Karl Johans gate 27
1906,Granbergstubben,16,1275,Rønning,Oslo,59.826419,10.836913,Granbergstubben 16
1907,Carl Berners plass,2,568,Sindsen,Oslo,59.926437,10.776118,Carl Berners plass 2
1908,Kaj Munks Vei,41,876,Korsvold,Oslo,59.952437,10.751197,Kaj Munks Vei 41
1909,Hegdehaugsveien,32,352,Homansbyen,Oslo,59.92181,10.72649,Hegdehaugsveien 32
1910,Fridtjof Nansens Vei,2,369,Majorstuen,Oslo,59.929548,10.712208,Fridtjof Nansens Vei 2
1911,Fossumberget,49,983,Høybråten,Oslo,59.959257,10.933117,Fossumberget 49
1912,Grev Wedels plass,2,151,St. Hanshaugen,Oslo,59.907189,10.741444,Grev Wedels plass 2
1913,Kristiansands gate,2,463,Ila,Oslo,59.938268,10.752807,Kristiansands gate 2
1914,Refstadveien,60,589,Tonsenhagen,Oslo,59.942519,10.811350000000001,Refstadveien 60
1915,Trondheimsveien,14A,560,Enerhaugen,Oslo,59.919653,10.76467,Trondheimsveien 14A
1916,Seilduksgata,17,553,Fredensborg,Oslo,59.925441,10.759491,Seilduksgata 17
1917,Veitvetveien,8,596,Erich Mogensøns Vei,Oslo,59.943985,10.847813,Veitvetveien 8
1918,Jernbanetorget,6,154,St. Hanshaugen,Oslo,59.911864,10.751097,Jernbanetorget 6
1919,Sigurd Hoels Vei,45,655,Tøyen,Oslo,59.917869,10.787464,Sigurd Hoels Vei 45
1920,Østre Elvebakke,7,182,hammer,Oslo,59.919171,10.754650999999999,Østre Elvebakke 7
1921,Ullevålsveien,1,165,hammer,Oslo,59.918116,10.74375,Ullevålsveien 1
1922,Ekebergveien,228,1162,Ekebergveien,Oslo,59.861331,10.800955,Ekebergveien 228
1923,Holmenkollveien,119,787,Holmenkollen,Oslo,59.961112,10.667218,Holmenkollveien 119
1924,Thorvald Meyers Gate,36,555,Fredensborg,Oslo,59.924149,10.759853,Thorvald Meyers Gate 36
1925,Raschs Vei,38,1153,Lambertseter,Oslo,59.879663,10.804024,Raschs Vei 38
1926,Stortingsgata,16,161,Vika,Oslo,59.913555,10.735851,Stortingsgata 16
1927,Helga Vaneks Vei,1,1281,Dal,Oslo,59.849631,10.830275,Helga Vaneks Vei 1
1928,Frognerveien,12,263,Briskeby,Oslo,59.916532,10.713442,Frognerveien 12
1929,Parkveien,6,350,Homansbyen,Oslo,59.921397,10.730061,Parkveien 6
1930,Trondheimsveien,10C,560,Enerhaugen,Oslo,59.919524,10.764233,Trondheimsveien 10C
1931,Thorvald Meyers gate,35,555,Torshov,Oslo,59.928237,10.759343,Thorvald Meyers gate 35
1932,Brugata,8,186,hammer,Oslo,59.914075,10.754443,Brugata 8
1933,Pilestredet,27,164,hammer,Oslo,59.917595,10.738354,Pilestredet 27
1934,Københavngata,2,553,Fredensborg,Oslo,59.92474,10.76284,Københavngata 2
1935,Holmenveien,11,374,Ris,Oslo,59.943411,10.699794,Holmenveien 11
1936,,,0,Fredensborg,Oslo,59.927981,10.748854,Tannlegene i Waldemar Thranesgate 68
1937,Rådhusgata,32,151,St. Hanshaugen,Oslo,59.910205,10.738916,Rådhusgata 32
1938,Ullevålsveien,9,165,hammer,Oslo,59.919508,10.743092,Ullevålsveien 9
1939,Fredriksborgveien,16,286,Bygdøy,Oslo,59.90343,10.688032,Fredriksborgveien 16
1940,Bogstadveien,8,355,Homansbyen,Oslo,59.924627,10.724021,Bogstadveien 8
1941,,,0,Briskeby,Oslo,59.927749,10.699068,Nr. 29: To kjempende menn
1942,Prinsens Gate,26,157,Vika,Oslo,59.912245,10.739565,Prinsens Gate 26
1943,Motzfeldts Gate,3,187,Vaterland,Oslo,59.91352,10.762321,Motzfeldts Gate 3
1944,Tråkka,47F,774,Slemdal,Oslo,59.953681,10.684004999999999,Tråkka 47F
1945,Trondheimsveien,391,953,Ammerud,Oslo,59.952359,10.867367999999999,Trondheimsveien 391
1946,,,0,Filipstad,Oslo,59.90934,10.70899,Hjortneskaia
1947,Kirkeveien,48,368,Majorstuen,Oslo,59.927545,10.712825,Kirkeveien 48
1948,Bøkkerveien,4,579,Økern,Oslo,59.92698,10.793998,Bøkkerveien 4
1949,Kirkegata,15,153,St. Hanshaugen,Oslo,59.910246,10.743444,Kirkegata 15
1950,Briskebyveien,70,259,Briskeby,Oslo,59.92146,10.716194,Briskebyveien 70
1951,Dælenenggata,23,567,Torshov,Oslo,59.927337,10.771448,Dælenenggata 23
1952,,,0,Enerhaugen,Oslo,59.914814,10.766308,Nr. 13
1953,Øivinds vei,2,590,Tonsenhagen,Oslo,59.944413,10.811326,Øivinds vei 2
1954,Lerkeveien,2G,1053,Ammerud,Oslo,59.947286,10.889356,Lerkeveien 2G
1955,Karl Johans gate,31,159,hammer,Oslo,59.913745,10.739477,Karl Johans gate 31
1956,Karl Johans gate,37-43,0,Vika,Oslo,59.914445,10.737837,Paleet
1957,Henrik Ibsens gate,60C,255,Ruselokka,Oslo,59.914992,10.720439,Henrik Ibsens gate 60C
1958,Bentsegata,1B,465,Torshov,Oslo,59.937869,10.757136,Bentsegata 1B
1959,Storgata,13,155,hammer,Oslo,59.913808,10.748869,Storgata 13
1960,Underhaugsveien,11,354,Homansbyen,Oslo,59.924563,10.727863,Underhaugsveien 11
1961,,,0,,Oslo,60.041422,10.755485,Øyungsdammen Ø
1962,Romsdalsgata,1C,556,Torshov,Oslo,59.927417,10.7644,Romsdalsgata 1C
1963,Olav Nygards Veg,62,688,Bøler,Oslo,59.886525,10.854253,Olav Nygards Veg 62
1964,Rådhusgata,28,151,St. Hanshaugen,Oslo,59.909831,10.740738,Rådhusgata 28
1965,Karl Johans Gate,43,162,Vika,Oslo,59.91448,10.736932,Karl Johans Gate 43
1966,Mauritz Hansens Gate,4,350,Homansbyen,Oslo,59.921362,10.731212,Mauritz Hansens Gate 4
1967,Kristian IV''s Gate,4,164,hammer,Oslo,59.914895,10.739744,Kristian IV''s Gate 4
1968,Sognsveien,75,855,Sogn,Oslo,59.948522,10.734687,Sognsveien 75
1969,Arendalsgata,3A,463,Torshov,Oslo,59.937415,10.75563,Arendalsgata 3A
1970,Keysers Gate,8,165,hammer,Oslo,59.91667,10.742363,Keysers Gate 8
1971,Olleveien,14D,1182,Ekeberg,Oslo,59.894643,10.79092,Olleveien 14D
1972,Storgata,5,155,St. Hanshaugen,Oslo,59.913199,10.748485,Storgata 5
1973,Essendrops Gate,8,368,Majorstuen,Oslo,59.929277,10.710253999999999,Essendrops Gate 8
1974,Ingelbrecht Knudssøns Gate,11,365,Bislett,Oslo,59.927869,10.721686,Ingelbrecht Knudssøns Gate 11
1975,Stortingsgata,26,161,Vika,Oslo,59.914202,10.733401,Stortingsgata 26
1976,Leirfallsgata,6,550,hammer,Oslo,59.919335,10.757515,Leirfallsgata 6
1977,Ruseløkkveien,6,251,Vika,Oslo,59.91469,10.731137,Ruseløkkveien 6
1978,Torshovgata,33,476,Torshov,Oslo,59.932835,10.768162,Torshovgata 33
1979,Youngstorget,2,181,hammer,Oslo,59.914553,10.749678,Youngstorget 2
1980,Fredensborgveien,22,177,hammer,Oslo,59.918547,10.747854,Fredensborgveien 22
1981,Pløens gate,4,181,hammer,Oslo,59.914168,10.748852,Pløens gate 4
1982,,,0,Briskeby,Oslo,59.927584,10.698691,Nr. 12: Gutteslagsmål
1983,,,0,Ryen,Oslo,59.893547,10.805305,Ryensvingen 3
1984,Lørenfaret,3,585,Økern,Oslo,59.930579,10.799143,Lørenfaret 3
1985,Grønland,24,188,Vaterland,Oslo,59.912936,10.761899,Grønland 24
1986,Osterhaus'' Gate,14,183,hammer,Oslo,59.917183,10.753222,Osterhaus'' Gate 14
1987,Grensesvingen,7,661,Helsfyr,Oslo,59.914091,10.798652,Grensesvingen 7
1988,Sørkedalsveien,10,369,Majorstuen,Oslo,59.930724,10.709959,Sørkedalsveien 10
1989,Biskop Gunnerus' gate,3,155,St. Hanshaugen,Oslo,59.912457,10.749962,Biskop Gunnerus' gate 3
1990,Bygdøy Allé,15,257,Ruselokka,Oslo,59.915814,10.714054,Bygdøy Allé 15
1991,Brobekkveien,80,582,Økern,Oslo,59.93206,10.831542,Brobekkveien 80
1992,Jernbanetorget,1,154,St. Hanshaugen,Oslo,59.910871,10.750735,Jernbanetorget 1
1993,Seilduksgata,5,553,Fredensborg,Oslo,59.925336,10.756513,Seilduksgata 5
1994,Hammersborg Torg,3,179,hammer,Oslo,59.916881,10.749177,Hammersborg Torg 3
1995,Osterhaus'' Gate,13,183,hammer,Oslo,59.917038,10.752631,Osterhaus'' Gate 13
1996,Gabels Gate,11,272,Skillebekk,Oslo,59.91269,10.70896,Gabels Gate 11
1997,Markveien,35A,554,Fredensborg,Oslo,59.922222,10.757185,Markveien 35A
1998,Oscars Gate,19,352,Homansbyen,Oslo,59.922558,10.726777,Oscars Gate 19
1999,Storgata,21,184,hammer,Oslo,59.914316,10.750491,Storgata 21
2000,Kristian IVs gate,2,159,hammer,Oslo,59.914735,10.740364,Kristian IVs gate 2
2001,Schweigaards Gate,56,656,Grønland,Oslo,59.908552,10.769722999999999,Schweigaards Gate 56
2002,Olaf Ryes plass,8,552,Fredensborg,Oslo,59.923501,10.757619,Olaf Ryes plass 8
2003,Ullevålsveien,45,171,Homansbyen,Oslo,59.924181,10.739662,Ullevålsveien 45
2004,Dronningens gate,8A,152,St. Hanshaugen,Oslo,59.90845,10.744618,Dronningens gate 8A
2005,Helgesens Gate,50,553,Enerhaugen,Oslo,59.923568,10.76582,Helgesens Gate 50
2006,Europarådets plass,1,154,St. Hanshaugen,Oslo,59.911954,10.749291,Europarådets plass 1
2007,Drammensveien,130,277,Gimlé,Oslo,59.921455,10.688035,Drammensveien 130
2008,Trondheimsveien,162,570,Sindsen,Oslo,59.930412,10.777917,Trondheimsveien 162
2009,Jens Bjelkes gate,9B,562,Enerhaugen,Oslo,59.918982,10.763793,Jens Bjelkes gate 9B
2010,Bøkkerveien,11,579,Økern,Oslo,59.92739,10.79616,Bøkkerveien 11
2011,Thorvald Meyers Gate,43,555,Fredensborg,Oslo,59.924406,10.758889,Thorvald Meyers Gate 43
2012,Olav Kyrres gate,6F,273,Gimlé,Oslo,59.918252,10.69093,Olav Kyrres gate 6F
2013,Lilleakerveien,30,283,Skøyen,Oslo,59.920152,10.635375,Lilleakerveien 30
2014,Pilestredet,63D,350,Homansbyen,Oslo,59.924194,10.73106,Pilestredet 63D
2015,Møllergata,8,179,hammer,Oslo,59.914181,10.746586,Møllergata 8
2016,Trondheimsveien,111C,565,Sindsen,Oslo,59.925692,10.77612,Trondheimsveien 111C
2017,Hammersborg Torg,3,179,hammer,Oslo,59.916881,10.749177,Hammersborg Torg 3
2018,Lørenveien,44,585,Økern,Oslo,59.930662,10.793579,Lørenveien 44
2019,Refstadveien,68,589,Tonsenhagen,Oslo,59.942403,10.811703,Refstadveien 68
2020,Universitetsgata,11,164,hammer,Oslo,59.916706,10.738472999999999,Universitetsgata 11
2021,Trygve Strømbergs Vei,2,1263,Holmlia,Oslo,59.826874,10.80964,Trygve Strømbergs Vei 2
2022,Monrads gate,1C,577,Enerhaugen,Oslo,59.915592,10.773451,Monrads gate 1C
2023,Akershusstranda,11,150,Vika,Oslo,59.907893,10.733983,Akershusstranda 11
2024,Sørengkaia,163,194,St. Hanshaugen,Oslo,59.902285,10.752083,Sørengkaia 163
2025,Hoffsveien,15,275,Smedstad,Oslo,59.9259,10.675415,Hoffsveien 15
2026,Holmlia Senter Vei,10,1255,Holmlia,Oslo,59.834355,10.795301,Holmlia Senter Vei 10
2027,Grundingen,6,250,Aker Brygge,Oslo,59.910634,10.72731,Grundingen 6
2028,Bøkkerveien,4,579,Økern,Oslo,59.92698,10.793998,Bøkkerveien 4
2029,Trollvannsveien,3,490,Kjelsås,Oslo,59.961718,10.80608,Trollvannsveien 3
2030,Bentsebrugata,31,469,Torshov,Oslo,59.939314,10.759454999999999,Bentsebrugata 31
2031,Cort Adelers gate,16,254,Ruselokka,Oslo,59.913791,10.722309,Cort Adelers gate 16
2032,Thereses Gate,45,354,Bislett,Oslo,59.92654,10.731155,Thereses Gate 45
2033,Bernt Ankers gate,21,183,hammer,Oslo,59.916346,10.751384,Bernt Ankers gate 21
2034,,,0,Bygdøy,Oslo,59.901862,10.694654,Herbernveien
2035,Tollbugata,11,152,St. Hanshaugen,Oslo,59.910035,10.746311,Tollbugata 11
2036,Torggata,35,183,hammer,Oslo,59.917298,10.754027,Torggata 35
2037,,,0,Nydalen,Oslo,59.950103,10.765637,Gullhaug torg 2A
2038,Waldemar Thranes Gate,9,171,Fredensborg,Oslo,59.924358,10.742076,Waldemar Thranes Gate 9
2039,Nordre gate,20,551,Fredensborg,Oslo,59.921148,10.758321,Nordre gate 20
2040,Hagegata,22,653,Grønland,Oslo,59.914421,10.775439,Hagegata 22
2041,Tullins gate,5,166,hammer,Oslo,59.918258,10.7344,Tullins gate 5
2042,Hegdehaugsveien,26,352,Homansbyen,Oslo,59.921099,10.72735,Hegdehaugsveien 26
2043,,,0,Skillebekk,Oslo,59.912647,10.711385,Skillebekkparken
2044,Langbølgen,9,1150,Lambertseter,Oslo,59.87297,10.811539,Langbølgen 9
2045,Rådhusgata,32,151,St. Hanshaugen,Oslo,59.910205,10.738916,Rådhusgata 32
2046,Pilestredet Park,24,176,hammer,Oslo,59.918934,10.737309,Pilestredet Park 24
2047,,,0,Høybråten,Oslo,59.961651,10.928757,Karl Fossums vei 30
2048,Nedre Slottsgate,8,157,St. Hanshaugen,Oslo,59.91216,10.742763,Nedre Slottsgate 8
2049,Hausmanns Gate,28,182,hammer,Oslo,59.9189,10.752393,Hausmanns Gate 28
2050,Lakkegata,71B,562,Enerhaugen,Oslo,59.918719,10.765336,Lakkegata 71B
2051,Trondheimsveien,8,560,Enerhaugen,Oslo,59.919274,10.763718,Trondheimsveien 8
2052,Bryggegangen,6,252,Aker Brygge,Oslo,59.908671,10.721941,Bryggegangen 6
2053,Vogts gate,68,477,Torshov,Oslo,59.9369,10.766484,Vogts gate 68
2054,Bryggegangen,8,252,Aker Brygge,Oslo,59.908554,10.721662,Bryggegangen 8
2055,Roald Amundsens Gate,6,161,Vika,Oslo,59.913523,10.735426,Roald Amundsens Gate 6
2056,Tordenskiolds Gate,1,160,Vika,Oslo,59.913277,10.736424,Tordenskiolds Gate 1
2057,Sørligata,40 b,0,Enerhaugen,Oslo,59.914398,10.771559,Sørligata 40 b
2058,Sofies gate,15B,170,Homansbyen,Oslo,59.922793,10.735818,Sofies gate 15B
2059,Kronprinsesse Märthas Plass,1,160,Vika,Oslo,59.912768,10.732944,Kronprinsesse Märthas Plass 1
2060,Niels Juels Gate,70,259,Briskeby,Oslo,59.919251,10.718535,Niels Juels Gate 70
2061,Møllergata,10,179,hammer,Oslo,59.9144,10.747041,Møllergata 10
2062,Storgata,5,155,St. Hanshaugen,Oslo,59.913199,10.748485,Storgata 5
2063,Steinborgveien,49,678,Helsfyr,Oslo,59.902002,10.803283,Steinborgveien 49
2064,Storgata,5,155,St. Hanshaugen,Oslo,59.913199,10.748485,Storgata 5
2065,Hagegata,23,653,Grønland,Oslo,59.914359,10.774646,Hagegata 23
2066,,,0,Ryen,Oslo,59.893547,10.805305,Ryensvingen 3
2067,Hagegata,34A,653,Grønland,Oslo,59.913702,10.776409,Hagegata 34A
2068,Hallings gate,3A,170,Homansbyen,Oslo,59.922516,10.739095,Hallings gate 3A
2069,Disenveien,31,587,Grefsen,Oslo,59.941651,10.795734,Disenveien 31
2070,Akershusstranda,25,150,St. Hanshaugen,Oslo,59.901814,10.741166,Akershusstranda 25
2071,Kongens Gate,23,153,St. Hanshaugen,Oslo,59.911713,10.743125,Kongens Gate 23
2072,Holmens Gate,5,250,Aker Brygge,Oslo,59.910309,10.725597,Holmens Gate 5
2073,Møllergata,23,179,hammer,Oslo,59.915635,10.74856,Møllergata 23
2074,Henrik Ibsens gate,60C,255,Ruselokka,Oslo,59.914992,10.720439,Henrik Ibsens gate 60C
2075,Kirkeveien,51,368,Majorstuen,Oslo,59.927656999999996,10.713796,Kirkeveien 51
2076,Grenseveien,39,575,Tøyen,Oslo,59.924416,10.787753,Grenseveien 39
2077,Dronningens Gate,15,152,St. Hanshaugen,Oslo,59.910386,10.746016000000001,Dronningens Gate 15
2078,Vogts gate,43,474,Torshov,Oslo,59.933476,10.763881,Vogts gate 43
2079,,,0,Vaterland,Oslo,59.911417,10.751685,Vinmonopolet Oslo S
2080,,,0,Tøyen,Oslo,59.92096,10.780678,Tøyen
2081,Turbinveien,26,195,Gamle Oslo,Oslo,59.904116,10.789531,Turbinveien 26
2082,Strandpromenaden,11,252,Aker Brygge,Oslo,59.90793,10.723236,Strandpromenaden 11
2083,Sarpsborggata,12,468,Torshov,Oslo,59.942084,10.760318999999999,Sarpsborggata 12
2084,Bøkkerveien,15,579,Økern,Oslo,59.927632,10.796924,Bøkkerveien 15
2085,Thorvald Meyers gate,49,555,Fredensborg,Oslo,59.92401,10.758884,Thorvald Meyers gate 49
2086,Fridtjof Nansens Plass,7,160,Vika,Oslo,59.912602,10.735311,Fridtjof Nansens Plass 7
2087,Ullevålsveien,82,454,Bislett,Oslo,59.932921,10.734401,Ullevålsveien 82
2088,Lambertseterveien,30,1152,Lambertseter,Oslo,59.871929,10.80593,Lambertseterveien 30
2089,Sørengkaia,101,194,St. Hanshaugen,Oslo,59.902632,10.752881,Sørengkaia 101
2090,Hausmanns Gate,8,182,hammer,Oslo,59.917118,10.755666,Hausmanns Gate 8
2091,Sommerrogata,1,255,Ruselokka,Oslo,59.915245,10.719612,Sommerrogata 1
2092,Neuberggata,9C,367,Briskeby,Oslo,59.92561,10.714762,Neuberggata 9C
2093,Øvre Slottsgate,6,157,Vika,Oslo,59.911639,10.741155,Øvre Slottsgate 6
2094,Kirsten Flagstads plass,1,150,St. Hanshaugen,Oslo,59.907777,10.752058,Kirsten Flagstads plass 1
2095,Operagata,13,194,Vaterland,Oslo,59.907073,10.755980000000001,Operagata 13
2096,Rådhusgata,28,151,St. Hanshaugen,Oslo,59.909831,10.740738,Rådhusgata 28
2097,,,0,Høybråten,Oslo,59.961651,10.928757,Karl Fossums vei 30
2098,Middelthuns gate,25F,368,Majorstuen,Oslo,59.928541,10.710054,Middelthuns gate 25F
2099,Hovinveien,39,661,Tøyen,Oslo,59.920044,10.791074,Hovinveien 39
2100,Thereses gate,30D,168,Bislett,Oslo,59.928218,10.732465,Thereses gate 30D
2101,Niels Juels gate,31,257,Ruselokka,Oslo,59.91678,10.714860999999999,Niels Juels gate 31
2102,Vetlandsveien,111,685,Opsal,Oslo,59.893014,10.841544,Vetlandsveien 111
2103,Parkveien,13,350,Homansbyen,Oslo,59.921776,10.730371,Parkveien 13
2104,Sørengkaia,51,194,St. Hanshaugen,Oslo,59.903392,10.755541000000001,Sørengkaia 51
